esm_event_id,event_time,isc_event_id,usgs_event_id,ingv_event_id,emsc_event_id,ev_nation_code,ev_latitude,ev_longitude,ev_depth_km,ev_hyp_ref,fm_type_code,ml,ml_ref,mw,mw_ref,ms,ms_ref,emec_mw,emec_mw_type,emec_mw_ref,event_source_id,es_strike,es_dip,es_rake,es_strike_dip_rake_ref,z_top,es_z_top_ref,es_length,es_width,es_geometry_ref,network_code,station_code,location_code,instrument_code,sensor_depth_m,proximity,hounsing,installation,st_nation_code,st_latitude,st_longitude,st_elevation,ec8_code,ec8_code_method,ec8_code_from_topography,ec8_code_ref,vs30_m_s,vs30_ref,vs30_calc_method,vs30_meas_type,slope_deg,vs30_m_s_wa,epi_dist,epi_az,jb_dist,rup_dist,rx_dist,ry0_dist,u_hp,v_hp,w_hp,u_lp,v_lp,w_lp,u_pga,v_pga,w_pga,rotd50_pga,rotd100_pga,rotd00_pga,u_pgv,v_pgv,w_pgv,rotd50_pgv,rotd100_pgv,rotd00_pgv,u_pgd,v_pgd,w_pgd,rotd50_pgd,rotd100_pgd,rotd00_pgd,u_t90,v_t90,w_t90,rotd50_t90,rotd100_t90,rot_d00_t90,u_housner,v_housner,w_housner,rotd50_housner,rotd100_housner,rotd00_housner,u_cav,v_cav,w_cav,rotd50_cav,rotd100_cav,rotd00_cav,u_ia,v_ia,w_ia,rotd50_ia,rotd100_ia,rotd00_ia,u_t0_010,u_t0_025,u_t0_040,u_t0_050,u_t0_070,u_t0_100,u_t0_150,u_t0_200,u_t0_250,u_t0_300,u_t0_350,u_t0_400,u_t0_450,u_t0_500,u_t0_600,u_t0_700,u_t0_750,u_t0_800,u_t0_900,u_t1_000,u_t1_200,u_t1_400,u_t1_600,u_t1_800,u_t2_000,u_t2_500,u_t3_000,u_t3_500,u_t4_000,u_t4_500,u_t5_000,u_t6_000,u_t7_000,u_t8_000,u_t9_000,u_t10_000,v_t0_010,v_t0_025,v_t0_040,v_t0_050,v_t0_070,v_t0_100,v_t0_150,v_t0_200,v_t0_250,v_t0_300,v_t0_350,v_t0_400,v_t0_450,v_t0_500,v_t0_600,v_t0_700,v_t0_750,v_t0_800,v_t0_900,v_t1_000,v_t1_200,v_t1_400,v_t1_600,v_t1_800,v_t2_000,v_t2_500,v_t3_000,v_t3_500,v_t4_000,v_t4_500,v_t5_000,v_t6_000,v_t7_000,v_t8_000,v_t9_000,v_t10_000,w_t0_010,w_t0_025,w_t0_040,w_t0_050,w_t0_070,w_t0_100,w_t0_150,w_t0_200,w_t0_250,w_t0_300,w_t0_350,w_t0_400,w_t0_450,w_t0_500,w_t0_600,w_t0_700,w_t0_750,w_t0_800,w_t0_900,w_t1_000,w_t1_200,w_t1_400,w_t1_600,w_t1_800,w_t2_000,w_t2_500,w_t3_000,w_t3_500,w_t4_000,w_t4_500,w_t5_000,w_t6_000,w_t7_000,w_t8_000,w_t9_000,w_t10_000,rotd50_t0_010,rotd50_t0_025,rotd50_t0_040,rotd50_t0_050,rotd50_t0_070,rotd50_t0_100,rotd50_t0_150,rotd50_t0_200,rotd50_t0_250,rotd50_t0_300,rotd50_t0_350,rotd50_t0_400,rotd50_t0_450,rotd50_t0_500,rotd50_t0_600,rotd50_t0_700,rotd50_t0_750,rotd50_t0_800,rotd50_t0_900,rotd50_t1_000,rotd50_t1_200,rotd50_t1_400,rotd50_t1_600,rotd50_t1_800,rotd50_t2_000,rotd50_t2_500,rotd50_t3_000,rotd50_t3_500,rotd50_t4_000,rotd50_t4_500,rotd50_t5_000,rotd50_t6_000,rotd50_t7_000,rotd50_t8_000,rotd50_t9_000,rotd50_t10_000,rotd100_t0_010,rotd100_t0_025,rotd100_t0_040,rotd100_t0_050,rotd100_t0_070,rotd100_t0_100,rotd100_t0_150,rotd100_t0_200,rotd100_t0_250,rotd100_t0_300,rotd100_t0_350,rotd100_t0_400,rotd100_t0_450,rotd100_t0_500,rotd100_t0_600,rotd100_t0_700,rotd100_t0_750,rotd100_t0_800,rotd100_t0_900,rotd100_t1_000,rotd100_t1_200,rotd100_t1_400,rotd100_t1_600,rotd100_t1_800,rotd100_t2_000,rotd100_t2_500,rotd100_t3_000,rotd100_t3_500,rotd100_t4_000,rotd100_t4_500,rotd100_t5_000,rotd100_t6_000,rotd100_t7_000,rotd100_t8_000,rotd100_t9_000,rotd100_t10_000,rotd00_t0_010,rotd00_t0_025,rotd00_t0_040,rotd00_t0_050,rotd00_t0_070,rotd00_t0_100,rotd00_t0_150,rotd00_t0_200,rotd00_t0_250,rotd00_t0_300,rotd00_t0_350,rotd00_t0_400,rotd00_t0_450,rotd00_t0_500,rotd00_t0_600,rotd00_t0_700,rotd00_t0_750,rotd00_t0_800,rotd00_t0_900,rotd00_t1_000,rotd00_t1_200,rotd00_t1_400,rotd00_t1_600,rotd00_t1_800,rotd00_t2_000,rotd00_t2_500,rotd00_t3_000,rotd00_t3_500,rotd00_t4_000,rotd00_t4_500,rotd00_t5_000,rotd00_t6_000,rotd00_t7_000,rotd00_t8_000,rotd00_t9_000,rotd00_t10_000
AL-2016-0004,2016-10-16T02:18:00,,,,,GR,39.7342,20.7236,18.8506,,SS,3.8,,4.35,,,,,,,,,,,,,,,,,HI,MSL1,,D,0,,,,GR,38.3727,21.4243,1,,topography,,,,,,,0.75,334.6,162.862884,157.913823,,,,,0.15,0.15,0.15,40,40,40,-0.115878,-0.109884,-0.071159,0.115674,0.120778,0.107969,0.01259,0.01031,0.004635,0.0118696,0.013256,0.010054,0.002247,0.001394,0.00072,0.002074945,0.00229253,0.010054,40.095,41.59,64.01,40.69,41.925,39.125,0.0625554,0.0481088,0.0205065,0.05641437,0.062781738,0.047444438,1.27280444,1.346505165,0.7426882,1.316867693,1.346571296,1.26970861,6.43E-05,6.88E-05,1.78E-05,6.66E-05,6.90E-05,6.41E-05,0.115886,0.116308,0.116465,0.118532,0.11855,0.130139,0.164504,0.204878,0.222823,0.325715,0.297486,0.292151,0.404902,0.340735,0.518212,0.394701,0.273553,0.298844,0.309361,0.295046,0.140122,0.090938,0.092978,0.082202,0.084615,0.034996,0.01461,0.010841,0.007242,0.007138,0.004683,0.002927,0.002384,0.001894,0.0016,0.001308,0.109915,0.111805,0.110379,0.110402,0.181743,0.123849,0.177303,0.259488,0.325803,0.362453,0.244397,0.350251,0.410762,0.475789,0.473117,0.450706,0.301863,0.230536,0.239473,0.196509,0.109208,0.071676,0.052147,0.050133,0.037132,0.024159,0.012345,0.008434,0.005118,0.003946,0.003207,0.002252,0.001572,0.001201,0.00106,0.000891,0.071272,0.078694,0.176206,0.155061,0.458866,0.233843,0.122004,0.21799,0.125228,0.110812,0.087586,0.086272,0.10794,0.134213,0.193733,0.168852,0.155374,0.12874,0.102276,0.090978,0.066566,0.044955,0.030801,0.018082,0.011316,0.007072,0.004071,0.00312,0.002364,0.001973,0.001508,0.001175,0.000797,0.000595,0.000515,0.000402,0.115939,0.116289,0.1163075,0.1173305,0.133897,0.12838,0.185462,0.226226,0.275492,0.3204945,0.2916545,0.321977,0.4170215,0.457739,0.497231,0.4315945,0.2991895,0.274749,0.2693535,0.254545,0.1306705,0.07888335,0.08165765,0.0652387,0.06050395,0.02794605,0.0130605,0.00914528,0.006719385,0.00612678,0.004386925,0.0027937,0.00211875,0.00161953,0.00130233,0.001120795,0.121061,0.122446,0.122799,0.122385,0.183028,0.133245,0.20372,0.259488,0.325803,0.363679,0.311265,0.372769,0.4555,0.516148,0.524262,0.470586,0.313853,0.302778,0.317871,0.321947,0.144952,0.0995417,0.0970703,0.0846156,0.0855032,0.0378527,0.0154986,0.0108975,0.00815296,0.0072555,0.00521483,0.00314452,0.00249378,0.00193626,0.0016154,0.00132741,0.10856,0.110534,0.108462,0.110401,0.114927,0.11707,0.153871,0.187733,0.212978,0.269752,0.240677,0.285764,0.363234,0.33782,0.435895,0.353586,0.260248,0.230536,0.20223,0.159609,0.093913,0.0687982,0.0484239,0.0449263,0.035536,0.017921,0.00998791,0.00643304,0.00460482,0.00368603,0.00300822,0.00223256,0.00157121,0.00115018,0.00102412,0.000890416
AL-2016-0004,2016-10-16T02:18:00,,,,,GR,39.7342,20.7236,18.8506,,SS,3.8,,4.35,,,,,,,,,,,,,,,,,AC,FIER,0,D,,Inside structure,Building,Building floor,AL,40.7174,19.5669,,B,vs_profile,,,374,AC,,MASW,1.68,406.3,147.0039761,318.3291492,,,,,0.2,0.2,0.2,25,25,25,0.114548,-0.113599,-0.056743,0.11779,0.13931,0.111544,-0.006721,-0.006967,-0.004036,0.008248115,0.00922995,0.00651938,-0.001087,-0.000942,0.000583,0.000960129,0.00109936,0.00651938,33.465,33.645,46.83,33.4875,35.795,30.815,0.0298019,0.0302399,0.0159919,0.03002085,0.0330841,0.0264309,1.118125455,1.008456815,0.609996385,1.064796627,1.153353751,0.960870315,5.62E-05,4.55E-05,1.32E-05,5.09E-05,5.90E-05,4.27E-05,0.114548,0.115142,0.117926,0.121672,0.148069,0.1802,0.226792,0.414898,0.402295,0.528648,0.419313,0.404035,0.305001,0.325596,0.179904,0.172706,0.144109,0.135113,0.102464,0.078704,0.076344,0.050313,0.039554,0.028452,0.021522,0.015454,0.014012,0.007682,0.006422,0.003235,0.002256,0.001539,0.001023,0.000858,0.000717,0.000603,0.113821,0.11483,0.116462,0.118053,0.129958,0.155752,0.288737,0.388606,0.355865,0.387873,0.37817,0.317994,0.347585,0.341047,0.270052,0.136806,0.143698,0.116756,0.095493,0.075804,0.056816,0.06091,0.043012,0.024526,0.01992,0.018405,0.008235,0.006565,0.004206,0.002849,0.002123,0.001537,0.001002,0.000826,0.000658,0.00057,0.05676,0.058325,0.061015,0.073648,0.080894,0.128295,0.107482,0.111135,0.136218,0.180292,0.190151,0.154183,0.147281,0.117601,0.144077,0.085071,0.078623,0.06904,0.058251,0.051126,0.032869,0.029618,0.024004,0.017654,0.017808,0.005853,0.006829,0.003859,0.002244,0.001608,0.001526,0.000967,0.000585,0.000514,0.000396,0.000353,0.117853,0.119117,0.121537,0.12447,0.1474115,0.174413,0.271781,0.3893895,0.365122,0.413331,0.4189885,0.3635845,0.3100845,0.339409,0.221911,0.1612165,0.1428765,0.1277145,0.1010545,0.0779185,0.0666155,0.0582565,0.039009,0.025265,0.019733,0.015379,0.011301,0.0069575,0.005013,0.003211,0.0022805,0.0015255,0.001154,0.0008835,0.000733,0.0006265,0.139482,0.140738,0.144976,0.152771,0.17362,0.182534,0.31652,0.437462,0.422812,0.584538,0.457993,0.429659,0.377447,0.370586,0.281352,0.198905,0.153599,0.141302,0.132313,0.087159,0.09145,0.06597,0.04476,0.028819,0.02383,0.01871,0.014121,0.007695,0.006425,0.003489,0.002576,0.001622,0.001248,0.000929,0.000783,0.000694,0.111554,0.112552,0.115164,0.117127,0.129958,0.149702,0.226391,0.321135,0.302182,0.364126,0.307107,0.227921,0.26132,0.256024,0.174965,0.136806,0.126342,0.109117,0.077864,0.058897,0.052995,0.042048,0.033741,0.02291,0.016344,0.01261,0.008237,0.005172,0.003898,0.002815,0.002056,0.001373,0.000958,0.000779,0.000631,0.000559
AL-2016-0004,2016-10-16T02:18:00,,,,,GR,39.7342,20.7236,18.8506,,SS,3.8,,4.35,,,,,,,,,,,,,,,,,HI,ART2,,D,0,,,,GR,39.1474,20.9937,191,,topography,,,,,,,10.18,817.1,69.1737453,160.2723743,,,,,0.15,0.15,0.15,40,40,40,0.151484,-0.112113,0.095547,0.1250885,0.169564,0.0881089,-0.008518,-0.005755,-0.005123,0.00757724,0.00856011,0.00543383,-0.000943,0.000688,-0.000524,0.000792468,0.00111318,0.00543383,49.855,36.66,34.715,44.34,50.32,34.925,0.0212848,0.0203088,0.0180825,0.020560506,0.023149857,0.01815852,0.734210495,0.712760955,0.57061553,0.72475618,0.800337132,0.643905541,2.36E-05,2.34E-05,1.55E-05,2.35E-05,2.82E-05,1.88E-05,0.151537,0.156788,0.173986,0.194043,0.208596,0.28937,0.330155,0.258381,0.208449,0.173,0.170348,0.216474,0.317378,0.362203,0.299507,0.195226,0.160724,0.110115,0.06683,0.05235,0.03224,0.024653,0.019316,0.017131,0.012537,0.008254,0.00633,0.004605,0.004052,0.003298,0.002791,0.001552,0.001187,0.000932,0.000767,0.000659,0.113464,0.119291,0.144768,0.222106,0.221878,0.187827,0.261638,0.23566,0.196983,0.194421,0.168543,0.170125,0.254159,0.222233,0.18203,0.120917,0.11085,0.097156,0.089105,0.087266,0.041576,0.026852,0.018443,0.016441,0.019026,0.013248,0.008697,0.005546,0.003551,0.002589,0.002051,0.001294,0.000833,0.000635,0.000473,0.000458,0.095921,0.097078,0.117663,0.12287,0.206653,0.163925,0.204214,0.215431,0.225943,0.138926,0.14567,0.131552,0.147844,0.211331,0.218922,0.103587,0.077926,0.067399,0.068353,0.071588,0.055894,0.031455,0.023928,0.015166,0.011292,0.006691,0.007102,0.00332,0.002286,0.001836,0.001339,0.000829,0.000559,0.000481,0.000405,0.000358,0.12555,0.1313755,0.1624075,0.2084235,0.214971,0.2239455,0.299416,0.246322,0.1957595,0.183853,0.1661855,0.185552,0.287231,0.28893,0.2454465,0.172152,0.1377985,0.101268,0.08271485,0.06970195,0.0334744,0.0245751,0.0180343,0.01665875,0.0158112,0.010744,0.007610935,0.00509642,0.00380722,0.002931735,0.002283465,0.00140376,0.000996073,0.000819894,0.000679084,0.00058191,0.171605,0.172951,0.202719,0.230557,0.253872,0.302988,0.334725,0.320499,0.224786,0.216241,0.191287,0.237178,0.342517,0.38002,0.299549,0.214555,0.179024,0.135793,0.0914054,0.0875036,0.0435466,0.0275186,0.0214781,0.0194929,0.0190258,0.01384,0.0107072,0.00713047,0.00531613,0.00408723,0.0031901,0.00168847,0.00130146,0.0010206,0.00085644,0.000753776,0.0882491,0.0902366,0.135737,0.169031,0.169063,0.156927,0.221883,0.205443,0.160967,0.147968,0.139989,0.152847,0.121067,0.158747,0.179227,0.111104,0.102979,0.0865834,0.0630825,0.0508586,0.0296575,0.0202123,0.0139681,0.0138272,0.0100139,0.00699183,0.00579196,0.00434562,0.00223447,0.00175231,0.00144336,0.000913301,0.0006938,0.000578422,0.000473397,0.000431139
AL-2016-0007,2016-10-15T21:42:00,,,,,GR,39.7492,20.7102,17.6203,,SS,3.6,,4.39,,,,,,,,,,,,,,,,,AC,KBN,0,D,0,Inside structure,Building,Pillar,AL,40.6236,20.7874,800,B,vs_profile,,,742,AC,,MASW,1.88,420.1,97.31414194,3.848923841,,,,,0.25,0.25,0.25,25,25,25,0.010173,0.012235,-0.010244,0.0115775,0.012666,0.009337,0.00094,0.00135,0.001131,0.001109035,0.00148028,0.000870495,0.000153,0.000209,-0.000174,0.000184929,0.00021811,0.000870495,49.325,46.935,43.705,48.105,49.395,46.935,0.00447701,0.00482149,0.00349533,0.00481867,0.00492841,0.00442887,0.127348325,0.138418445,0.11498672,0.133265978,0.13942878,0.12582883,5.55E-07,6.72E-07,4.79E-07,6.13E-07,6.82E-07,5.44E-07,0.010173,0.010438,0.011235,0.012339,0.017405,0.023948,0.028597,0.022363,0.020055,0.033231,0.02685,0.026092,0.022643,0.022312,0.021566,0.027162,0.027125,0.026192,0.013759,0.013832,0.014145,0.014042,0.008804,0.00554,0.00376,0.003185,0.001655,0.001228,0.000699,0.000547,0.000548,0.000265,0.000179,0.000134,0.000103,8.10E-05,0.012293,0.012422,0.013163,0.014363,0.015916,0.023726,0.021133,0.021723,0.024061,0.035679,0.036424,0.037115,0.039529,0.046872,0.040232,0.028326,0.024101,0.025652,0.019374,0.014868,0.01342,0.008213,0.007412,0.005416,0.004202,0.002701,0.001888,0.001179,0.00081,0.000626,0.000514,0.000297,0.000234,0.000147,0.000153,0.000105,0.010283,0.010611,0.01118,0.013769,0.023733,0.029979,0.024749,0.024488,0.021253,0.017479,0.02454,0.034699,0.020371,0.020473,0.024826,0.020905,0.020469,0.019124,0.019293,0.014317,0.007292,0.006742,0.006376,0.003808,0.002422,0.002238,0.001185,0.000779,0.000584,0.000557,0.000481,0.000237,0.000186,0.000134,9.60E-05,8.30E-05,0.011593,0.011641,0.0126685,0.0136885,0.0162385,0.0246245,0.0256405,0.0214435,0.0215885,0.032888,0.030057,0.0299765,0.0326935,0.0394465,0.0291765,0.0281105,0.023775,0.024943,0.016191,0.013804,0.0138995,0.011417,0.0075445,0.005615,0.004259,0.0032,0.00174,0.001253,0.000729,0.000635,0.0005425,0.0002935,0.0002095,0.0001615,0.0001255,0.000101,0.012675,0.012803,0.013732,0.015001,0.021607,0.027571,0.03006,0.022388,0.024195,0.035927,0.036855,0.037115,0.041562,0.048631,0.040777,0.03093,0.028778,0.027863,0.019961,0.015372,0.014895,0.014466,0.008827,0.006224,0.004752,0.003904,0.00239,0.001428,0.000837,0.000722,0.000569,0.000341,0.000234,0.000181,0.000154,0.000118,0.009346,0.009779,0.010812,0.011478,0.013626,0.022929,0.020197,0.01898,0.018853,0.028861,0.023961,0.025357,0.022643,0.022312,0.021168,0.021603,0.019093,0.01831,0.013543,0.011842,0.01017,0.007797,0.006647,0.005046,0.003493,0.002378,0.001375,0.000915,0.000639,0.000517,0.000474,0.000255,0.000168,0.000125,0.000102,8.10E-05
AL-2016-0007,2016-10-15T21:42:00,,,,,GR,39.7492,20.7102,17.6203,,SS,3.6,,4.39,,,,,,,,,,,,,,,,,AC,FIER,0,D,,Inside structure,Building,Building floor,AL,40.7174,19.5669,,B,vs_profile,,,374,AC,,MASW,1.68,406.3,144.9965286,318.2220241,,,,,0.25,0.25,0.25,25,25,25,-0.029296,-0.028995,-0.014476,0.0291455,0.032814,0.019885,0.001833,-0.001993,0.000923,0.001959075,0.00204503,0.00170928,0.000336,-0.000272,-0.0002,0.00030236,0.000354285,0.00170928,49.355,49.13,71.07,49.2425,51.415,47.375,0.00790867,0.00818823,0.00448797,0.008048965,0.0090055,0.00692434,0.31497511,0.32487997,0.20578069,0.320088443,0.34655189,0.293070105,3.31E-06,3.48E-06,1.14E-06,3.40E-06,4.08E-06,2.71E-06,0.029349,0.029664,0.029895,0.029945,0.031925,0.036141,0.083556,0.067183,0.075101,0.081151,0.072805,0.083479,0.090587,0.074352,0.05888,0.059566,0.058704,0.048756,0.035441,0.026627,0.023968,0.011371,0.007986,0.007396,0.004184,0.004911,0.003988,0.002578,0.002054,0.001182,0.000635,0.0006,0.000369,0.000275,0.000242,0.000211,0.029032,0.029314,0.030391,0.031973,0.034767,0.039871,0.091847,0.100497,0.065117,0.056392,0.059772,0.067577,0.072906,0.061914,0.06471,0.050822,0.046266,0.047223,0.030982,0.032389,0.020215,0.017598,0.010418,0.008579,0.006639,0.004109,0.003671,0.002533,0.00183,0.001252,0.000665,0.000532,0.000356,0.000261,0.000216,0.000159,0.014508,0.014699,0.014729,0.018829,0.033402,0.035631,0.04888,0.036863,0.025732,0.027305,0.033396,0.031492,0.030173,0.035447,0.035774,0.033041,0.026813,0.022931,0.016244,0.014518,0.007948,0.009387,0.005886,0.005864,0.005736,0.00324,0.002504,0.002204,0.001146,0.000924,0.000646,0.00036,0.000279,0.000157,0.000136,0.000117,0.0291905,0.029489,0.030143,0.0310935,0.032961,0.0371725,0.0872465,0.0863095,0.0724105,0.0660385,0.067313,0.0800155,0.080158,0.068807,0.060456,0.050782,0.0476035,0.045929,0.031339,0.0302525,0.022844,0.0151125,0.0095585,0.0078315,0.0057985,0.0041435,0.0036735,0.002613,0.0018085,0.0012145,0.0006865,0.0005575,0.000367,0.000272,0.0002195,0.000171,0.032851,0.03324,0.034023,0.03531,0.040043,0.042238,0.106565,0.104226,0.081493,0.092387,0.073851,0.084638,0.104758,0.079189,0.067131,0.059754,0.058704,0.050684,0.037142,0.037386,0.025901,0.018132,0.012013,0.00948,0.006639,0.005375,0.004019,0.002819,0.002098,0.001385,0.000786,0.00061,0.000401,0.000297,0.000243,0.00021,0.019924,0.020086,0.020844,0.022602,0.027944,0.033479,0.061376,0.059272,0.063972,0.048791,0.056552,0.066879,0.060609,0.057637,0.043766,0.042867,0.040268,0.037269,0.025073,0.019708,0.014598,0.011149,0.0075,0.005656,0.004184,0.003765,0.003305,0.002148,0.001432,0.000959,0.000611,0.000457,0.000277,0.000222,0.000177,0.000152
AL-2016-0007,2016-10-15T21:42:00,,,,,GR,39.7492,20.7102,17.6203,,SS,3.6,,4.39,,,,,,,,,,,,,,,,,AC,TPE,0,D,,Inside structure,Building,Building floor,AL,40.2948,20.0155,367,B,vs_profile,,,686,AC,,MASW,11.84,860.3,84.77556529,315.8330433,,,,,0.25,0.25,0.25,25,25,25,-0.081506,0.080442,-0.041982,0.080136,0.093444,0.07053,0.003636,0.003246,0.00192,0.00345861,0.00368698,0.00301225,0.000414,-0.00042,-0.000291,0.000435458,0.000500383,0.00301225,31.925,30.195,31.425,30.695,32.005,30.04,0.0130982,0.013978,0.00819122,0.013531,0.0154596,0.010596,0.605439375,0.563023335,0.34602089,0.585210177,0.605497715,0.56213233,1.86E-05,1.64E-05,5.82E-06,1.75E-05,1.89E-05,1.61E-05,0.081663,0.084099,0.09081,0.105666,0.155773,0.262058,0.311044,0.221766,0.148052,0.159548,0.119558,0.123649,0.108803,0.110717,0.107885,0.072365,0.065624,0.071621,0.055031,0.044077,0.03151,0.025864,0.013408,0.01123,0.00952,0.005467,0.002667,0.001661,0.00138,0.001145,0.000893,0.000634,0.000521,0.000399,0.000327,0.00029,0.080443,0.081938,0.087266,0.110347,0.141273,0.254455,0.292037,0.2685,0.148292,0.12526,0.122721,0.088306,0.099124,0.099181,0.083939,0.069753,0.058461,0.066054,0.075373,0.058548,0.035215,0.0248,0.017,0.013074,0.011258,0.005429,0.002813,0.002437,0.001631,0.001266,0.000982,0.000645,0.000519,0.000428,0.000348,0.000291,0.042205,0.043679,0.050537,0.073568,0.083147,0.097809,0.154432,0.149898,0.077738,0.079986,0.076338,0.067645,0.051037,0.070891,0.061786,0.052419,0.051878,0.045069,0.033114,0.035384,0.018349,0.012684,0.0109,0.008267,0.007165,0.003405,0.003003,0.001825,0.001115,0.000734,0.000684,0.00044,0.000357,0.000258,0.000212,0.000175,0.0802215,0.0816825,0.0883415,0.108174,0.1481655,0.2717155,0.3284775,0.25321,0.143975,0.1451455,0.1288355,0.1044855,0.104973,0.105584,0.0952905,0.0708235,0.060887,0.066824,0.0655915,0.0481745,0.0333865,0.0254065,0.0145855,0.011979,0.0104005,0.0054475,0.0027685,0.001992,0.0015905,0.001249,0.00095,0.000634,0.000503,0.000398,0.000338,0.0002935,0.09379,0.095616,0.106621,0.119235,0.205011,0.296297,0.364328,0.277643,0.150322,0.165094,0.142437,0.129469,0.113482,0.117183,0.121013,0.076551,0.070291,0.074118,0.083377,0.059503,0.041356,0.02879,0.018501,0.014482,0.012937,0.006872,0.003189,0.002561,0.001858,0.001501,0.001053,0.000743,0.000558,0.000458,0.000379,0.000316,0.071033,0.073588,0.082289,0.093666,0.113687,0.224898,0.262159,0.207061,0.118324,0.123945,0.119393,0.084171,0.094587,0.075111,0.073627,0.055982,0.050832,0.055664,0.036453,0.031895,0.024014,0.013165,0.011569,0.007237,0.005629,0.003547,0.002093,0.001441,0.001162,0.000977,0.000744,0.000536,0.000443,0.000355,0.000306,0.000266
