esm_event_id,event_time,isc_event_id,usgs_event_id,ingv_event_id,emsc_event_id,ev_nation_code,ev_latitude,ev_longitude,ev_depth_km,ev_hyp_ref,fm_type_code,ml,ml_ref,mw,mw_ref,ms,ms_ref,emec_mw,emec_mw_type,emec_mw_ref,event_source_id,es_strike,es_dip,es_rake,es_strike_dip_rake_ref,z_top,es_z_top_ref,es_length,es_width,es_geometry_ref,network_code,station_code,location_code,instrument_code,sensor_depth_m,proximity,hounsing,installation,st_nation_code,st_latitude,st_longitude,st_elevation,ec8_code,ec8_code_method,ec8_code_from_topography,ec8_code_ref,vs30_m_s,vs30_ref,vs30_calc_method,vs30_meas_type,slope_deg,vs30_m_s_wa,epi_dist,epi_az,jb_dist,rup_dist,rx_dist,ry0_dist,u_hp,v_hp,w_hp,u_lp,v_lp,w_lp,u_pga,v_pga,w_pga,rotd50_pga,rotd100_pga,rotd00_pga,u_pgv,v_pgv,w_pgv,rotd50_pgv,rotd100_pgv,rotd00_pgv,u_pgd,v_pgd,w_pgd,rotd50_pgd,rotd100_pgd,rotd00_pgd,u_t90,v_t90,w_t90,rotd50_t90,rotd100_t90,rot_d00_t90,u_housner,v_housner,w_housner,rotd50_housner,rotd100_housner,rotd00_housner,u_cav,v_cav,w_cav,rotd50_cav,rotd100_cav,rotd00_cav,u_ia,v_ia,w_ia,rotd50_ia,rotd100_ia,rotd00_ia,u_t0_010,u_t0_025,u_t0_040,u_t0_050,u_t0_070,u_t0_100,u_t0_150,u_t0_200,u_t0_250,u_t0_300,u_t0_350,u_t0_400,u_t0_450,u_t0_500,u_t0_600,u_t0_700,u_t0_750,u_t0_800,u_t0_900,u_t1_000,u_t1_200,u_t1_400,u_t1_600,u_t1_800,u_t2_000,u_t2_500,u_t3_000,u_t3_500,u_t4_000,u_t4_500,u_t5_000,u_t6_000,u_t7_000,u_t8_000,u_t9_000,u_t10_000,v_t0_010,v_t0_025,v_t0_040,v_t0_050,v_t0_070,v_t0_100,v_t0_150,v_t0_200,v_t0_250,v_t0_300,v_t0_350,v_t0_400,v_t0_450,v_t0_500,v_t0_600,v_t0_700,v_t0_750,v_t0_800,v_t0_900,v_t1_000,v_t1_200,v_t1_400,v_t1_600,v_t1_800,v_t2_000,v_t2_500,v_t3_000,v_t3_500,v_t4_000,v_t4_500,v_t5_000,v_t6_000,v_t7_000,v_t8_000,v_t9_000,v_t10_000,w_t0_010,w_t0_025,w_t0_040,w_t0_050,w_t0_070,w_t0_100,w_t0_150,w_t0_200,w_t0_250,w_t0_300,w_t0_350,w_t0_400,w_t0_450,w_t0_500,w_t0_600,w_t0_700,w_t0_750,w_t0_800,w_t0_900,w_t1_000,w_t1_200,w_t1_400,w_t1_600,w_t1_800,w_t2_000,w_t2_500,w_t3_000,w_t3_500,w_t4_000,w_t4_500,w_t5_000,w_t6_000,w_t7_000,w_t8_000,w_t9_000,w_t10_000,rotd50_t0_010,rotd50_t0_025,rotd50_t0_040,rotd50_t0_050,rotd50_t0_070,rotd50_t0_100,rotd50_t0_150,rotd50_t0_200,rotd50_t0_250,rotd50_t0_300,rotd50_t0_350,rotd50_t0_400,rotd50_t0_450,rotd50_t0_500,rotd50_t0_600,rotd50_t0_700,rotd50_t0_750,rotd50_t0_800,rotd50_t0_900,rotd50_t1_000,rotd50_t1_200,rotd50_t1_400,rotd50_t1_600,rotd50_t1_800,rotd50_t2_000,rotd50_t2_500,rotd50_t3_000,rotd50_t3_500,rotd50_t4_000,rotd50_t4_500,rotd50_t5_000,rotd50_t6_000,rotd50_t7_000,rotd50_t8_000,rotd50_t9_000,rotd50_t10_000,rotd100_t0_010,rotd100_t0_025,rotd100_t0_040,rotd100_t0_050,rotd100_t0_070,rotd100_t0_100,rotd100_t0_150,rotd100_t0_200,rotd100_t0_250,rotd100_t0_300,rotd100_t0_350,rotd100_t0_400,rotd100_t0_450,rotd100_t0_500,rotd100_t0_600,rotd100_t0_700,rotd100_t0_750,rotd100_t0_800,rotd100_t0_900,rotd100_t1_000,rotd100_t1_200,rotd100_t1_400,rotd100_t1_600,rotd100_t1_800,rotd100_t2_000,rotd100_t2_500,rotd100_t3_000,rotd100_t3_500,rotd100_t4_000,rotd100_t4_500,rotd100_t5_000,rotd100_t6_000,rotd100_t7_000,rotd100_t8_000,rotd100_t9_000,rotd100_t10_000,rotd00_t0_010,rotd00_t0_025,rotd00_t0_040,rotd00_t0_050,rotd00_t0_070,rotd00_t0_100,rotd00_t0_150,rotd00_t0_200,rotd00_t0_250,rotd00_t0_300,rotd00_t0_350,rotd00_t0_400,rotd00_t0_450,rotd00_t0_500,rotd00_t0_600,rotd00_t0_700,rotd00_t0_750,rotd00_t0_800,rotd00_t0_900,rotd00_t1_000,rotd00_t1_200,rotd00_t1_400,rotd00_t1_600,rotd00_t1_800,rotd00_t2_000,rotd00_t2_500,rotd00_t3_000,rotd00_t3_500,rotd00_t4_000,rotd00_t4_500,rotd00_t5_000,rotd00_t6_000,rotd00_t7_000,rotd00_t8_000,rotd00_t9_000,rotd00_t10_000
EMSC-20090527_0000068,2009-05-27T20:34:00,,,,,AL,41.185,20.2,10,,SS,3.4,,4.35,,,,,,,,,,,,,,,,,MN,PDG,,D,5,,,,ME,42.4297,19.2608,40,,geology,,S4_2007-2009_DiCapua_et_al_2011,,,,,1.21,372.7,158.7550021,330.8652659,,,,,0.2,0.2,0.2,30,30,30,0.064327,-0.051303,-0.050943,0.057541,0.065074,0.050623,0.002553,-0.003111,-0.001996,0.002977695,0.00320037,0.00239954,0.000284,0.000386,0.000322,0.000314586,0.000391811,0.00239954,41.585,40.135,43.775,40.74,44.275,38.14,0.00933977,0.0106691,0.00850595,0.01020125,0.0107479,0.00926634,0.39158489,0.361405665,0.365256695,0.375143585,0.393368825,0.35990238,6.08E-06,5.65E-06,5.15E-06,5.86E-06,6.19E-06,5.53E-06,0.064529,0.065884,0.069738,0.073334,0.086255,0.106366,0.152463,0.214738,0.160942,0.146335,0.153719,0.108525,0.106507,0.108348,0.065353,0.036983,0.03528,0.030568,0.024965,0.02983,0.026613,0.014728,0.008877,0.008493,0.008032,0.004229,0.003429,0.001677,0.001358,0.001083,0.000847,0.00054,0.000371,0.000298,0.000233,0.000206,0.051321,0.052323,0.062332,0.056694,0.076404,0.092266,0.137801,0.117386,0.121361,0.142198,0.153885,0.165772,0.166297,0.148226,0.085218,0.058037,0.05261,0.036187,0.031606,0.027392,0.025131,0.015515,0.009135,0.008634,0.00678,0.007862,0.004973,0.003239,0.002172,0.001671,0.001031,0.000727,0.000567,0.000416,0.000328,0.000277,0.050971,0.052065,0.06046,0.054243,0.072762,0.101535,0.144378,0.180475,0.134011,0.104867,0.095321,0.076682,0.079528,0.099612,0.053985,0.05964,0.051118,0.048856,0.031801,0.021645,0.016715,0.011971,0.008202,0.005987,0.00521,0.007002,0.003689,0.003426,0.002375,0.001956,0.001028,0.000693,0.000453,0.000304,0.000265,0.000222,0.0576345,0.058499,0.0618485,0.0656945,0.0776105,0.1029555,0.1486,0.172152,0.1439125,0.144546,0.153802,0.13948,0.1237005,0.12368,0.068501,0.0498435,0.043706,0.036292,0.030746,0.027932,0.028287,0.015581,0.0095475,0.0086205,0.0075025,0.005723,0.0043905,0.002492,0.0016685,0.0014215,0.000894,0.000583,0.0004745,0.0003395,0.0002745,0.0002345,0.065106,0.066303,0.069738,0.074199,0.090199,0.128576,0.17196,0.224432,0.18471,0.196898,0.209745,0.184759,0.168023,0.149118,0.087533,0.059128,0.052632,0.03952,0.034042,0.037324,0.030768,0.017791,0.010336,0.008906,0.008849,0.007862,0.005755,0.003239,0.002218,0.001748,0.00107,0.000745,0.000569,0.00042,0.000334,0.000284,0.050715,0.052023,0.054816,0.055733,0.068449,0.09051,0.135757,0.107609,0.111532,0.086353,0.08093,0.108525,0.102425,0.081815,0.046397,0.034592,0.029832,0.028171,0.024121,0.019856,0.023209,0.012773,0.008877,0.008031,0.006315,0.004142,0.003217,0.001677,0.001307,0.00097,0.000799,0.000469,0.000349,0.000283,0.000214,0.00018
EMSC-20090912_0000151,2009-09-12T18:42:00,,,,,AL,41.4,20.4,2,,SS,4.3,,4.3,,,,,,,,,,,,,,,,,MN,PDG,,D,5,,,,ME,42.4297,19.2608,40,,geology,,S4_2007-2009_DiCapua_et_al_2011,,,,,1.21,372.7,148.3632648,320.8108228,,,,,0.15,0.15,0.15,25,25,25,0.099232,-0.095131,0.104537,0.099354,0.113023,0.07433,-0.00541,0.004419,-0.004033,0.005091355,0.00579423,0.00351544,0.001087,0.000964,0.000555,0.001046325,0.00142884,0.00351544,31.59,35.425,33.615,33.13,36.555,28.605,0.0200208,0.0181835,0.0128341,0.0191187,0.0222523,0.0140467,0.62642281,0.57516203,0.600140175,0.597730525,0.626464615,0.57516203,2.08E-05,1.51E-05,1.78E-05,1.80E-05,2.14E-05,1.46E-05,0.099349,0.101533,0.109159,0.10686,0.152891,0.190116,0.386417,0.406848,0.416884,0.239976,0.253968,0.158178,0.103512,0.128532,0.098446,0.095189,0.090598,0.088136,0.082647,0.068429,0.040272,0.025795,0.028782,0.022899,0.017933,0.016257,0.008528,0.006001,0.003818,0.00289,0.002233,0.001575,0.001202,0.000824,0.000733,0.000642,0.095269,0.096177,0.101506,0.111181,0.139416,0.1581,0.250812,0.27939,0.262563,0.193173,0.190823,0.161443,0.138464,0.144731,0.105353,0.080787,0.078429,0.073052,0.055867,0.045349,0.048945,0.03409,0.032418,0.021103,0.015318,0.010767,0.00724,0.005955,0.005238,0.004393,0.003179,0.001543,0.001175,0.000786,0.000656,0.000525,0.104588,0.105994,0.111328,0.113187,0.124211,0.184139,0.337092,0.299513,0.342533,0.213214,0.15499,0.111696,0.150064,0.110948,0.076125,0.063829,0.06523,0.048074,0.031706,0.033018,0.025719,0.017798,0.016528,0.017264,0.011091,0.006407,0.009055,0.006759,0.004387,0.002837,0.002008,0.001201,0.000781,0.000551,0.000404,0.000341,0.0994485,0.1012065,0.107975,0.1085985,0.1416925,0.180638,0.3415085,0.354618,0.3569755,0.217281,0.227241,0.1595965,0.127259,0.1295585,0.10068,0.086427,0.0844205,0.0811185,0.069512,0.053186,0.0447725,0.0320225,0.030349,0.0222005,0.0171805,0.0137915,0.0082315,0.0060655,0.004629,0.003797,0.002756,0.0015595,0.001187,0.000804,0.0007025,0.00059,0.113024,0.114644,0.117314,0.129059,0.153559,0.190484,0.387782,0.486401,0.441994,0.26201,0.26125,0.189796,0.159064,0.152273,0.125541,0.097209,0.092729,0.093729,0.087377,0.071283,0.05852,0.040198,0.038108,0.028885,0.021399,0.019321,0.009207,0.006459,0.005484,0.004393,0.003265,0.002205,0.001679,0.001137,0.000952,0.000734,0.074384,0.075862,0.083988,0.085067,0.111843,0.144489,0.21374,0.234592,0.226172,0.179459,0.137718,0.126337,0.096261,0.084517,0.069428,0.075421,0.077919,0.072513,0.046005,0.043974,0.023001,0.021656,0.015431,0.011794,0.00929,0.006141,0.00646,0.005645,0.003066,0.001996,0.00131,0.000937,0.000785,0.000541,0.000402,0.000347
EMSC-20090912_0000191,2009-09-12T18:06:00,,,,,AL,41.4359,20.436,5,,SS,,,4.44,,,,,,,,,,,,,,,,,MN,PDG,,D,5,,,,ME,42.4297,19.2608,40,,geology,,S4_2007-2009_DiCapua_et_al_2011,,,,,1.21,372.7,147.2536658,318.9468127,,,,,0.15,0.15,0.15,30,30,30,0.092595,0.091711,-0.08372,0.0972775,0.112136,0.086693,-0.005894,0.005816,-0.004046,0.005816605,0.0062093,0.00542995,0.001377,0.001305,0.000954,0.001336725,0.00188131,0.00542995,32.17,31.5,36.96,31.7875,33.965,29.545,0.0214666,0.025029,0.0142993,0.02342545,0.0277776,0.0182193,0.578081175,0.560545045,0.535212125,0.56342223,0.58172343,0.553787195,1.80E-05,1.65E-05,1.38E-05,1.72E-05,1.80E-05,1.65E-05,0.092732,0.095464,0.097507,0.119649,0.135558,0.287545,0.247658,0.269542,0.314156,0.223755,0.183938,0.161301,0.214376,0.164166,0.186742,0.090596,0.081166,0.061607,0.057031,0.051325,0.038822,0.031949,0.034263,0.026157,0.022121,0.021282,0.014347,0.009236,0.005611,0.004093,0.003458,0.002256,0.0017,0.001234,0.000895,0.000771,0.091836,0.096182,0.101341,0.112615,0.167297,0.231916,0.1947,0.227889,0.325046,0.222138,0.200657,0.236989,0.201493,0.182238,0.117704,0.071108,0.06831,0.070441,0.053278,0.053699,0.059618,0.062215,0.055768,0.039428,0.024491,0.019134,0.010083,0.008353,0.008065,0.007041,0.004947,0.002346,0.001675,0.001202,0.000851,0.000686,0.083768,0.085436,0.085063,0.098222,0.113944,0.282633,0.230859,0.188748,0.275394,0.200331,0.179293,0.138666,0.220602,0.144952,0.077801,0.073383,0.072291,0.069943,0.044981,0.038158,0.026953,0.020954,0.017535,0.015663,0.012223,0.012319,0.015218,0.010715,0.007651,0.005175,0.003537,0.001981,0.00142,0.001009,0.000796,0.000621,0.097469,0.0990365,0.103721,0.113372,0.152236,0.2622975,0.2355655,0.2608835,0.3216125,0.2112965,0.190278,0.199986,0.2020775,0.1773875,0.158839,0.083133,0.084719,0.0744265,0.05632,0.0547175,0.052731,0.051605,0.0438365,0.0333335,0.0232475,0.020209,0.0134805,0.009209,0.0070535,0.0059605,0.004466,0.0023005,0.001687,0.001217,0.000887,0.000725,0.112546,0.114287,0.121328,0.131987,0.168612,0.292835,0.266228,0.305564,0.391103,0.226198,0.221501,0.237428,0.238247,0.200195,0.190775,0.100584,0.089093,0.090127,0.065901,0.059942,0.070256,0.065847,0.061476,0.046464,0.0299,0.028513,0.014926,0.010027,0.008107,0.007047,0.00507,0.003069,0.002166,0.001501,0.001164,0.001012,0.087001,0.09047,0.091463,0.103503,0.130041,0.217037,0.1947,0.20926,0.283466,0.187318,0.16719,0.146287,0.175129,0.129057,0.087104,0.065267,0.063374,0.057291,0.05034,0.040024,0.031724,0.031949,0.024492,0.016007,0.010379,0.009465,0.010083,0.007794,0.004493,0.003081,0.002059,0.001455,0.000996,0.000723,0.000555,0.000443
EMSC-20090915_0000081,2009-09-15T08:37:00,,,,,AL,41.15,19.48,2,,SS,4.3,,4.26,,,,,,,,,,,,,,,,,MN,PDG,,D,5,,,,ME,42.4297,19.2608,40,,geology,,S4_2007-2009_DiCapua_et_al_2011,,,,,1.21,372.7,143.2982018,352.7679023,,,,,0.1,0.1,0.1,30,30,30,-0.151608,0.150713,-0.114292,0.148958,0.16095,0.11204,0.00842,-0.006665,0.009918,0.00799481,0.0104145,0.0054608,0.001303,-0.000662,-0.001533,0.000967997,0.00136509,0.0054608,29.02,27.725,33.1,28.4525,33.515,25.94,0.0284841,0.0245492,0.0321124,0.0265893,0.0332062,0.0197084,0.779959175,0.770762925,0.73293658,0.77536105,0.830694955,0.69629077,3.37E-05,3.36E-05,2.75E-05,3.36E-05,4.28E-05,2.45E-05,0.151696,0.154912,0.163248,0.166994,0.219532,0.344216,0.289433,0.378934,0.338161,0.332124,0.390092,0.351669,0.23854,0.233363,0.162306,0.148456,0.142126,0.12841,0.117308,0.096986,0.056705,0.049199,0.038518,0.034874,0.024276,0.014631,0.010351,0.007257,0.005446,0.004235,0.003058,0.002082,0.001594,0.001248,0.001021,0.0008,0.150887,0.152052,0.162367,0.160314,0.247535,0.205666,0.27436,0.272734,0.372639,0.458266,0.485884,0.495252,0.423051,0.254454,0.199507,0.149066,0.121204,0.112804,0.105396,0.080706,0.052072,0.03074,0.01997,0.01568,0.013003,0.006269,0.005178,0.003705,0.002492,0.002374,0.001635,0.001189,0.000847,0.000813,0.000701,0.000613,0.114392,0.116533,0.113932,0.139638,0.132743,0.229044,0.302441,0.342229,0.262535,0.235309,0.274689,0.355246,0.271042,0.213616,0.191952,0.167663,0.15857,0.152215,0.141948,0.130487,0.090892,0.067712,0.05226,0.03324,0.026051,0.013086,0.008548,0.006353,0.004531,0.003814,0.002941,0.002267,0.001778,0.001227,0.001035,0.000964,0.1491415,0.1519015,0.1606895,0.1636015,0.22279,0.295531,0.291058,0.330013,0.354774,0.3877365,0.4233185,0.4023055,0.3451355,0.236117,0.1781185,0.146627,0.1324645,0.120242,0.1115125,0.0901005,0.055047,0.0389635,0.03217,0.027695,0.020343,0.0109485,0.0076325,0.005842,0.0040745,0.0032065,0.002364,0.001634,0.0012355,0.000962,0.0007795,0.000681,0.161456,0.162891,0.173157,0.181773,0.260463,0.373507,0.354721,0.466451,0.398499,0.466714,0.574206,0.553169,0.452251,0.256725,0.230773,0.166096,0.166497,0.162366,0.152873,0.122896,0.073457,0.0536,0.039299,0.034955,0.025091,0.015272,0.01067,0.007552,0.005542,0.00429,0.003157,0.002228,0.001736,0.001356,0.001102,0.000883,0.112117,0.115316,0.125423,0.142698,0.191356,0.192242,0.265522,0.26645,0.294382,0.246548,0.236307,0.211983,0.218356,0.191688,0.139783,0.113324,0.084929,0.075913,0.052459,0.037336,0.039671,0.023943,0.01645,0.013749,0.012539,0.006197,0.004461,0.002772,0.002492,0.002248,0.001629,0.001069,0.000801,0.000704,0.00061,0.000514
EMSC-20101007_0000044,2010-10-07T20:23:00,,,,,XK,42.4251,21.5814,9.936,,SS,,,4.21,,,,,,,,,,,,,,,,,MN,PDG,,D,5,,,,ME,42.4297,19.2608,40,,geology,,S4_2007-2009_DiCapua_et_al_2011,,,,,1.21,372.7,190.9662855,270.936144,,,,,0.1,0.1,0.1,30,30,30,-0.024077,-0.030157,0.017942,0.0261435,0.035099,0.020374,-0.002378,-0.003709,-0.001874,0.00270216,0.00381958,0.00177924,0.000439,0.000963,-0.000409,0.000672169,0.000975349,0.00177924,86.11,70.975,84.295,83.595,86.925,61.695,0.00927781,0.0125947,0.007349,0.01060865,0.0131171,0.00805971,0.28544876,0.28861636,0.26155899,0.287126542,0.304195585,0.270959645,2.21E-06,2.67E-06,1.84E-06,2.44E-06,2.96E-06,1.92E-06,0.024148,0.024723,0.0265,0.026715,0.036412,0.047982,0.045206,0.050703,0.055388,0.056951,0.067083,0.075425,0.081791,0.070455,0.070374,0.048022,0.033335,0.036324,0.029063,0.040597,0.024702,0.014724,0.009823,0.00956,0.011136,0.00709,0.002568,0.001729,0.002011,0.001877,0.001719,0.001466,0.001152,0.000537,0.000397,0.000294,0.030157,0.030973,0.032286,0.032316,0.031554,0.044824,0.045182,0.03981,0.044032,0.056931,0.057242,0.084958,0.100846,0.098791,0.106589,0.07586,0.068889,0.074967,0.079751,0.062313,0.034814,0.015776,0.012297,0.013696,0.010697,0.009888,0.007766,0.006021,0.004364,0.003368,0.002257,0.001438,0.001001,0.000818,0.000681,0.000624,0.017961,0.01857,0.019379,0.019551,0.038256,0.036482,0.059269,0.047664,0.039193,0.045927,0.050871,0.054102,0.057137,0.063334,0.055917,0.038601,0.036304,0.032121,0.020296,0.017055,0.012907,0.012099,0.009433,0.010711,0.010719,0.006779,0.002823,0.00222,0.001974,0.001478,0.001471,0.001624,0.001114,0.000678,0.000424,0.000362,0.0261595,0.0272895,0.0290945,0.028847,0.0335725,0.047441,0.042797,0.0478235,0.0447805,0.056941,0.0604985,0.081504,0.091376,0.0845465,0.0828945,0.057618,0.0537375,0.060062,0.0611205,0.045107,0.025799,0.015227,0.0119705,0.0115085,0.0107595,0.008923,0.005932,0.004646,0.00325,0.0024315,0.001806,0.0014415,0.0010285,0.0006955,0.000561,0.0004495,0.035099,0.03573,0.037149,0.036118,0.037867,0.053954,0.04705,0.052009,0.05923,0.060519,0.073916,0.093303,0.112264,0.119226,0.114509,0.076473,0.06889,0.074967,0.080902,0.063704,0.036371,0.016754,0.014164,0.014258,0.012031,0.011499,0.007995,0.006021,0.004406,0.003399,0.002271,0.001575,0.001159,0.000821,0.000727,0.000635,0.020383,0.020748,0.021313,0.021787,0.029558,0.041901,0.038214,0.03981,0.038532,0.044594,0.050082,0.058067,0.050639,0.044696,0.051573,0.043403,0.032451,0.035824,0.029063,0.03585,0.020203,0.009888,0.007773,0.008317,0.007366,0.003945,0.002478,0.001729,0.001898,0.00176,0.001426,0.001218,0.000922,0.000516,0.000373,0.000282
EMSC-20101011_0000004,2010-10-11T00:34:00,,,,,XK,42.4314,21.588,6.9012,,SS,,,4.58,,,,,,,,,,,,,,,,,MN,PDG,,D,5,,,,ME,42.4297,19.2608,40,,geology,,S4_2007-2009_DiCapua_et_al_2011,,,,,1.21,372.7,191.4991958,270.7286451,,,,,0.12,0.12,0.12,25,25,25,-0.030051,0.046589,-0.036242,0.0401615,0.051006,0.027264,0.003963,0.00477,-0.002781,0.004448195,0.0048097,0.00264296,-0.000943,0.001645,-0.000702,0.00120999,0.0016907,0.00264296,86.25,50.47,63.205,66.78,97.185,38.68,0.0147756,0.0193506,0.0141416,0.01721765,0.020279,0.0124628,0.4447863,0.44080307,0.396204265,0.442794685,0.48164448,0.38921126,4.71E-06,6.53E-06,4.59E-06,5.62E-06,6.56E-06,4.68E-06,0.030129,0.031254,0.034294,0.034389,0.04268,0.04479,0.061786,0.098255,0.105788,0.157844,0.111474,0.096079,0.119043,0.135639,0.081546,0.045348,0.039823,0.038347,0.050314,0.053734,0.042416,0.03043,0.017983,0.016231,0.020069,0.010772,0.005842,0.002862,0.002432,0.002625,0.002557,0.002623,0.00168,0.001269,0.000669,0.000568,0.046613,0.047928,0.052118,0.05184,0.048229,0.059382,0.083947,0.098554,0.105432,0.190883,0.112432,0.135188,0.124614,0.085503,0.131954,0.106713,0.096756,0.114067,0.090166,0.074407,0.037538,0.029062,0.020695,0.021207,0.025284,0.021331,0.016208,0.010674,0.007682,0.006245,0.004895,0.003109,0.001908,0.001244,0.001202,0.000935,0.036258,0.037659,0.041568,0.039029,0.041522,0.054951,0.063174,0.108551,0.096995,0.109392,0.099127,0.096149,0.117999,0.098857,0.099555,0.094116,0.094388,0.08117,0.050659,0.042777,0.025302,0.023993,0.018553,0.014702,0.015024,0.011848,0.006147,0.003371,0.003865,0.002431,0.002272,0.002029,0.001733,0.001004,0.000644,0.000463,0.040218,0.0422605,0.0432515,0.044301,0.0459385,0.0526345,0.067895,0.0975815,0.103615,0.174795,0.1115075,0.117941,0.120238,0.1073585,0.105049,0.081519,0.073136,0.084147,0.0769475,0.063792,0.03886,0.028018,0.020644,0.0207025,0.022872,0.016861,0.012471,0.0079695,0.005818,0.004645,0.0036,0.0027935,0.001765,0.0012435,0.000876,0.0006765,0.05103,0.052189,0.054771,0.054578,0.053491,0.060098,0.087349,0.107546,0.108899,0.232132,0.134974,0.148485,0.133321,0.1435,0.132097,0.107976,0.09694,0.114867,0.090776,0.080578,0.047404,0.030982,0.024812,0.025691,0.028305,0.022216,0.017198,0.010749,0.007825,0.006381,0.004894,0.003134,0.00194,0.001392,0.001211,0.000937,0.027281,0.029047,0.032536,0.031793,0.042004,0.043961,0.057197,0.072972,0.08765,0.09505,0.07488,0.082392,0.108914,0.08046,0.068368,0.043539,0.036118,0.034259,0.044979,0.053734,0.026103,0.021697,0.017573,0.011727,0.00923,0.007553,0.004107,0.002862,0.002434,0.002262,0.002364,0.001881,0.001521,0.001132,0.000667,0.000569
