esm_event_id,event_time,isc_event_id,usgs_event_id,ingv_event_id,emsc_event_id,ev_nation_code,ev_latitude,ev_longitude,ev_depth_km,ev_hyp_ref,fm_type_code,ml,ml_ref,mw,mw_ref,ms,ms_ref,emec_mw,emec_mw_type,emec_mw_ref,event_source_id,es_strike,es_dip,es_rake,es_strike_dip_rake_ref,z_top,es_z_top_ref,es_length,es_width,es_geometry_ref,network_code,station_code,location_code,instrument_code,sensor_depth_m,proximity,hounsing,installation,st_nation_code,st_latitude,st_longitude,st_elevation,ec8_code,ec8_code_method,ec8_code_from_topography,ec8_code_ref,vs30_m_s,vs30_ref,vs30_calc_method,vs30_meas_type,slope_deg,vs30_m_s_wa,epi_dist,epi_az,jb_dist,rup_dist,rx_dist,ry0_dist,u_hp,v_hp,w_hp,u_lp,v_lp,w_lp,u_pga,v_pga,w_pga,rotd50_pga,rotd100_pga,rotd00_pga,u_pgv,v_pgv,w_pgv,rotd50_pgv,rotd100_pgv,rotd00_pgv,u_pgd,v_pgd,w_pgd,rotd50_pgd,rotd100_pgd,rotd00_pgd,u_t90,v_t90,w_t90,rotd50_t90,rotd100_t90,rot_d00_t90,u_housner,v_housner,w_housner,rotd50_housner,rotd100_housner,rotd00_housner,u_cav,v_cav,w_cav,rotd50_cav,rotd100_cav,rotd00_cav,u_ia,v_ia,w_ia,rotd50_ia,rotd100_ia,rotd00_ia,u_t0_010,u_t0_025,u_t0_040,u_t0_050,u_t0_070,u_t0_100,u_t0_150,u_t0_200,u_t0_250,u_t0_300,u_t0_350,u_t0_400,u_t0_450,u_t0_500,u_t0_600,u_t0_700,u_t0_750,u_t0_800,u_t0_900,u_t1_000,u_t1_200,u_t1_400,u_t1_600,u_t1_800,u_t2_000,u_t2_500,u_t3_000,u_t3_500,u_t4_000,u_t4_500,u_t5_000,u_t6_000,u_t7_000,u_t8_000,u_t9_000,u_t10_000,v_t0_010,v_t0_025,v_t0_040,v_t0_050,v_t0_070,v_t0_100,v_t0_150,v_t0_200,v_t0_250,v_t0_300,v_t0_350,v_t0_400,v_t0_450,v_t0_500,v_t0_600,v_t0_700,v_t0_750,v_t0_800,v_t0_900,v_t1_000,v_t1_200,v_t1_400,v_t1_600,v_t1_800,v_t2_000,v_t2_500,v_t3_000,v_t3_500,v_t4_000,v_t4_500,v_t5_000,v_t6_000,v_t7_000,v_t8_000,v_t9_000,v_t10_000,w_t0_010,w_t0_025,w_t0_040,w_t0_050,w_t0_070,w_t0_100,w_t0_150,w_t0_200,w_t0_250,w_t0_300,w_t0_350,w_t0_400,w_t0_450,w_t0_500,w_t0_600,w_t0_700,w_t0_750,w_t0_800,w_t0_900,w_t1_000,w_t1_200,w_t1_400,w_t1_600,w_t1_800,w_t2_000,w_t2_500,w_t3_000,w_t3_500,w_t4_000,w_t4_500,w_t5_000,w_t6_000,w_t7_000,w_t8_000,w_t9_000,w_t10_000,rotd50_t0_010,rotd50_t0_025,rotd50_t0_040,rotd50_t0_050,rotd50_t0_070,rotd50_t0_100,rotd50_t0_150,rotd50_t0_200,rotd50_t0_250,rotd50_t0_300,rotd50_t0_350,rotd50_t0_400,rotd50_t0_450,rotd50_t0_500,rotd50_t0_600,rotd50_t0_700,rotd50_t0_750,rotd50_t0_800,rotd50_t0_900,rotd50_t1_000,rotd50_t1_200,rotd50_t1_400,rotd50_t1_600,rotd50_t1_800,rotd50_t2_000,rotd50_t2_500,rotd50_t3_000,rotd50_t3_500,rotd50_t4_000,rotd50_t4_500,rotd50_t5_000,rotd50_t6_000,rotd50_t7_000,rotd50_t8_000,rotd50_t9_000,rotd50_t10_000,rotd100_t0_010,rotd100_t0_025,rotd100_t0_040,rotd100_t0_050,rotd100_t0_070,rotd100_t0_100,rotd100_t0_150,rotd100_t0_200,rotd100_t0_250,rotd100_t0_300,rotd100_t0_350,rotd100_t0_400,rotd100_t0_450,rotd100_t0_500,rotd100_t0_600,rotd100_t0_700,rotd100_t0_750,rotd100_t0_800,rotd100_t0_900,rotd100_t1_000,rotd100_t1_200,rotd100_t1_400,rotd100_t1_600,rotd100_t1_800,rotd100_t2_000,rotd100_t2_500,rotd100_t3_000,rotd100_t3_500,rotd100_t4_000,rotd100_t4_500,rotd100_t5_000,rotd100_t6_000,rotd100_t7_000,rotd100_t8_000,rotd100_t9_000,rotd100_t10_000,rotd00_t0_010,rotd00_t0_025,rotd00_t0_040,rotd00_t0_050,rotd00_t0_070,rotd00_t0_100,rotd00_t0_150,rotd00_t0_200,rotd00_t0_250,rotd00_t0_300,rotd00_t0_350,rotd00_t0_400,rotd00_t0_450,rotd00_t0_500,rotd00_t0_600,rotd00_t0_700,rotd00_t0_750,rotd00_t0_800,rotd00_t0_900,rotd00_t1_000,rotd00_t1_200,rotd00_t1_400,rotd00_t1_600,rotd00_t1_800,rotd00_t2_000,rotd00_t2_500,rotd00_t3_000,rotd00_t3_500,rotd00_t4_000,rotd00_t4_500,rotd00_t5_000,rotd00_t6_000,rotd00_t7_000,rotd00_t8_000,rotd00_t9_000,rotd00_t10_000
AL-2016-0007,2016-10-15T21:42:00,,,,,GR,39.7492,20.7102,17.6203,,SS,3.6,,4.39,,,,,,,,,,,,,,,,,AC,VLO,,D,0,Inside structure,Building,Pillar,AL,40.468601,19.495501,80,B,vs_profile,,,375,AC,,MASW,10.72,831,130.7878539,308.0337393,,,,,0.3,0.3,0.3,30,30,30,0.080467,-0.080094,0.029397,0.079939,0.084787,0.070068,0.003237,-0.003228,0.001851,0.00345459,0.0039447,0.00305539,-0.000333,-0.000306,0.000207,0.000308585,0.000358532,0.00305539,48.425,43.645,44.495,45.94,52.135,40.965,0.00996737,0.0106069,0.00639734,0.01007155,0.0106375,0.00968694,0.73936025,0.78072593,0.2950979,0.761398462,0.819148795,0.69095453,2.16E-05,2.48E-05,3.58E-06,2.32E-05,2.87E-05,1.77E-05,0.080541,0.085996,0.12029,0.154193,0.138831,0.145407,0.31473,0.176102,0.127838,0.098222,0.111699,0.197261,0.230802,0.11758,0.089331,0.054971,0.049978,0.041937,0.047127,0.032936,0.018217,0.013739,0.008572,0.005886,0.004954,0.004019,0.003163,0.002146,0.001378,0.001,0.000724,0.000578,0.000467,0.000362,0.000318,0.000281,0.080237,0.083319,0.116043,0.142038,0.24096,0.144776,0.322012,0.160383,0.153013,0.103149,0.12531,0.147667,0.089971,0.088645,0.082251,0.07984,0.070757,0.060662,0.040893,0.033062,0.028564,0.022414,0.009914,0.005783,0.005262,0.00389,0.003205,0.001688,0.001126,0.000878,0.000712,0.000519,0.000408,0.000336,0.000295,0.000257,0.029558,0.032132,0.037171,0.039489,0.068909,0.074099,0.080727,0.072438,0.055859,0.070014,0.089042,0.093768,0.095529,0.0642,0.051616,0.03443,0.033044,0.033844,0.024834,0.017789,0.012361,0.011697,0.009389,0.005838,0.004426,0.003372,0.00228,0.001961,0.001343,0.00094,0.000469,0.000354,0.000237,0.000182,0.000155,0.000135,0.080389,0.0851665,0.112347,0.1516875,0.19083,0.1450915,0.318371,0.1766255,0.140704,0.1023115,0.1142145,0.166406,0.1636225,0.100303,0.0816225,0.0617015,0.060754,0.0523085,0.043966,0.032999,0.0232645,0.017932,0.008918,0.006338,0.0050825,0.003954,0.0031865,0.0018495,0.0013245,0.000992,0.000709,0.00051,0.0004055,0.0003395,0.000296,0.0002605,0.084842,0.08769,0.12029,0.168437,0.26417,0.167643,0.364193,0.200584,0.164542,0.119682,0.139042,0.198731,0.231244,0.118901,0.089331,0.081605,0.074898,0.061083,0.050744,0.041507,0.028737,0.022464,0.010813,0.007312,0.005738,0.004577,0.003768,0.002181,0.001383,0.001158,0.000784,0.000577,0.000466,0.000364,0.00032,0.000282,0.070607,0.075558,0.107025,0.131205,0.095214,0.103953,0.223286,0.152189,0.106978,0.091096,0.100834,0.10646,0.080439,0.081634,0.07345,0.050956,0.040493,0.041039,0.026826,0.021306,0.01544,0.011267,0.007799,0.005064,0.004154,0.003254,0.00174,0.001384,0.000832,0.000751,0.000608,0.00044,0.000363,0.000308,0.000264,0.000229
AL-2016-0012,2016-05-21T17:16:00,,,,,MK,41.1891,20.9945,19.4736,,SS,4,,4.2,,4.2,,4.2,,,,,,,,,,,,,AC,LACI,0,D,,Inside structure,Building,Pillar,AL,41.6359,19.7199,,A,vs_profile,,,1490,AC,,MASW,9.2,791.8,117.5524952,295.3893741,,,,,0.2,0.2,0.2,30,30,30,-0.033425,-0.043859,-0.03176,0.0356275,0.044571,0.028282,0.003246,-0.002697,0.002559,0.002885555,0.00332356,0.00245501,0.000772,-0.000563,-0.000474,0.000568255,0.000791901,0.00245501,32.595,30.885,33.035,31.9525,32.67,30.47,0.0128678,0.0136509,0.0108809,0.01339955,0.0145621,0.0122657,0.238932095,0.203095825,0.20170092,0.221173662,0.243150215,0.1990506,3.44E-06,2.79E-06,2.55E-06,3.12E-06,3.64E-06,2.59E-06,0.033439,0.033706,0.049252,0.058111,0.081983,0.071172,0.105012,0.081258,0.096456,0.070109,0.08051,0.083074,0.072412,0.057618,0.035255,0.027663,0.025646,0.021044,0.02238,0.029311,0.024235,0.028807,0.026439,0.025559,0.024006,0.015458,0.007222,0.005235,0.003358,0.002623,0.001666,0.000986,0.000672,0.000512,0.000463,0.000405,0.044115,0.047476,0.054285,0.052132,0.073628,0.104328,0.101376,0.088599,0.076713,0.052482,0.067256,0.075352,0.098823,0.084862,0.048955,0.03802,0.032197,0.031032,0.037682,0.042326,0.030412,0.026218,0.030995,0.030002,0.022229,0.007916,0.004941,0.00369,0.002382,0.001433,0.001385,0.000885,0.000586,0.000433,0.000379,0.000338,0.031978,0.032933,0.037838,0.049036,0.080094,0.085573,0.088389,0.088723,0.078258,0.055827,0.077651,0.073102,0.062752,0.061564,0.043903,0.028005,0.02546,0.018989,0.023986,0.023667,0.028295,0.030888,0.02259,0.019353,0.020853,0.006702,0.005037,0.003259,0.00161,0.001285,0.001087,0.000897,0.000603,0.000395,0.000348,0.000232,0.035763,0.0366865,0.0506,0.057753,0.077756,0.089702,0.100707,0.0880755,0.0901275,0.065005,0.0785245,0.0831765,0.0766635,0.07794,0.0475755,0.0344435,0.03098,0.0274045,0.0294825,0.0341175,0.0279315,0.0295595,0.028264,0.026909,0.023362,0.013484,0.006786,0.0045015,0.002473,0.0019355,0.0014025,0.000887,0.000616,0.0004675,0.000399,0.0003375,0.044946,0.048415,0.057015,0.060472,0.089154,0.104596,0.112615,0.102148,0.098251,0.071173,0.088816,0.089508,0.098823,0.085461,0.056226,0.04508,0.038468,0.031981,0.038995,0.048056,0.035103,0.036532,0.031178,0.03522,0.031099,0.015815,0.007493,0.005243,0.003356,0.002623,0.001718,0.001033,0.000739,0.000537,0.000471,0.000416,0.028378,0.030395,0.035141,0.052132,0.064712,0.064266,0.091328,0.061686,0.056265,0.051578,0.062354,0.062588,0.064035,0.053154,0.035255,0.027663,0.024535,0.020346,0.021011,0.024966,0.019999,0.020318,0.019482,0.015149,0.013476,0.007915,0.004046,0.002696,0.002147,0.001363,0.001131,0.000718,0.000465,0.000382,0.000337,0.000273
AL-2016-0012,2016-05-21T17:16:00,,,,,MK,41.1891,20.9945,19.4736,,SS,4,,4.2,,4.2,,4.2,,,,,,,,,,,,,AC,TPE,0,D,,Inside structure,Building,Building floor,AL,40.2948,20.0155,367,B,vs_profile,,,686,AC,,MASW,11.84,860.3,129.2269182,220.1020252,,,,,0.2,0.2,0.2,30,30,30,-0.124018,0.062039,0.061666,0.1040815,0.128858,0.061559,0.00781,0.005773,0.003422,0.00712612,0.00840829,0.00522514,-0.000943,-0.001005,0.000521,0.000974418,0.00132221,0.00522514,29.19,31.85,33.8,29.8075,32.9,27.82,0.0266015,0.0246909,0.0147146,0.0256291,0.0298377,0.0210061,0.63828702,0.48448499,0.38690889,0.560093175,0.641037085,0.480909045,2.65E-05,1.37E-05,8.90E-06,2.01E-05,2.67E-05,1.36E-05,0.124051,0.124998,0.126203,0.128845,0.128532,0.172719,0.205157,0.339227,0.214831,0.296952,0.333315,0.435291,0.241193,0.179982,0.106491,0.067654,0.068343,0.061425,0.062096,0.064745,0.111579,0.056951,0.035307,0.030727,0.028729,0.017068,0.008337,0.005511,0.003313,0.002445,0.001829,0.001391,0.001043,0.000871,0.000785,0.000645,0.06214,0.06307,0.066057,0.064938,0.069888,0.120662,0.139463,0.147012,0.186742,0.212402,0.279919,0.172215,0.204349,0.124825,0.098085,0.089699,0.067657,0.073654,0.092775,0.122708,0.101348,0.062552,0.044297,0.027606,0.017291,0.009976,0.008276,0.00524,0.004567,0.003432,0.002502,0.001451,0.001064,0.000955,0.000747,0.000603,0.061755,0.062322,0.064446,0.063792,0.07689,0.087304,0.135909,0.195694,0.146166,0.162392,0.221468,0.191076,0.145643,0.089739,0.055129,0.055714,0.05841,0.058909,0.054545,0.041714,0.036353,0.041643,0.021436,0.019333,0.014173,0.005823,0.003797,0.002383,0.001921,0.001888,0.001427,0.000897,0.000524,0.000467,0.000401,0.0003,0.1040875,0.1047635,0.1055325,0.1089295,0.1154155,0.1472505,0.1962775,0.255769,0.2042075,0.306083,0.320226,0.345046,0.229377,0.141347,0.104904,0.0869865,0.0688,0.0669495,0.080994,0.100632,0.1069465,0.059014,0.041704,0.0285085,0.0221325,0.0130145,0.0080705,0.00514,0.003687,0.002833,0.0021935,0.00142,0.001077,0.0008945,0.000798,0.000663,0.129017,0.129813,0.131194,0.133713,0.134719,0.176576,0.218604,0.361144,0.217903,0.334432,0.353186,0.441251,0.245379,0.18145,0.115319,0.111038,0.079727,0.075356,0.093864,0.133464,0.128823,0.074441,0.050653,0.036169,0.031184,0.017346,0.008925,0.005595,0.004833,0.003717,0.002851,0.001853,0.001325,0.001106,0.000917,0.000748,0.061655,0.062632,0.064141,0.063805,0.069887,0.106624,0.131774,0.139286,0.172398,0.195605,0.241191,0.172215,0.155126,0.103914,0.097138,0.066811,0.059311,0.052359,0.060108,0.064745,0.045817,0.037689,0.028605,0.018138,0.016979,0.009976,0.006922,0.004092,0.002858,0.002123,0.001496,0.001001,0.00071,0.000606,0.000533,0.000444
AL-2016-0012,2016-05-21T17:16:00,,,,,MK,41.1891,20.9945,19.4736,,SS,4,,4.2,,4.2,,4.2,,,,,,,,,,,,,AC,KKS,0,D,,No information,Small masonry building,Pillar,AL,42.0756,20.4113,300,B,vs_profile,,,745,AC,,MASW,7.66,740.9,109.7987863,333.9243486,,,,,0.2,0.2,0.2,25,25,25,0.105144,0.105043,0.060152,0.1050935,0.122996,0.082209,-0.004158,0.006548,-0.00453,0.00527887,0.00665291,0.00374656,0.00095,-0.001114,0.000713,0.00095761,0.00135284,0.00374656,27.45,26.385,30.79,26.44,27.45,25.83,0.0175894,0.0211185,0.0164654,0.0192245,0.023196,0.0170957,0.56821571,0.56447918,0.33540402,0.566347445,0.6075,0.5140448,2.01E-05,2.07E-05,6.46E-06,2.04E-05,2.37E-05,1.71E-05,0.105332,0.108094,0.115617,0.113461,0.198965,0.3217,0.361116,0.242654,0.180967,0.127125,0.136251,0.115351,0.12181,0.076455,0.122881,0.0771,0.066925,0.059967,0.060331,0.048925,0.054846,0.030833,0.029797,0.027786,0.01715,0.012903,0.008888,0.006871,0.005646,0.004396,0.002978,0.001732,0.00101,0.000745,0.000613,0.000493,0.105072,0.10842,0.116936,0.134213,0.191509,0.426796,0.336062,0.190874,0.177834,0.158656,0.1896,0.187152,0.205371,0.163289,0.092719,0.103209,0.093192,0.078694,0.055314,0.052963,0.037744,0.030935,0.035645,0.036312,0.030894,0.015548,0.009651,0.006347,0.00493,0.003594,0.002992,0.001523,0.001177,0.000951,0.000802,0.000623,0.060153,0.062039,0.061555,0.073115,0.121187,0.105595,0.161777,0.147146,0.108887,0.121148,0.102342,0.116033,0.135073,0.113786,0.080146,0.090666,0.070144,0.049339,0.059004,0.071059,0.043151,0.030872,0.026909,0.020304,0.01718,0.0119,0.008959,0.004833,0.002718,0.002002,0.001697,0.000965,0.000733,0.000596,0.000458,0.000366,0.1052015,0.108257,0.1162855,0.1295715,0.198889,0.3493995,0.343867,0.225245,0.1795375,0.141143,0.1674175,0.1663115,0.1566845,0.1320865,0.11124,0.087286,0.082652,0.0699075,0.0579465,0.050944,0.046611,0.0318655,0.0311825,0.0295445,0.026487,0.0155595,0.00922,0.0064825,0.0051935,0.0041165,0.0031085,0.001685,0.00118,0.0008435,0.0006705,0.000538,0.123107,0.126551,0.138126,0.149476,0.234689,0.433564,0.382828,0.261244,0.212681,0.15921,0.189756,0.187705,0.205861,0.167664,0.126926,0.116465,0.103307,0.098838,0.081461,0.07134,0.061595,0.039225,0.036163,0.036902,0.032327,0.018937,0.011185,0.007898,0.005991,0.004795,0.003387,0.001915,0.001331,0.001081,0.000915,0.00072,0.082273,0.084283,0.092714,0.101381,0.158361,0.281544,0.226776,0.174347,0.131961,0.118789,0.114699,0.109366,0.107624,0.076455,0.07166,0.060144,0.055314,0.046551,0.045836,0.039991,0.03576,0.026823,0.018321,0.023347,0.01715,0.010216,0.005381,0.004365,0.004669,0.003518,0.002461,0.001262,0.000965,0.000709,0.000556,0.000435
AL-2016-0012,2016-05-21T17:16:00,,,,,MK,41.1891,20.9945,19.4736,,SS,4,,4.2,,4.2,,4.2,,,,,,,,,,,,,HI,KRK1,,D,0,,,,GR,39.618861,19.9202,10,,topography,,,,,,,1.41,387.2,196.7673881,207.9601579,,,,,0.15,0.15,0.15,40,40,40,-0.124633,0.128148,0.06987,0.1230305,0.134829,0.103613,0.007579,0.005616,-0.002869,0.00660151,0.00767971,0.00472792,-0.000899,-0.000448,0.000315,0.000803318,0.000986985,0.00472792,42.41,49.06,71.7,44.62,49.135,42.215,0.0205472,0.0151831,0.00836534,0.017894904,0.020626187,0.014883373,1.11547466,1.08887344,0.65360875,1.102040836,1.160103413,1.045502343,4.78E-05,4.33E-05,1.36E-05,4.56E-05,5.09E-05,4.02E-05,0.124725,0.125905,0.128966,0.133867,0.138281,0.209154,0.354111,0.417633,0.295067,0.342951,0.43492,0.495662,0.461112,0.289485,0.117159,0.064863,0.062566,0.062359,0.056443,0.053605,0.037542,0.024106,0.018356,0.016554,0.015988,0.013141,0.012271,0.007687,0.004689,0.004081,0.002882,0.001566,0.001075,0.000973,0.000807,0.000621,0.128556,0.131118,0.136124,0.139092,0.194301,0.393505,0.419376,0.541416,0.254515,0.31302,0.311991,0.34896,0.214417,0.203903,0.094288,0.060025,0.055842,0.044396,0.036582,0.025879,0.022815,0.015737,0.018295,0.015976,0.009884,0.006557,0.00435,0.003246,0.002221,0.00174,0.00145,0.00094,0.000674,0.000595,0.000443,0.000417,0.069963,0.071823,0.072976,0.076994,0.112514,0.260435,0.139472,0.274751,0.190899,0.30351,0.243869,0.151105,0.091109,0.080963,0.043214,0.022019,0.02293,0.02238,0.017203,0.018944,0.01357,0.010351,0.007715,0.008563,0.005625,0.00607,0.003685,0.002706,0.001883,0.001216,0.000906,0.00054,0.000447,0.000431,0.000336,0.000247,0.1235395,0.1245085,0.128481,0.1299895,0.148829,0.3037565,0.3678125,0.476193,0.2943955,0.327142,0.376967,0.3997285,0.340564,0.2380205,0.1113285,0.0618143,0.05768275,0.05150215,0.04683355,0.03989025,0.03047565,0.02447725,0.01937345,0.0164028,0.01277,0.01037205,0.00908108,0.005552375,0.003893525,0.00333062,0.00227845,0.001384585,0.000928295,0.000756742,0.000643727,0.000568741,0.136112,0.138237,0.142007,0.144299,0.194301,0.40021,0.419376,0.541416,0.323977,0.380467,0.438932,0.51302,0.461502,0.291016,0.135304,0.0650627,0.0644193,0.063198,0.0571588,0.0542937,0.0384017,0.0267748,0.0215686,0.0179644,0.016931,0.013374,0.012403,0.00784282,0.00473712,0.00419441,0.00292864,0.00156492,0.00118648,0.000974015,0.000809168,0.00062325,0.106112,0.107835,0.114397,0.118306,0.131264,0.188781,0.297514,0.349082,0.254516,0.241828,0.264363,0.304032,0.214417,0.166425,0.080998,0.0539306,0.0466603,0.0390946,0.0352948,0.0253084,0.021269,0.0156079,0.017645,0.0127618,0.00825686,0.006228,0.00416851,0.00232926,0.00215656,0.00168742,0.00144991,0.00093818,0.000675663,0.000585534,0.000443403,0.000397664
AL-2016-0014,2016-12-19T00:19:00,,,,,AL,40.6891,19.6175,12.0451,,SS,4,,4.2,,,,,,,,,,,,,,,,,HI,KRK1,,D,0,,,,GR,39.618861,19.9202,10,,topography,,,,,,,1.41,387.2,121.6029175,167.6574639,,,,,0.15,0.15,0.15,40,40,40,-0.163187,-0.127194,-0.062693,0.143041,0.17535,0.108782,-0.006937,-0.005042,0.002053,0.00543879,0.00723088,0.00483711,-0.000521,0.000428,0.000286,0.000459269,0.000551559,0.00483711,31.195,34.025,34.965,33.02,34.42,30.81,0.0148252,0.0140686,0.00703519,0.014324078,0.015203159,0.013724397,0.958231815,1.014798485,0.4752849,0.990884535,1.018369106,0.956099707,5.25E-05,5.27E-05,1.10E-05,5.26E-05,5.65E-05,4.87E-05,0.163258,0.165973,0.16974,0.175031,0.191254,0.287353,0.419892,0.68686,0.533881,0.273572,0.31952,0.147115,0.172231,0.146937,0.129614,0.085053,0.05823,0.046223,0.037828,0.039004,0.027215,0.012965,0.011521,0.009184,0.00921,0.008097,0.003982,0.003066,0.002278,0.001876,0.001366,0.001042,0.000791,0.000577,0.000514,0.000469,0.127267,0.129697,0.134429,0.138469,0.151755,0.297381,0.477278,0.510541,0.679655,0.255364,0.222152,0.168357,0.16708,0.131887,0.143793,0.096014,0.081321,0.048243,0.038732,0.038479,0.027088,0.011839,0.009077,0.007874,0.007012,0.004838,0.002733,0.001864,0.001791,0.001488,0.001394,0.000715,0.000522,0.000463,0.000416,0.000342,0.062699,0.065167,0.069785,0.070191,0.086068,0.136713,0.155933,0.170698,0.206261,0.20728,0.099788,0.070276,0.052848,0.044227,0.048492,0.033795,0.026744,0.023033,0.021151,0.020362,0.013282,0.007088,0.006424,0.006361,0.007074,0.005024,0.00229,0.001776,0.00134,0.00132,0.0013,0.000643,0.000392,0.000286,0.000245,0.000233,0.1438665,0.1466395,0.149968,0.1552855,0.170875,0.2879285,0.471793,0.6222525,0.583093,0.253881,0.278415,0.149113,0.1645745,0.1438705,0.1383905,0.08961605,0.06744405,0.04789115,0.0378638,0.0372718,0.02631835,0.0131768,0.009993785,0.00986678,0.0080014,0.00689538,0.003356115,0.00233643,0.002086625,0.00174096,0.001351635,0.000858896,0.000629753,0.000566763,0.0004447,0.0003862,0.178061,0.180044,0.184036,0.188573,0.207193,0.323227,0.56308,0.691124,0.694269,0.275391,0.361522,0.173525,0.175125,0.171638,0.155762,0.102029,0.0813209,0.0571943,0.0476354,0.0430113,0.0288249,0.0148919,0.0130106,0.0108458,0.0095784,0.00819241,0.00401107,0.00312136,0.00235344,0.00194611,0.00148652,0.00105666,0.000819078,0.000642598,0.000548241,0.000494128,0.113119,0.114252,0.117968,0.119173,0.132633,0.216408,0.393473,0.403579,0.392604,0.234834,0.195376,0.13707,0.152904,0.131362,0.10034,0.0813662,0.0573791,0.0401635,0.0327766,0.0235494,0.0215847,0.0110204,0.0084543,0.00744826,0.0059209,0.00475355,0.00265788,0.00176407,0.00161887,0.00143763,0.00112804,0.000668764,0.0005173,0.000458092,0.000363713,0.000309952
