esm_event_id,event_time,isc_event_id,usgs_event_id,ingv_event_id,emsc_event_id,ev_nation_code,ev_latitude,ev_longitude,ev_depth_km,ev_hyp_ref,fm_type_code,ml,ml_ref,mw,mw_ref,ms,ms_ref,emec_mw,emec_mw_type,emec_mw_ref,event_source_id,es_strike,es_dip,es_rake,es_strike_dip_rake_ref,z_top,es_z_top_ref,es_length,es_width,es_geometry_ref,network_code,station_code,location_code,instrument_code,sensor_depth_m,proximity,hounsing,installation,st_nation_code,st_latitude,st_longitude,st_elevation,ec8_code,ec8_code_method,ec8_code_from_topography,ec8_code_ref,vs30_m_s,vs30_ref,vs30_calc_method,vs30_meas_type,slope_deg,vs30_m_s_wa,epi_dist,epi_az,jb_dist,rup_dist,rx_dist,ry0_dist,u_hp,v_hp,w_hp,u_lp,v_lp,w_lp,u_pga,v_pga,w_pga,rotd50_pga,rotd100_pga,rotd00_pga,u_pgv,v_pgv,w_pgv,rotd50_pgv,rotd100_pgv,rotd00_pgv,u_pgd,v_pgd,w_pgd,rotd50_pgd,rotd100_pgd,rotd00_pgd,u_t90,v_t90,w_t90,rotd50_t90,rotd100_t90,rot_d00_t90,u_housner,v_housner,w_housner,rotd50_housner,rotd100_housner,rotd00_housner,u_cav,v_cav,w_cav,rotd50_cav,rotd100_cav,rotd00_cav,u_ia,v_ia,w_ia,rotd50_ia,rotd100_ia,rotd00_ia,u_t0_010,u_t0_025,u_t0_040,u_t0_050,u_t0_070,u_t0_100,u_t0_150,u_t0_200,u_t0_250,u_t0_300,u_t0_350,u_t0_400,u_t0_450,u_t0_500,u_t0_600,u_t0_700,u_t0_750,u_t0_800,u_t0_900,u_t1_000,u_t1_200,u_t1_400,u_t1_600,u_t1_800,u_t2_000,u_t2_500,u_t3_000,u_t3_500,u_t4_000,u_t4_500,u_t5_000,u_t6_000,u_t7_000,u_t8_000,u_t9_000,u_t10_000,v_t0_010,v_t0_025,v_t0_040,v_t0_050,v_t0_070,v_t0_100,v_t0_150,v_t0_200,v_t0_250,v_t0_300,v_t0_350,v_t0_400,v_t0_450,v_t0_500,v_t0_600,v_t0_700,v_t0_750,v_t0_800,v_t0_900,v_t1_000,v_t1_200,v_t1_400,v_t1_600,v_t1_800,v_t2_000,v_t2_500,v_t3_000,v_t3_500,v_t4_000,v_t4_500,v_t5_000,v_t6_000,v_t7_000,v_t8_000,v_t9_000,v_t10_000,w_t0_010,w_t0_025,w_t0_040,w_t0_050,w_t0_070,w_t0_100,w_t0_150,w_t0_200,w_t0_250,w_t0_300,w_t0_350,w_t0_400,w_t0_450,w_t0_500,w_t0_600,w_t0_700,w_t0_750,w_t0_800,w_t0_900,w_t1_000,w_t1_200,w_t1_400,w_t1_600,w_t1_800,w_t2_000,w_t2_500,w_t3_000,w_t3_500,w_t4_000,w_t4_500,w_t5_000,w_t6_000,w_t7_000,w_t8_000,w_t9_000,w_t10_000,rotd50_t0_010,rotd50_t0_025,rotd50_t0_040,rotd50_t0_050,rotd50_t0_070,rotd50_t0_100,rotd50_t0_150,rotd50_t0_200,rotd50_t0_250,rotd50_t0_300,rotd50_t0_350,rotd50_t0_400,rotd50_t0_450,rotd50_t0_500,rotd50_t0_600,rotd50_t0_700,rotd50_t0_750,rotd50_t0_800,rotd50_t0_900,rotd50_t1_000,rotd50_t1_200,rotd50_t1_400,rotd50_t1_600,rotd50_t1_800,rotd50_t2_000,rotd50_t2_500,rotd50_t3_000,rotd50_t3_500,rotd50_t4_000,rotd50_t4_500,rotd50_t5_000,rotd50_t6_000,rotd50_t7_000,rotd50_t8_000,rotd50_t9_000,rotd50_t10_000,rotd100_t0_010,rotd100_t0_025,rotd100_t0_040,rotd100_t0_050,rotd100_t0_070,rotd100_t0_100,rotd100_t0_150,rotd100_t0_200,rotd100_t0_250,rotd100_t0_300,rotd100_t0_350,rotd100_t0_400,rotd100_t0_450,rotd100_t0_500,rotd100_t0_600,rotd100_t0_700,rotd100_t0_750,rotd100_t0_800,rotd100_t0_900,rotd100_t1_000,rotd100_t1_200,rotd100_t1_400,rotd100_t1_600,rotd100_t1_800,rotd100_t2_000,rotd100_t2_500,rotd100_t3_000,rotd100_t3_500,rotd100_t4_000,rotd100_t4_500,rotd100_t5_000,rotd100_t6_000,rotd100_t7_000,rotd100_t8_000,rotd100_t9_000,rotd100_t10_000,rotd00_t0_010,rotd00_t0_025,rotd00_t0_040,rotd00_t0_050,rotd00_t0_070,rotd00_t0_100,rotd00_t0_150,rotd00_t0_200,rotd00_t0_250,rotd00_t0_300,rotd00_t0_350,rotd00_t0_400,rotd00_t0_450,rotd00_t0_500,rotd00_t0_600,rotd00_t0_700,rotd00_t0_750,rotd00_t0_800,rotd00_t0_900,rotd00_t1_000,rotd00_t1_200,rotd00_t1_400,rotd00_t1_600,rotd00_t1_800,rotd00_t2_000,rotd00_t2_500,rotd00_t3_000,rotd00_t3_500,rotd00_t4_000,rotd00_t4_500,rotd00_t5_000,rotd00_t6_000,rotd00_t7_000,rotd00_t8_000,rotd00_t9_000,rotd00_t10_000
EMSC-20111004_0000023,2011-10-04T09:26:00,,,,,GR,39.17,21.6003,9.3801,,SS,,,4.48,,,,,,,,,,,,,,,,,HL,ALNA,0,D,0,,,,GR,39.14804,23.86669,40,,topography,,,,,,,0.73,332.9,195.8990715,89.99731291,,,,,0.15,0.15,0.15,30,30,30,-0.034722,0.042636,0.027144,0.034717,0.042636,0.027946,-0.003081,0.005716,-0.002763,0.00498971,0.00609324,0.00308121,-0.000689,-0.001151,0.00062,0.00105172,0.00126722,0.00308121,64.485,53.34,85.04,58.3425,66.005,53.18,0.0173625,0.0314764,0.0144771,0.02428775,0.0315627,0.017254,0.43972351,0.46496673,0.439369435,0.454206833,0.47289685,0.430812105,5.07E-06,6.80E-06,4.86E-06,5.93E-06,7.00E-06,4.86E-06,0.034794,0.036274,0.038458,0.040447,0.040113,0.041767,0.073878,0.107703,0.100063,0.082073,0.075926,0.054269,0.057936,0.059649,0.069868,0.052884,0.06631,0.071516,0.058005,0.05886,0.061758,0.039968,0.041976,0.032783,0.023678,0.010147,0.007173,0.006156,0.004458,0.002932,0.001928,0.001185,0.000961,0.000655,0.000523,0.000378,0.042747,0.043208,0.047571,0.046204,0.042649,0.04387,0.082165,0.121607,0.132681,0.072448,0.059544,0.068811,0.068458,0.05968,0.077906,0.085395,0.107203,0.125551,0.133806,0.113529,0.147987,0.073279,0.059747,0.056208,0.048021,0.018036,0.008413,0.006424,0.004531,0.003539,0.002659,0.001727,0.00127,0.000966,0.000775,0.000639,0.027219,0.09164,0.042352,0.049431,0.050066,0.059843,0.080432,0.072058,0.075781,0.078846,0.0683,0.039283,0.035592,0.047322,0.056723,0.044825,0.043443,0.044471,0.047547,0.059659,0.059471,0.049012,0.022611,0.023211,0.016225,0.007747,0.007891,0.005507,0.003694,0.003182,0.002724,0.001567,0.001053,0.000685,0.000515,0.000417,0.03476,0.038168,0.038369,0.0395435,0.0400205,0.0430375,0.0770395,0.106274,0.113703,0.077371,0.068548,0.0634025,0.0679425,0.0610445,0.0721715,0.071136,0.086884,0.090873,0.0985415,0.0853745,0.1130105,0.0532185,0.0457605,0.042024,0.0345355,0.0133085,0.0077385,0.0062715,0.0044945,0.0032515,0.002406,0.0016015,0.0011775,0.000838,0.0007035,0.000539,0.042747,0.043208,0.047571,0.046204,0.042906,0.04523,0.084135,0.129782,0.138957,0.090152,0.076519,0.072764,0.072198,0.065721,0.089248,0.092413,0.109905,0.125551,0.134188,0.11852,0.155824,0.073337,0.059798,0.058466,0.048758,0.018802,0.00979,0.007286,0.005956,0.00452,0.003142,0.001753,0.001393,0.001022,0.000852,0.000704,0.027983,0.031637,0.032375,0.031286,0.031973,0.038184,0.072818,0.090892,0.097277,0.070101,0.058154,0.054269,0.046073,0.056204,0.054118,0.052884,0.051271,0.066759,0.057725,0.044648,0.04409,0.03918,0.037664,0.02159,0.019562,0.010147,0.006843,0.004286,0.003063,0.002267,0.001778,0.001135,0.000942,0.000618,0.000504,0.000363
EMSC-20111004_0000023,2011-10-04T09:26:00,,,,,GR,39.17,21.6003,9.3801,,SS,,,4.48,,,,,,,,,,,,,,,,,HL,KASA,0,D,0,,,,GR,39.74628,19.93542,65,,topography,,,,,,,15.39,955,156.9199885,294.5892299,,,,,0.15,0.15,0.15,30,30,30,-0.124421,-0.125728,-0.082082,0.1325885,0.158267,0.110166,0.009862,0.009569,0.006898,0.009592555,0.0104123,0.00739738,0.00123,-0.001179,0.001038,0.001187955,0.00148488,0.00739738,34.55,36.08,40.14,34.795,36.135,33.76,0.0330385,0.0312112,0.0246843,0.03201495,0.035911,0.0271356,1.099301385,0.952928575,0.75502205,1.029301042,1.141670355,0.90169671,5.67E-05,4.11E-05,2.46E-05,4.89E-05,6.06E-05,3.72E-05,0.124568,0.125563,0.13435,0.131844,0.141323,0.143092,0.272064,0.341992,0.677904,0.483409,0.406694,0.461062,0.496087,0.481432,0.196145,0.204483,0.175092,0.15169,0.158022,0.099569,0.074565,0.056296,0.027626,0.021128,0.02217,0.018653,0.010052,0.00733,0.005437,0.004935,0.003582,0.002548,0.002009,0.001359,0.001068,0.000968,0.125728,0.126069,0.128241,0.129561,0.139496,0.143396,0.226877,0.346827,0.474764,0.444538,0.363808,0.297994,0.355334,0.345278,0.201468,0.219827,0.162443,0.169577,0.104102,0.109957,0.078758,0.056262,0.035086,0.029404,0.020645,0.016281,0.009214,0.004795,0.00372,0.003127,0.002424,0.001964,0.001228,0.00108,0.000934,0.000816,0.082116,0.083464,0.082413,0.086646,0.09323,0.117464,0.148952,0.257462,0.345895,0.218322,0.180012,0.202768,0.236473,0.22283,0.205936,0.17348,0.155273,0.156052,0.189267,0.127953,0.055674,0.030453,0.02375,0.021507,0.014157,0.009741,0.006493,0.003245,0.002799,0.002162,0.001715,0.001294,0.001062,0.000822,0.000755,0.000589,0.132741,0.134071,0.1378395,0.138861,0.157569,0.159341,0.251735,0.3624215,0.509225,0.45271,0.385545,0.365358,0.4163695,0.398126,0.2004665,0.2147405,0.168805,0.159947,0.1441985,0.104508,0.0747455,0.056087,0.030065,0.026263,0.0216255,0.0174935,0.0094785,0.0060375,0.0046485,0.00412,0.003051,0.002264,0.00166,0.0011815,0.0009655,0.0008515,0.158417,0.159534,0.162001,0.166193,0.178641,0.181411,0.274737,0.419606,0.678442,0.502654,0.45604,0.498408,0.552348,0.481432,0.216247,0.226115,0.206201,0.1813,0.163685,0.127428,0.079827,0.060922,0.038046,0.032918,0.027846,0.021779,0.012059,0.008482,0.006501,0.005767,0.004252,0.00315,0.002304,0.00163,0.001228,0.001085,0.110373,0.111687,0.113828,0.113554,0.126941,0.128652,0.190428,0.305103,0.424828,0.311618,0.32036,0.297994,0.255417,0.294241,0.17865,0.168767,0.140714,0.126274,0.097809,0.091852,0.063359,0.042478,0.024183,0.020773,0.013353,0.007723,0.005685,0.004138,0.00249,0.002074,0.001586,0.001132,0.000926,0.000703,0.000624,0.000528
EMSC-20120325_0000016,2012-03-25T04:46:00,,,,,GR,39.4437,20.4903,17.5248,,SS,,,4.7,,4.7,,4.7,,,,,,,,,,,,,HL,DLFA,0,D,0,,,,GR,38.47836,22.49583,570,,topography,,,,,,,36.09,1609,204.1991306,121.0209372,,,,,0.1,0.1,0.1,30,30,30,0.029611,-0.031069,-0.018329,0.0286605,0.031701,0.02496,0.003858,-0.005424,0.00203,0.00419411,0.00566578,0.00288548,-0.001087,-0.001372,-0.000745,0.00124901,0.00141649,0.00288548,64.4,63.96,71.085,64.0375,64.71,63.39,0.0191985,0.0217382,0.0110413,0.0200333,0.0234409,0.0154848,0.364953405,0.36582638,0.289010935,0.365389892,0.410903525,0.31298997,3.62E-06,3.68E-06,2.08E-06,3.65E-06,4.57E-06,2.73E-06,0.029619,0.029737,0.031721,0.031825,0.035096,0.047794,0.039798,0.045642,0.057323,0.051881,0.05444,0.065258,0.059614,0.061238,0.080556,0.084968,0.060119,0.056306,0.067901,0.068199,0.058856,0.062794,0.043343,0.023079,0.026358,0.014206,0.00851,0.006519,0.004505,0.006422,0.004542,0.002543,0.001403,0.000883,0.000825,0.000737,0.031103,0.031852,0.03213,0.033544,0.039556,0.054921,0.061697,0.050682,0.055291,0.057644,0.043505,0.059758,0.051935,0.067814,0.058776,0.064054,0.075959,0.072271,0.07444,0.085905,0.071459,0.055662,0.039884,0.029759,0.028393,0.017802,0.012039,0.007552,0.006136,0.006285,0.003539,0.001624,0.001354,0.001197,0.000805,0.000782,0.018363,0.019517,0.028873,0.019948,0.022863,0.036204,0.042425,0.043358,0.042228,0.034286,0.03736,0.049094,0.048841,0.055621,0.069818,0.043777,0.034994,0.036086,0.037152,0.0445,0.034705,0.020718,0.018398,0.017524,0.013175,0.009131,0.007467,0.005413,0.00437,0.003436,0.002663,0.001573,0.00132,0.000832,0.00054,0.000607,0.028701,0.029384,0.03104,0.030893,0.0350175,0.047552,0.04778,0.0496,0.0558855,0.0543345,0.052661,0.0625765,0.053927,0.0629495,0.0698915,0.0683095,0.0699985,0.0621595,0.0668935,0.0683445,0.062892,0.0575795,0.041667,0.0274045,0.0275225,0.015521,0.0103225,0.0067035,0.005455,0.0060625,0.004541,0.001953,0.0013505,0.0008985,0.0007755,0.00072,0.031713,0.032285,0.033717,0.034254,0.040759,0.055877,0.06375,0.054124,0.058522,0.058888,0.060849,0.066591,0.061624,0.067954,0.081207,0.085063,0.075959,0.073058,0.079594,0.09149,0.073484,0.068905,0.056867,0.034742,0.029783,0.018952,0.013278,0.008193,0.006362,0.006459,0.004832,0.002558,0.001437,0.001212,0.000834,0.000794,0.025016,0.025416,0.027113,0.026169,0.029959,0.041304,0.03846,0.042447,0.050505,0.043778,0.036976,0.048469,0.045403,0.055977,0.05476,0.062027,0.049884,0.052796,0.05166,0.055012,0.036329,0.026152,0.019736,0.023079,0.023185,0.012676,0.006478,0.005957,0.004459,0.004837,0.002953,0.001492,0.001033,0.000737,0.000675,0.000639
EMSC-20120607_0000043,2012-06-07T10:17:00,,,,,MK,41.3483,20.8057,10,,SS,4.7,,4.4,,4.4,,4.4,,,,,,,,,,,,,HL,KASA,0,D,0,,,,GR,39.74628,19.93542,65,,topography,,,,,,,15.39,955,192.563342,202.7929188,,,,,0.15,0.15,0.15,30,30,30,0.064851,0.049701,-0.039838,0.057839,0.075091,0.046793,-0.00576,0.005066,-0.002985,0.00502021,0.00575895,0.00444561,-0.00074,0.001095,0.000638,0.000853174,0.00110595,0.00444561,47.39,45.63,51.19,46.06,47.41,45.53,0.0173034,0.0207398,0.0155571,0.01936445,0.021801,0.0170536,0.633140155,0.562238695,0.447064045,0.598939917,0.67641865,0.497270185,1.45E-05,1.14E-05,6.52E-06,1.29E-05,1.69E-05,8.97E-06,0.064944,0.06539,0.065842,0.068408,0.06786,0.081381,0.099193,0.137114,0.188176,0.159402,0.180958,0.15433,0.153898,0.128297,0.110861,0.076994,0.076715,0.085182,0.084123,0.077041,0.047497,0.026547,0.021102,0.017003,0.013018,0.010736,0.010413,0.006023,0.00475,0.002953,0.001946,0.001376,0.000924,0.000808,0.000694,0.000542,0.049812,0.050015,0.050768,0.050862,0.054503,0.073216,0.09909,0.121069,0.156071,0.227646,0.15943,0.165328,0.145801,0.097506,0.087639,0.075083,0.081536,0.070119,0.095877,0.063377,0.049216,0.041435,0.043749,0.027085,0.025499,0.021966,0.014892,0.008204,0.004679,0.003606,0.003005,0.001825,0.001405,0.000902,0.000625,0.000528,0.039889,0.040082,0.042306,0.040017,0.045517,0.051273,0.06922,0.087722,0.110744,0.104324,0.119951,0.119848,0.094385,0.090825,0.069677,0.083059,0.081711,0.073425,0.052133,0.046218,0.041815,0.033684,0.0313,0.01996,0.017612,0.011062,0.006717,0.005818,0.003756,0.003154,0.002389,0.001416,0.001135,0.00073,0.000528,0.000366,0.057902,0.058045,0.0589115,0.0600215,0.0626525,0.077195,0.1018505,0.1320745,0.1716575,0.2000085,0.177879,0.1597515,0.1529955,0.115134,0.098597,0.079234,0.0797915,0.0747625,0.08857,0.077744,0.048605,0.0353865,0.033857,0.0243205,0.020635,0.0178165,0.012345,0.007158,0.004709,0.003357,0.002534,0.0017615,0.0011205,0.0008265,0.0006515,0.0005275,0.075186,0.075847,0.075834,0.077722,0.078394,0.086382,0.11253,0.160407,0.196051,0.245991,0.209486,0.184691,0.173095,0.151973,0.128001,0.090688,0.082471,0.087565,0.110972,0.091908,0.052686,0.041435,0.047299,0.02949,0.027427,0.023989,0.016345,0.009185,0.005592,0.004127,0.003116,0.001925,0.001418,0.000933,0.000696,0.000548,0.046818,0.047311,0.047626,0.047869,0.051319,0.065159,0.084939,0.104207,0.144865,0.126553,0.138933,0.132905,0.109794,0.083267,0.06766,0.067338,0.075481,0.065106,0.067951,0.047902,0.034699,0.026547,0.020005,0.01436,0.012159,0.009542,0.005474,0.003972,0.003,0.002446,0.001947,0.001333,0.000775,0.000632,0.000461,0.000379
EMSC-20120607_0000043,2012-06-07T10:17:00,,,,,MK,41.3483,20.8057,10,,SS,4.7,,4.4,,4.4,,4.4,,,,,,,,,,,,,HL,JAN,0,D,0,,,,GR,39.65616,20.84874,526,,topography,,,,,,,2.53,466.6,187.9379287,178.873677,,,,,0.15,0.15,0.15,30,30,30,0.078635,0.054246,-0.041264,0.07262,0.089034,0.054246,-0.0074,-0.00501,-0.003937,0.00625252,0.00743991,0.00482395,-0.001251,0.001021,0.000838,0.001233725,0.00131728,0.00482395,48.105,59.915,54.695,54.15,60.045,47.95,0.033968,0.0243851,0.0206247,0.0299807,0.0343244,0.0239706,0.896341195,0.838781275,0.549741805,0.871971233,0.912168255,0.8178536,2.55E-05,1.91E-05,8.95E-06,2.23E-05,2.63E-05,1.83E-05,0.07879,0.081218,0.083159,0.081136,0.09117,0.100789,0.129189,0.131895,0.213228,0.302555,0.351699,0.238016,0.245401,0.200256,0.203712,0.131512,0.12259,0.115877,0.116027,0.120082,0.086251,0.107657,0.053193,0.04024,0.038064,0.018974,0.008311,0.006416,0.004357,0.004466,0.004436,0.00236,0.00181,0.001257,0.001031,0.000897,0.054716,0.058732,0.091731,0.073681,0.062641,0.090528,0.127414,0.147108,0.198942,0.196412,0.260427,0.164963,0.121386,0.105373,0.084858,0.099627,0.107798,0.077555,0.08692,0.072723,0.063477,0.06866,0.047344,0.040716,0.029602,0.013984,0.01049,0.005926,0.004394,0.003375,0.003149,0.001964,0.001351,0.001017,0.0007,0.00055,0.041351,0.041535,0.044921,0.046401,0.059719,0.061261,0.09981,0.113978,0.141094,0.133658,0.115899,0.113187,0.075081,0.086627,0.078301,0.061557,0.073431,0.072611,0.072842,0.069894,0.083128,0.06967,0.043126,0.027625,0.020382,0.013489,0.00782,0.004363,0.004858,0.003555,0.003365,0.002117,0.001309,0.001065,0.000638,0.000539,0.0727115,0.074498,0.0913265,0.0811785,0.073601,0.0916905,0.127652,0.1418945,0.1999505,0.230916,0.299802,0.2212695,0.1970545,0.187356,0.153535,0.1141665,0.116179,0.1047465,0.1116505,0.098536,0.077178,0.0986555,0.0481185,0.040478,0.035101,0.015512,0.009721,0.006236,0.004376,0.004228,0.0034705,0.002167,0.0015945,0.001148,0.00089,0.0007855,0.089035,0.09165,0.097782,0.091642,0.097055,0.10135,0.131616,0.159478,0.236485,0.302555,0.404431,0.252512,0.245543,0.210663,0.205967,0.134718,0.144106,0.1164,0.125375,0.120082,0.08892,0.110551,0.055281,0.045744,0.043571,0.019153,0.011157,0.007008,0.005215,0.004647,0.004662,0.002408,0.001887,0.001297,0.001032,0.000924,0.054716,0.058732,0.073565,0.06599,0.061404,0.078759,0.117485,0.111934,0.186186,0.191285,0.216912,0.154208,0.111181,0.103517,0.083161,0.091787,0.099007,0.077555,0.074477,0.068938,0.05269,0.060744,0.04138,0.033572,0.024872,0.012541,0.008141,0.005189,0.003374,0.003017,0.003011,0.001891,0.001259,0.000892,0.000699,0.000548
EMSC-20120607_0000043,2012-06-07T10:17:00,,,,,MK,41.3483,20.8057,10,,SS,4.7,,4.4,,4.4,,4.4,,,,,,,,,,,,,MN,PDG,,D,5,,,,ME,42.4297,19.2608,40,,geology,,S4_2007-2009_DiCapua_et_al_2011,,,,,1.21,372.7,175.683811,313.6440626,,,,,0.1,0.1,0.1,30,30,30,-0.15701,-0.157709,-0.11092,0.148497,0.157709,0.131392,-0.009131,-0.012944,0.010323,0.01170455,0.0130239,0.00864552,0.001602,-0.002705,0.002625,0.001977795,0.00267286,0.00864552,38.445,38.72,39.515,38.3125,38.72,36.995,0.0469853,0.0506814,0.0379995,0.04749015,0.0509824,0.0452636,1.120159615,1.14625295,1.088695474,1.132766428,1.220397625,1.067240095,6.06E-05,6.49E-05,5.36E-05,6.28E-05,7.09E-05,5.47E-05,0.157379,0.159232,0.164965,0.171294,0.181583,0.28332,0.32031,0.565808,0.382712,0.531051,0.489925,0.365088,0.331089,0.287264,0.260141,0.303341,0.210045,0.193975,0.196288,0.203208,0.11406,0.075468,0.063377,0.040201,0.051152,0.028589,0.014121,0.013371,0.009205,0.007821,0.005546,0.002859,0.002225,0.001857,0.001429,0.001207,0.157808,0.158803,0.159747,0.16301,0.1652,0.222245,0.34187,0.358273,0.648611,0.537827,0.758718,0.538668,0.365847,0.227737,0.26634,0.288959,0.330401,0.32199,0.288181,0.247318,0.095631,0.082858,0.08157,0.050926,0.035354,0.024881,0.019878,0.013366,0.010821,0.008338,0.006479,0.004411,0.003281,0.00291,0.00246,0.001875,0.110971,0.112453,0.118633,0.123513,0.1644,0.255617,0.375308,0.399109,0.370035,0.332319,0.366287,0.322002,0.327329,0.310593,0.273132,0.1885,0.161725,0.150854,0.186332,0.09541,0.070462,0.094336,0.078084,0.041308,0.033712,0.023043,0.016023,0.015401,0.013581,0.012029,0.010101,0.00518,0.00323,0.002317,0.001707,0.001476,0.148592,0.1499505,0.151559,0.155664,0.167856,0.2397095,0.3173655,0.52092,0.517283,0.5042975,0.5945465,0.467932,0.3591985,0.266628,0.2543225,0.287734,0.2427005,0.262968,0.246062,0.228441,0.1092705,0.0801855,0.068421,0.0428005,0.0382085,0.0248705,0.0167775,0.0133685,0.0096875,0.008357,0.0066075,0.0037385,0.002734,0.0022215,0.001878,0.001448,0.157808,0.159232,0.164965,0.171294,0.181583,0.28332,0.34326,0.571657,0.66233,0.538098,0.763921,0.570156,0.395699,0.289275,0.267991,0.313467,0.33192,0.334062,0.314596,0.266714,0.123306,0.086154,0.08157,0.051378,0.051253,0.028604,0.020962,0.018193,0.012312,0.009889,0.007535,0.004878,0.003279,0.002948,0.002529,0.001964,0.131472,0.132844,0.137931,0.14276,0.15318,0.210129,0.264566,0.337684,0.376591,0.425606,0.396512,0.348716,0.276196,0.22262,0.238915,0.217188,0.181157,0.139896,0.14866,0.162823,0.092669,0.060492,0.052797,0.038308,0.034984,0.021444,0.012081,0.008201,0.006596,0.006807,0.005163,0.002741,0.002001,0.001758,0.00142,0.001163
