esm_event_id,event_time,isc_event_id,usgs_event_id,ingv_event_id,emsc_event_id,ev_nation_code,ev_latitude,ev_longitude,ev_depth_km,ev_hyp_ref,fm_type_code,ml,ml_ref,mw,mw_ref,ms,ms_ref,emec_mw,emec_mw_type,emec_mw_ref,event_source_id,es_strike,es_dip,es_rake,es_strike_dip_rake_ref,z_top,es_z_top_ref,es_length,es_width,es_geometry_ref,network_code,station_code,location_code,instrument_code,sensor_depth_m,proximity,hounsing,installation,st_nation_code,st_latitude,st_longitude,st_elevation,ec8_code,ec8_code_method,ec8_code_from_topography,ec8_code_ref,vs30_m_s,vs30_ref,vs30_calc_method,vs30_meas_type,slope_deg,vs30_m_s_wa,epi_dist,epi_az,jb_dist,rup_dist,rx_dist,ry0_dist,u_hp,v_hp,w_hp,u_lp,v_lp,w_lp,u_pga,v_pga,w_pga,rotd50_pga,rotd100_pga,rotd00_pga,u_pgv,v_pgv,w_pgv,rotd50_pgv,rotd100_pgv,rotd00_pgv,u_pgd,v_pgd,w_pgd,rotd50_pgd,rotd100_pgd,rotd00_pgd,u_t90,v_t90,w_t90,rotd50_t90,rotd100_t90,rot_d00_t90,u_housner,v_housner,w_housner,rotd50_housner,rotd100_housner,rotd00_housner,u_cav,v_cav,w_cav,rotd50_cav,rotd100_cav,rotd00_cav,u_ia,v_ia,w_ia,rotd50_ia,rotd100_ia,rotd00_ia,u_t0_010,u_t0_025,u_t0_040,u_t0_050,u_t0_070,u_t0_100,u_t0_150,u_t0_200,u_t0_250,u_t0_300,u_t0_350,u_t0_400,u_t0_450,u_t0_500,u_t0_600,u_t0_700,u_t0_750,u_t0_800,u_t0_900,u_t1_000,u_t1_200,u_t1_400,u_t1_600,u_t1_800,u_t2_000,u_t2_500,u_t3_000,u_t3_500,u_t4_000,u_t4_500,u_t5_000,u_t6_000,u_t7_000,u_t8_000,u_t9_000,u_t10_000,v_t0_010,v_t0_025,v_t0_040,v_t0_050,v_t0_070,v_t0_100,v_t0_150,v_t0_200,v_t0_250,v_t0_300,v_t0_350,v_t0_400,v_t0_450,v_t0_500,v_t0_600,v_t0_700,v_t0_750,v_t0_800,v_t0_900,v_t1_000,v_t1_200,v_t1_400,v_t1_600,v_t1_800,v_t2_000,v_t2_500,v_t3_000,v_t3_500,v_t4_000,v_t4_500,v_t5_000,v_t6_000,v_t7_000,v_t8_000,v_t9_000,v_t10_000,w_t0_010,w_t0_025,w_t0_040,w_t0_050,w_t0_070,w_t0_100,w_t0_150,w_t0_200,w_t0_250,w_t0_300,w_t0_350,w_t0_400,w_t0_450,w_t0_500,w_t0_600,w_t0_700,w_t0_750,w_t0_800,w_t0_900,w_t1_000,w_t1_200,w_t1_400,w_t1_600,w_t1_800,w_t2_000,w_t2_500,w_t3_000,w_t3_500,w_t4_000,w_t4_500,w_t5_000,w_t6_000,w_t7_000,w_t8_000,w_t9_000,w_t10_000,rotd50_t0_010,rotd50_t0_025,rotd50_t0_040,rotd50_t0_050,rotd50_t0_070,rotd50_t0_100,rotd50_t0_150,rotd50_t0_200,rotd50_t0_250,rotd50_t0_300,rotd50_t0_350,rotd50_t0_400,rotd50_t0_450,rotd50_t0_500,rotd50_t0_600,rotd50_t0_700,rotd50_t0_750,rotd50_t0_800,rotd50_t0_900,rotd50_t1_000,rotd50_t1_200,rotd50_t1_400,rotd50_t1_600,rotd50_t1_800,rotd50_t2_000,rotd50_t2_500,rotd50_t3_000,rotd50_t3_500,rotd50_t4_000,rotd50_t4_500,rotd50_t5_000,rotd50_t6_000,rotd50_t7_000,rotd50_t8_000,rotd50_t9_000,rotd50_t10_000,rotd100_t0_010,rotd100_t0_025,rotd100_t0_040,rotd100_t0_050,rotd100_t0_070,rotd100_t0_100,rotd100_t0_150,rotd100_t0_200,rotd100_t0_250,rotd100_t0_300,rotd100_t0_350,rotd100_t0_400,rotd100_t0_450,rotd100_t0_500,rotd100_t0_600,rotd100_t0_700,rotd100_t0_750,rotd100_t0_800,rotd100_t0_900,rotd100_t1_000,rotd100_t1_200,rotd100_t1_400,rotd100_t1_600,rotd100_t1_800,rotd100_t2_000,rotd100_t2_500,rotd100_t3_000,rotd100_t3_500,rotd100_t4_000,rotd100_t4_500,rotd100_t5_000,rotd100_t6_000,rotd100_t7_000,rotd100_t8_000,rotd100_t9_000,rotd100_t10_000,rotd00_t0_010,rotd00_t0_025,rotd00_t0_040,rotd00_t0_050,rotd00_t0_070,rotd00_t0_100,rotd00_t0_150,rotd00_t0_200,rotd00_t0_250,rotd00_t0_300,rotd00_t0_350,rotd00_t0_400,rotd00_t0_450,rotd00_t0_500,rotd00_t0_600,rotd00_t0_700,rotd00_t0_750,rotd00_t0_800,rotd00_t0_900,rotd00_t1_000,rotd00_t1_200,rotd00_t1_400,rotd00_t1_600,rotd00_t1_800,rotd00_t2_000,rotd00_t2_500,rotd00_t3_000,rotd00_t3_500,rotd00_t4_000,rotd00_t4_500,rotd00_t5_000,rotd00_t6_000,rotd00_t7_000,rotd00_t8_000,rotd00_t9_000,rotd00_t10_000
AL-2014-0005,2014-01-20T14:40:00,,,,,AL,41.38,19.45,8,,SS,3.9,,4.35,,,,,,,,,,,,,,,,,HL,KASA,0,D,0,,,,GR,39.74628,19.93542,65,,topography,,,,,,,15.39,955,186.0156461,167.0739969,,,,,0.15,0.15,0.15,30,30,30,0.029244622,0.033116098,0.033979063,0.029862562,0.033562275,0.026890324,0.001503367,0.001440491,0.001129869,0.001426741,0.001509318,0.001215551,0.000292885,0.000265682,0.000238286,0.000286111,0.000331789,0.001215551,44.33,42.15,47.44,42.94,44.33,41.285,0.005686308,0.004030184,0.004260617,0.004850426,0.00573168,0.003760924,0.228857534,0.21641369,0.186400364,0.222047114,0.243948825,0.202265419,2.17E-06,2.03E-06,1.35E-06,2.10E-06,2.52E-06,1.68E-06,0.029298497,0.029865574,0.031392734,0.040509161,0.052893586,0.061544787,0.096994959,0.0896798,0.075704932,0.066205464,0.10948956,0.080382578,0.047238771,0.036037531,0.024357406,0.01608252,0.01607465,0.014759235,0.015052103,,0.011682075,0.010372153,0.005387198,0.005929847,0.007223699,0.007662859,0.004283636,0.003573161,0.002481794,0.00132661,0.000968394,0.000597342,0.000350162,0.000297539,0.000224866,0.000224138,0.033149756,0.034662656,0.035502762,0.039354771,0.051553179,0.062991202,0.077339537,0.118113771,0.079899564,0.047176212,0.049055625,0.047042165,0.037811622,0.026878573,0.019989876,0.018687546,0.012897933,0.010549163,0.009120375,,0.007695287,0.007093913,0.004812081,0.004009097,0.004630065,0.004319455,0.002629018,0.002524007,0.002355709,0.002006956,0.001256558,0.000791704,0.000421678,0.000290712,0.000238136,0.000165009,0.034158569,0.035080276,0.037859198,0.04156436,0.051834159,0.051993173,0.066778094,0.069557615,0.059649736,0.034487624,0.041952256,0.058488417,0.043465812,0.03123975,0.020596081,0.016522689,0.015605654,0.014690286,0.015110357,0.021416062,0.012175192,0.007658423,0.004648313,0.003869097,0.003477043,0.002740671,0.002199607,0.003268282,0.001752323,0.001457701,0.000892325,0.00045627,0.000348578,0.000267152,0.00019123,0.000147018,0.0305712,0.03079185,0.0329079,0.0384593,0.05199005,0.0625916,0.08525605,0.104275,0.08136875,0.0594105,0.0856716,0.06301725,0.0431221,0.030298,0.02091445,0.01617655,0.01369805,0.0130071,0.01113125,0.01226945,0.009864505,0.008630755,0.004963205,0.005207105,0.006072065,0.006239205,0.00339787,0.002921095,0.002402705,0.00176677,0.001203765,0.000685051,0.000399798,0.000292349,0.000222407,0.000195464,0.0340356,0.0351947,0.0359499,0.0418971,0.0558985,0.0678258,0.105428,0.136846,0.0923318,0.0669952,0.113599,0.0817522,0.0521287,0.0428478,0.0248941,0.0187164,0.0162765,0.0147682,0.0153942,0.0150658,0.0137165,0.0112128,0.00605218,0.00631091,0.0074383,0.00873193,0.00442954,0.00362245,0.0029729,0.00226175,0.00134957,0.000796466,0.000452511,0.000353962,0.000238806,0.000223365,0.0274934,0.0277824,0.0284011,0.0320071,0.0385034,0.055312,0.0751569,0.0648445,0.0732037,0.0346382,0.0370086,0.031003,0.0257624,0.0229264,0.0153878,0.0143285,0.0124106,0.0104828,0.00844999,0.00638275,0.00584518,0.00641766,0.00403235,0.00331477,0.00335059,0.00290889,0.00250726,0.00247352,0.00129204,0.000991405,0.000903559,0.000577075,0.000334502,0.000194334,0.00019166,0.000153558
AL-2014-0005,2014-01-20T14:40:00,,,,,AL,41.38,19.45,8,,SS,3.9,,4.35,,,,,,,,,,,,,,,,,AC,KKS,0,D,,No information,Small masonry building,Pillar,AL,42.0756,20.4113,300,B,vs_profile,,,745,AC,,MASW,7.66,740.9,111.2019725,45.67340829,,,,,0.15,0.15,0.15,30,30,30,0.078331,-0.073147,-0.041145,0.071497,0.080892,0.061481,-0.003468,0.003357,0.003509,0.00344151,0.00464514,0.00298993,-0.000808,0.000469,0.00073,0.000642725,0.000828672,0.00298993,30.015,30.2,30.485,30.0275,30.51,29.765,0.0154977,0.0124658,0.0136807,0.01411165,0.0156379,0.0122818,0.50072053,0.486545465,0.29766125,0.495041315,0.50833958,0.47801096,1.50E-05,1.42E-05,5.23E-06,1.46E-05,1.55E-05,1.38E-05,0.078876,0.081788,0.089185,0.101625,0.135066,0.231277,0.189933,0.259896,0.175176,0.130721,0.088313,0.079407,0.060616,0.053628,0.040017,0.043409,0.059147,0.071781,0.056184,0.040726,0.039439,0.03513,0.027181,0.024656,0.024313,0.008848,0.004551,0.003234,0.003508,0.002721,0.002852,0.001735,0.001109,0.000779,0.00059,0.000476,0.07316,0.077432,0.089466,0.09295,0.144909,0.246074,0.2292,0.167739,0.117155,0.109213,0.083075,0.06704,0.065217,0.080405,0.059653,0.037075,0.045493,0.045109,0.042821,0.047993,0.041464,0.030212,0.017205,0.018594,0.011958,0.008205,0.005328,0.003112,0.002319,0.001958,0.001444,0.001168,0.000997,0.000687,0.000462,0.00035,0.041802,0.044454,0.062246,0.070449,0.083314,0.135583,0.110855,0.146168,0.101263,0.074379,0.067384,0.043784,0.039515,0.046481,0.05202,0.047293,0.047587,0.045043,0.044989,0.059555,0.059702,0.044305,0.025047,0.015104,0.013103,0.00805,0.005192,0.003656,0.002534,0.002545,0.001862,0.001199,0.000745,0.000661,0.000466,0.000364,0.0716225,0.0749065,0.0847295,0.09232,0.143651,0.234783,0.2275895,0.2050655,0.1395715,0.121169,0.090499,0.067834,0.0661865,0.0704335,0.0468525,0.0402085,0.053554,0.0591705,0.047593,0.045892,0.041083,0.033192,0.0212945,0.021229,0.0201405,0.008249,0.004847,0.0031435,0.002859,0.002527,0.0021385,0.001323,0.00104,0.000681,0.0004985,0.000394,0.081075,0.084506,0.092607,0.103946,0.14836,0.247079,0.236282,0.260587,0.190402,0.135546,0.103731,0.079407,0.072127,0.084819,0.065865,0.056864,0.074476,0.07961,0.059125,0.051588,0.047598,0.041793,0.027287,0.024736,0.024458,0.009008,0.005364,0.003337,0.00358,0.002757,0.002913,0.001751,0.001252,0.000831,0.000624,0.000487,0.061854,0.064332,0.072447,0.081491,0.125218,0.220322,0.173016,0.145592,0.084457,0.078904,0.074262,0.06141,0.048715,0.051805,0.036843,0.030459,0.027483,0.031919,0.039592,0.038729,0.039012,0.019287,0.015204,0.016184,0.011916,0.006407,0.004239,0.002791,0.002294,0.001816,0.001211,0.00101,0.000785,0.000627,0.000455,0.000352
AL-2014-0005,2014-01-20T14:40:00,,,,,AL,41.38,19.45,8,,SS,3.9,,4.35,,,,,,,,,,,,,,,,,AC,SDA,0,D,,No information,Small masonry building,Pillar,AL,42.0505,19.5022,57,A,vs_profile,,,1118,AC,,MASW,10.58,827.4,74.59751811,3.321044049,,,,,0.15,0.15,0.15,30,30,30,-0.082025,-0.105984,-0.067542,0.095173,0.106211,0.07112,-0.003209,0.003528,-0.002137,0.00323048,0.00360387,0.00284707,0.00047,0.000436,0.000337,0.000449504,0.000511691,0.00284707,28.065,26.61,25.815,26.8925,28.405,26.555,0.00880349,0.0110794,0.00918383,0.00997979,0.0113451,0.00856182,0.35874062,0.458601345,0.45574449,0.414306065,0.458601345,0.35874062,7.80E-06,1.40E-05,1.20E-05,1.09E-05,1.40E-05,7.80E-06,0.083056,0.087665,0.093185,0.127494,0.179068,0.298371,0.199783,0.143813,0.111082,0.096065,0.071397,0.059324,0.076457,0.075252,0.052498,0.032625,0.031836,0.030645,0.027736,,0.021042,0.020353,0.011305,0.009262,0.008898,0.007581,0.005958,0.00313,0.002921,0.001997,0.001313,0.000902,0.000521,0.00049,0.000348,0.000286,0.106509,0.111244,0.12634,0.137857,0.226252,0.422246,0.339753,0.291707,0.160332,0.085474,0.070379,0.065308,0.093507,0.094105,0.047779,0.044028,0.041248,0.0526,0.044263,,0.017543,0.018691,0.020327,0.013736,0.008714,0.007752,0.004009,0.0032,0.003031,0.002532,0.001927,0.001016,0.000885,0.000464,0.000509,0.000386,0.067953,0.072226,0.096355,0.15971,0.281108,0.231995,0.217582,0.113797,0.092751,0.091324,0.06895,0.110342,0.080221,0.076409,0.047557,0.034091,0.028803,0.030441,0.027744,0.025475,0.019259,0.013335,0.014041,0.012504,0.013118,0.007157,0.003418,0.00337,0.002972,0.002932,0.001746,0.000803,0.00058,0.000413,0.000375,0.000277,0.095378,0.09991,0.1118705,0.1304855,0.2124295,0.3466375,0.3027895,0.225684,0.1462865,0.090009,0.0736085,0.06412,0.0830155,0.082478,0.0507525,0.0409465,0.0368015,0.0439615,0.0351105,0.029121,0.0185005,0.0196415,0.015616,0.0118845,0.008302,0.007343,0.005025,0.003127,0.003,0.002283,0.0016635,0.000895,0.0006335,0.000447,0.00039,0.0002905,0.106929,0.111626,0.12634,0.148921,0.248922,0.428981,0.364994,0.295709,0.165587,0.096451,0.091631,0.070922,0.104897,0.094371,0.055456,0.045185,0.041248,0.057738,0.046024,0.038719,0.024279,0.02393,0.02098,0.014272,0.009043,0.007938,0.006466,0.003277,0.003342,0.002593,0.001979,0.001035,0.000886,0.000492,0.000518,0.000382,0.071513,0.073885,0.079322,0.11213,0.179068,0.193842,0.17929,0.131819,0.110914,0.080898,0.057382,0.055343,0.076115,0.073511,0.04541,0.032095,0.02682,0.029207,0.024224,0.021465,0.013835,0.015823,0.010909,0.008184,0.006607,0.0059,0.003386,0.00275,0.002354,0.001539,0.001046,0.00077,0.000427,0.000407,0.000343,0.000246
AL-2016-0001,2016-09-12T17:53:00,,,,,MK,42.0065,21.4854,5.8352,,SS,4,,4.21,,,,,,,,,,,,,,,,,AC,LACI,0,D,,Inside structure,Building,Pillar,AL,41.6359,19.7199,,A,vs_profile,,,1490,AC,,MASW,9.2,791.8,152.3446165,254.9144507,,,,,0.25,0.25,0.25,25,25,25,0.013499,0.009185,-0.01151,0.0109085,0.014342,0.00886,-0.001075,-0.00099,-0.001238,0.001018785,0.00107631,0.000862391,0.000221,0.000227,0.000216,0.000226329,0.000246669,0.000862391,39.08,41.645,40.21,39.415,42.275,38.435,0.00548077,0.00544232,0.00525122,0.005461485,0.0062521,0.00417637,0.116020275,0.089963245,0.105255985,0.104809253,0.11880246,0.085484125,6.71E-07,4.02E-07,5.38E-07,5.36E-07,7.06E-07,3.66E-07,0.013502,0.013951,0.017383,0.017402,0.018039,0.024564,0.025631,0.02729,0.037866,0.041875,0.031573,0.036665,0.037421,0.034538,0.044149,0.024584,0.022004,0.026272,0.018987,0.017272,0.015904,0.012638,0.011319,0.008198,0.005813,0.00287,0.001569,0.000963,0.000758,0.0006,0.000472,0.00035,0.000227,0.000205,0.000166,0.000132,0.00919,0.009373,0.009813,0.01064,0.012122,0.012652,0.013782,0.01642,0.024705,0.024531,0.019808,0.027105,0.029137,0.025838,0.025609,0.022512,0.023107,0.019249,0.017159,0.01749,0.013432,0.014022,0.011101,0.008057,0.006803,0.005557,0.002897,0.00148,0.001081,0.000951,0.000699,0.00044,0.00022,0.000187,0.000147,0.000124,0.01153,0.011623,0.012524,0.011723,0.014612,0.018738,0.020216,0.021345,0.022505,0.028752,0.031297,0.033892,0.027402,0.030014,0.039684,0.049072,0.037738,0.029444,0.027514,0.018871,0.012009,0.00952,0.006441,0.007568,0.005458,0.003572,0.001485,0.001078,0.00071,0.000688,0.00042,0.000353,0.000255,0.000226,0.000156,0.000125,0.0109225,0.011191,0.0130205,0.013407,0.014166,0.0176175,0.0207435,0.023502,0.029305,0.034353,0.026563,0.0294485,0.031807,0.0283965,0.033157,0.022315,0.022236,0.022878,0.0178705,0.0173805,0.0138975,0.01321,0.01121,0.007928,0.006289,0.004189,0.002137,0.001139,0.000963,0.0007645,0.0006165,0.000402,0.0002295,0.0001955,0.0001555,0.0001275,0.014349,0.014758,0.018358,0.018616,0.018844,0.024787,0.025682,0.029562,0.041252,0.048332,0.032243,0.041245,0.037442,0.034538,0.045371,0.025991,0.025979,0.027888,0.021698,0.023291,0.016014,0.01745,0.0132,0.008467,0.007237,0.005918,0.002907,0.001515,0.001188,0.000955,0.000699,0.000442,0.000261,0.000212,0.000182,0.000138,0.00886,0.009051,0.009505,0.009594,0.011296,0.011808,0.012928,0.015185,0.020773,0.02087,0.018831,0.025201,0.028027,0.025318,0.023641,0.019923,0.017135,0.014615,0.01401,0.010601,0.012227,0.007226,0.007874,0.00651,0.004633,0.002066,0.001288,0.000958,0.000701,0.000545,0.000471,0.000322,0.000215,0.00017,0.000136,0.000102
AL-2016-0001,2016-09-12T17:53:00,,,,,MK,42.0065,21.4854,5.8352,,SS,4,,4.21,,,,,,,,,,,,,,,,,AC,KBN,0,D,0,Inside structure,Building,Pillar,AL,40.6236,20.7874,800,B,vs_profile,,,742,AC,,MASW,1.88,420.1,164.3279158,201.0651435,,,,,0.25,0.25,0.25,25,25,25,-0.019497,-0.018162,0.008264,0.0195635,0.022144,0.017659,-0.001421,-0.001788,0.000958,0.00167061,0.00180114,0.00136903,0.000218,0.000287,-0.000202,0.000240742,0.000293304,0.00136903,49.715,44.9,52.5,46.81,50.735,42.94,0.00606717,0.00814966,0.00459638,0.00715982,0.00814968,0.00606704,0.17894246,0.214169595,0.1375033,0.195496915,0.214535635,0.178421935,1.15E-06,1.71E-06,5.86E-07,1.43E-06,1.71E-06,1.15E-06,0.019503,0.019759,0.020245,0.022893,0.022414,0.022813,0.029594,0.037826,0.050466,0.044942,0.0575,0.055139,0.056684,0.048422,0.044608,0.03742,0.036436,0.037181,0.029543,0.022803,0.017145,0.01374,0.007864,0.006414,0.004375,0.00197,0.001591,0.000949,0.000907,0.000627,0.000447,0.000354,0.000302,0.000235,0.000183,0.000156,0.018192,0.018334,0.020269,0.018588,0.019907,0.022476,0.033415,0.037115,0.055079,0.053541,0.059216,0.067769,0.077878,0.073545,0.087903,0.060953,0.052444,0.047571,0.040943,0.027204,0.020977,0.01703,0.011733,0.007124,0.005546,0.003289,0.001653,0.001483,0.001002,0.001114,0.000831,0.000531,0.00033,0.000302,0.000232,0.000183,0.008264,0.008823,0.011118,0.009739,0.011394,0.022699,0.022481,0.021572,0.027371,0.022154,0.028245,0.026322,0.024575,0.027898,0.027345,0.028519,0.029517,0.025358,0.019876,0.018858,0.013028,0.009793,0.008665,0.005992,0.004268,0.002209,0.001579,0.00091,0.000751,0.000607,0.000612,0.000426,0.000339,0.000231,0.000193,0.000223,0.0195655,0.01975,0.020318,0.021629,0.021914,0.0228925,0.034692,0.0412055,0.0515655,0.0534075,0.061531,0.064344,0.0713985,0.057461,0.072176,0.048321,0.0462025,0.041899,0.035883,0.0264735,0.017913,0.015699,0.0097425,0.006282,0.005189,0.0028855,0.00172,0.0012845,0.000991,0.000894,0.000666,0.000465,0.00031,0.000271,0.000199,0.000162,0.022151,0.022332,0.024144,0.023945,0.024624,0.028883,0.038208,0.04985,0.069895,0.055925,0.06956,0.071702,0.079475,0.077401,0.088018,0.061109,0.056604,0.055193,0.041248,0.030833,0.021687,0.017103,0.012318,0.007124,0.005736,0.003544,0.001864,0.001566,0.001074,0.001119,0.000836,0.000529,0.000333,0.000305,0.000232,0.000184,0.017667,0.018043,0.018387,0.018588,0.019348,0.021342,0.026584,0.033565,0.040902,0.043599,0.049826,0.048728,0.053141,0.044244,0.043745,0.037284,0.027463,0.02628,0.029443,0.022803,0.015329,0.012927,0.007864,0.005007,0.003691,0.001869,0.001531,0.000948,0.000892,0.000589,0.000447,0.000287,0.000237,0.000178,0.000154,0.000134
AL-2016-0001,2016-09-12T17:53:00,,,,,MK,42.0065,21.4854,5.8352,,SS,4,,4.21,,,,,,,,,,,,,,,,,AC,DURR,0,D,,Free-field,Fiberglass box,Pillar,AL,41.3199,19.4573,,C,vs_profile,,,202,AC,,MASW,0.83,342.2,185.322415,246.3789394,,,,,0.25,0.25,0.25,30,30,30,0.09217,0.079481,0.058083,0.0862865,0.09217,0.065733,-0.009429,-0.009098,0.00359,0.00906511,0.010193,0.0069307,-0.001455,-0.001771,0.000471,0.00169426,0.00226771,0.0069307,55.205,49.555,70.43,53.1625,55.72,47.24,0.0431589,0.0458364,0.015183,0.04435555,0.0532679,0.0345526,0.85865279,0.85735146,0.80298578,0.858002125,0.906431075,0.80191682,2.59E-05,2.70E-05,1.85E-05,2.65E-05,3.04E-05,2.25E-05,0.092278,0.093044,0.097003,0.10573,0.134105,0.154905,0.103801,0.107321,0.124708,0.208104,0.262531,0.18542,0.200803,0.225678,0.165292,0.163719,0.163107,0.212783,0.22696,0.266709,0.116683,0.102506,0.069252,0.04852,0.058033,0.021429,0.015835,0.011656,0.008544,0.006107,0.004032,0.002143,0.001575,0.001209,0.000953,0.00083,0.079595,0.080105,0.082383,0.086073,0.111147,0.158355,0.100406,0.105145,0.183415,0.187384,0.278879,0.250519,0.217367,0.188615,0.189353,0.165321,0.198629,0.219677,0.16156,0.142396,0.115542,0.116265,0.081198,0.078707,0.068745,0.026992,0.013393,0.010753,0.008334,0.006123,0.00429,0.002657,0.001923,0.001405,0.00114,0.000959,0.05814,0.060661,0.084945,0.094853,0.157824,0.22475,0.094071,0.106887,0.116987,0.155059,0.127946,0.15273,0.109941,0.095939,0.085263,0.079854,0.064284,0.071282,0.061472,0.060528,0.056587,0.042297,0.027649,0.012701,0.010908,0.006413,0.004169,0.002377,0.002136,0.001672,0.001055,0.000761,0.000553,0.000442,0.000381,0.000334,0.0863105,0.087428,0.092819,0.101589,0.1270115,0.15663,0.099129,0.1047975,0.1392065,0.1963485,0.2597125,0.2139265,0.213425,0.197227,0.1722755,0.16452,0.187346,0.21623,0.194674,0.216193,0.1161125,0.1101335,0.072024,0.066665,0.06415,0.024125,0.0133895,0.0112035,0.0084615,0.006114,0.004234,0.002504,0.001837,0.001354,0.0010925,0.000915,0.092278,0.093044,0.101957,0.110223,0.152426,0.207515,0.109544,0.109082,0.196374,0.212088,0.280559,0.251481,0.224589,0.225678,0.199898,0.187914,0.244155,0.293309,0.254763,0.286181,0.15484,0.117776,0.082392,0.084608,0.0853,0.029973,0.01613,0.012595,0.011102,0.008634,0.005632,0.003217,0.002338,0.001814,0.001449,0.001184,0.065753,0.067675,0.070923,0.077429,0.107112,0.136306,0.072389,0.082967,0.124708,0.170058,0.223185,0.178569,0.183509,0.157484,0.136737,0.116153,0.109134,0.13552,0.108588,0.087012,0.078832,0.100187,0.066605,0.037289,0.036292,0.01694,0.01176,0.008782,0.005104,0.003737,0.00265,0.001621,0.001232,0.000986,0.000794,0.000685
