esm_event_id,event_time,isc_event_id,usgs_event_id,ingv_event_id,emsc_event_id,ev_nation_code,ev_latitude,ev_longitude,ev_depth_km,ev_hyp_ref,fm_type_code,ml,ml_ref,mw,mw_ref,ms,ms_ref,emec_mw,emec_mw_type,emec_mw_ref,event_source_id,es_strike,es_dip,es_rake,es_strike_dip_rake_ref,z_top,es_z_top_ref,es_length,es_width,es_geometry_ref,network_code,station_code,location_code,instrument_code,sensor_depth_m,proximity,hounsing,installation,st_nation_code,st_latitude,st_longitude,st_elevation,ec8_code,ec8_code_method,ec8_code_from_topography,ec8_code_ref,vs30_m_s,vs30_ref,vs30_calc_method,vs30_meas_type,slope_deg,vs30_m_s_wa,epi_dist,epi_az,jb_dist,rup_dist,rx_dist,ry0_dist,u_hp,v_hp,w_hp,u_lp,v_lp,w_lp,u_pga,v_pga,w_pga,rotd50_pga,rotd100_pga,rotd00_pga,u_pgv,v_pgv,w_pgv,rotd50_pgv,rotd100_pgv,rotd00_pgv,u_pgd,v_pgd,w_pgd,rotd50_pgd,rotd100_pgd,rotd00_pgd,u_t90,v_t90,w_t90,rotd50_t90,rotd100_t90,rot_d00_t90,u_housner,v_housner,w_housner,rotd50_housner,rotd100_housner,rotd00_housner,u_cav,v_cav,w_cav,rotd50_cav,rotd100_cav,rotd00_cav,u_ia,v_ia,w_ia,rotd50_ia,rotd100_ia,rotd00_ia,u_t0_010,u_t0_025,u_t0_040,u_t0_050,u_t0_070,u_t0_100,u_t0_150,u_t0_200,u_t0_250,u_t0_300,u_t0_350,u_t0_400,u_t0_450,u_t0_500,u_t0_600,u_t0_700,u_t0_750,u_t0_800,u_t0_900,u_t1_000,u_t1_200,u_t1_400,u_t1_600,u_t1_800,u_t2_000,u_t2_500,u_t3_000,u_t3_500,u_t4_000,u_t4_500,u_t5_000,u_t6_000,u_t7_000,u_t8_000,u_t9_000,u_t10_000,v_t0_010,v_t0_025,v_t0_040,v_t0_050,v_t0_070,v_t0_100,v_t0_150,v_t0_200,v_t0_250,v_t0_300,v_t0_350,v_t0_400,v_t0_450,v_t0_500,v_t0_600,v_t0_700,v_t0_750,v_t0_800,v_t0_900,v_t1_000,v_t1_200,v_t1_400,v_t1_600,v_t1_800,v_t2_000,v_t2_500,v_t3_000,v_t3_500,v_t4_000,v_t4_500,v_t5_000,v_t6_000,v_t7_000,v_t8_000,v_t9_000,v_t10_000,w_t0_010,w_t0_025,w_t0_040,w_t0_050,w_t0_070,w_t0_100,w_t0_150,w_t0_200,w_t0_250,w_t0_300,w_t0_350,w_t0_400,w_t0_450,w_t0_500,w_t0_600,w_t0_700,w_t0_750,w_t0_800,w_t0_900,w_t1_000,w_t1_200,w_t1_400,w_t1_600,w_t1_800,w_t2_000,w_t2_500,w_t3_000,w_t3_500,w_t4_000,w_t4_500,w_t5_000,w_t6_000,w_t7_000,w_t8_000,w_t9_000,w_t10_000,rotd50_t0_010,rotd50_t0_025,rotd50_t0_040,rotd50_t0_050,rotd50_t0_070,rotd50_t0_100,rotd50_t0_150,rotd50_t0_200,rotd50_t0_250,rotd50_t0_300,rotd50_t0_350,rotd50_t0_400,rotd50_t0_450,rotd50_t0_500,rotd50_t0_600,rotd50_t0_700,rotd50_t0_750,rotd50_t0_800,rotd50_t0_900,rotd50_t1_000,rotd50_t1_200,rotd50_t1_400,rotd50_t1_600,rotd50_t1_800,rotd50_t2_000,rotd50_t2_500,rotd50_t3_000,rotd50_t3_500,rotd50_t4_000,rotd50_t4_500,rotd50_t5_000,rotd50_t6_000,rotd50_t7_000,rotd50_t8_000,rotd50_t9_000,rotd50_t10_000,rotd100_t0_010,rotd100_t0_025,rotd100_t0_040,rotd100_t0_050,rotd100_t0_070,rotd100_t0_100,rotd100_t0_150,rotd100_t0_200,rotd100_t0_250,rotd100_t0_300,rotd100_t0_350,rotd100_t0_400,rotd100_t0_450,rotd100_t0_500,rotd100_t0_600,rotd100_t0_700,rotd100_t0_750,rotd100_t0_800,rotd100_t0_900,rotd100_t1_000,rotd100_t1_200,rotd100_t1_400,rotd100_t1_600,rotd100_t1_800,rotd100_t2_000,rotd100_t2_500,rotd100_t3_000,rotd100_t3_500,rotd100_t4_000,rotd100_t4_500,rotd100_t5_000,rotd100_t6_000,rotd100_t7_000,rotd100_t8_000,rotd100_t9_000,rotd100_t10_000,rotd00_t0_010,rotd00_t0_025,rotd00_t0_040,rotd00_t0_050,rotd00_t0_070,rotd00_t0_100,rotd00_t0_150,rotd00_t0_200,rotd00_t0_250,rotd00_t0_300,rotd00_t0_350,rotd00_t0_400,rotd00_t0_450,rotd00_t0_500,rotd00_t0_600,rotd00_t0_700,rotd00_t0_750,rotd00_t0_800,rotd00_t0_900,rotd00_t1_000,rotd00_t1_200,rotd00_t1_400,rotd00_t1_600,rotd00_t1_800,rotd00_t2_000,rotd00_t2_500,rotd00_t3_000,rotd00_t3_500,rotd00_t4_000,rotd00_t4_500,rotd00_t5_000,rotd00_t6_000,rotd00_t7_000,rotd00_t8_000,rotd00_t9_000,rotd00_t10_000
AL-2016-0001,2016-09-12T17:53:00,,,,,MK,42.0065,21.4854,5.8352,,SS,4,,4.21,,,,,,,,,,,,,,,,,HI,LMS2,,D,0,,,,GR,40.834985,21.141815,923,,topography,,,,,,,2.32,451.3,133.2431954,192.5627246,,,,,0.15,0.15,0.15,40,40,40,-0.117679,0.103003,0.047829,0.103786,0.117679,0.0811306,0.003559,0.003633,-0.002605,0.003534375,0.00387249,0.00271886,-0.000287,-0.000307,-0.000242,0.000307747,0.000351329,0.00271886,25.775,27.53,26.755,27.1875,27.61,24.99,0.00872436,0.0081648,0.00658247,0.008492327,0.009540491,0.007813762,0.44637589,0.578877985,0.263282395,0.516735845,0.581248349,0.441408232,1.34E-05,2.31E-05,4.37E-06,1.82E-05,2.33E-05,1.32E-05,0.118321,0.121595,0.130225,0.132092,0.217534,0.335409,0.29299,0.174811,0.15589,0.130013,0.173745,0.093241,0.118781,0.123221,0.084217,0.053025,0.056936,0.03961,0.02741,0.017827,0.01299,0.008773,0.008294,0.007993,0.006197,0.003676,0.001856,0.001433,0.001192,0.001062,0.001037,0.000608,0.000432,0.000419,0.000341,0.000278,0.103116,0.109057,0.119943,0.129178,0.220106,0.309476,0.38509,0.245671,0.180545,0.199444,0.171936,0.143238,0.116884,0.085367,0.061613,0.044177,0.03856,0.036283,0.031515,0.026727,0.012576,0.007956,0.005332,0.004725,0.003049,0.002166,0.001469,0.00199,0.001258,0.001011,0.001007,0.000618,0.000557,0.000358,0.000339,0.000307,0.048,0.052372,0.066311,0.088862,0.186788,0.134999,0.118586,0.074523,0.139997,0.119482,0.109811,0.093933,0.083923,0.070098,0.04846,0.038617,0.034025,0.025292,0.024963,0.02469,0.013622,0.010561,0.00662,0.004621,0.003239,0.003232,0.002178,0.001214,0.001098,0.000987,0.000656,0.000496,0.000322,0.000293,0.000259,0.000205,0.1041105,0.108877,0.1188415,0.12732,0.216003,0.312765,0.3425125,0.207091,0.1569685,0.143479,0.164583,0.1053315,0.113288,0.1043635,0.07376985,0.04958965,0.04837395,0.03850485,0.0345143,0.0260097,0.0128577,0.00863364,0.0068154,0.005808665,0.00506045,0.00318772,0.001780615,0.00172379,0.001210415,0.00104022,0.001018715,0.000615056,0.000521996,0.00039512,0.000342074,0.000304448,0.118817,0.122188,0.131378,0.138942,0.236128,0.337128,0.389613,0.257547,0.182001,0.202442,0.178023,0.145075,0.126067,0.142829,0.104326,0.0671548,0.0590341,0.0488608,0.0397782,0.0288837,0.0160585,0.0116081,0.00879671,0.00801194,0.00619704,0.00375685,0.0019804,0.00232221,0.00141279,0.00122482,0.00119675,0.000669271,0.000630578,0.000498793,0.000375937,0.000344783,0.0846558,0.0861094,0.0918221,0.0903051,0.153712,0.255039,0.282634,0.164825,0.128655,0.122889,0.131762,0.0748342,0.0743977,0.07158,0.0540383,0.0301878,0.0314215,0.0323469,0.0265569,0.0168121,0.0105303,0.00644719,0.00499344,0.00445864,0.00292428,0.00212398,0.00146528,0.00126708,0.000830259,0.000684854,0.000604189,0.000551929,0.00032726,0.000293935,0.000299346,0.000248061
AL-2016-0001,2016-09-12T17:53:00,,,,,MK,42.0065,21.4854,5.8352,,SS,4,,4.21,,,,,,,,,,,,,,,,,AC,POGR,0,D,,Inside structure,Building,Building floor,AL,40.8996,20.679,,C,vs_profile,,,352,AC,,MASW,1.8,414.5,140.1878421,208.9945209,,,,,0.25,0.25,0.25,30,30,30,0.112998,0.149658,-0.101739,0.1497985,0.175951,0.112571,-0.011559,0.01537,0.009606,0.01339915,0.0155614,0.011255,-0.001791,-0.00234,0.001184,0.002369925,0.00270159,0.011255,37.355,31.515,41.465,33.83,37.355,31.215,0.0557358,0.0703423,0.0343633,0.0638546,0.0705842,0.0550758,1.362598415,1.490981691,0.909245395,1.43053657,1.501906925,1.35020182,7.78E-05,0.000103005,3.45E-05,9.04E-05,0.000103314,7.75E-05,0.113131,0.113483,0.118156,0.121347,0.147022,0.153996,0.168745,0.245239,0.272777,0.354972,0.447971,0.423827,0.410919,0.343532,0.505385,0.341759,0.29637,0.321284,0.227161,0.188627,0.189061,0.1482,0.070644,0.058334,0.044006,0.021435,0.010557,0.008576,0.007054,0.00481,0.003473,0.002692,0.001869,0.001511,0.001279,0.001044,0.149886,0.151432,0.151506,0.158827,0.200639,0.267527,0.214326,0.242444,0.249295,0.411838,0.435419,0.613342,0.40853,0.409842,0.477621,0.481449,0.41722,0.414474,0.355395,0.34205,0.146901,0.188198,0.141374,0.07302,0.048284,0.02239,0.014281,0.010175,0.008113,0.006411,0.005515,0.003323,0.002735,0.00217,0.00176,0.001473,0.101822,0.102607,0.106195,0.114089,0.124452,0.155586,0.103145,0.112895,0.136927,0.189163,0.244475,0.202625,0.307036,0.295821,0.274469,0.397243,0.44609,0.298832,0.146701,0.113174,0.081188,0.066548,0.040453,0.027749,0.02398,0.011025,0.006708,0.004908,0.003478,0.002833,0.002509,0.001924,0.001477,0.001112,0.000891,0.000732,0.150069,0.151834,0.1557965,0.164949,0.186381,0.2035075,0.210799,0.265518,0.2597395,0.379419,0.4519215,0.548312,0.413685,0.373642,0.4884745,0.4470525,0.3947925,0.3425365,0.303395,0.2554525,0.150054,0.1628415,0.1200285,0.0660545,0.044085,0.023073,0.0124085,0.009276,0.008179,0.006367,0.004752,0.0034605,0.002654,0.0021455,0.001764,0.0014585,0.176026,0.177251,0.178594,0.175985,0.210978,0.287275,0.219589,0.320702,0.280998,0.412338,0.490433,0.670445,0.43787,0.476208,0.574984,0.495166,0.463985,0.422373,0.387646,0.352557,0.20415,0.201303,0.147876,0.076117,0.048863,0.026077,0.016557,0.011119,0.008561,0.00692,0.005784,0.00384,0.002836,0.002338,0.001959,0.001619,0.112731,0.113483,0.114518,0.121347,0.129956,0.148647,0.15952,0.210139,0.215456,0.341287,0.366738,0.421793,0.383849,0.322846,0.413549,0.328419,0.283824,0.282841,0.210759,0.18345,0.134542,0.113533,0.063152,0.047501,0.032788,0.018548,0.010289,0.008307,0.006906,0.00445,0.003344,0.002454,0.001761,0.00151,0.001242,0.000997
AL-2016-0002,2016-10-15T20:18:00,,,,,GR,39.7382,20.7398,16.5125,,SS,,,4.42,,,,,,,,,,,,,,,,,AC,KBN,0,D,0,Inside structure,Building,Pillar,AL,40.6236,20.7874,800,B,vs_profile,,,742,AC,,MASW,1.88,420.1,98.39669077,2.345954369,,,,,0.25,0.25,0.25,20,20,20,0.031102,-0.035245,0.026193,0.032095,0.039311,0.029131,-0.002807,0.003092,-0.002442,0.002966455,0.00359112,0.00260499,0.000678,-0.000572,0.000659,0.000645899,0.000724083,0.00260499,49.16,47.46,47.345,47.9075,49.16,47.18,0.0136064,0.0133647,0.00983658,0.01348265,0.0142889,0.0124684,0.358819625,0.37527119,0.28761134,0.36588857,0.38450161,0.347524325,4.78E-06,5.46E-06,3.23E-06,5.12E-06,5.73E-06,4.52E-06,0.031102,0.031206,0.031707,0.033144,0.03372,0.046024,0.068753,0.088644,0.094562,0.121092,0.097026,0.090013,0.066191,0.055836,0.047326,0.035067,0.036107,0.039989,0.045638,0.037311,0.022114,0.028656,0.026312,0.02845,0.020648,0.013882,0.013252,0.00597,0.004971,0.003432,0.002375,0.001639,0.000839,0.000583,0.000424,0.000342,0.035299,0.035713,0.035973,0.036011,0.03958,0.049966,0.054388,0.070851,0.105269,0.100389,0.112631,0.131482,0.095554,0.111434,0.096086,0.083187,0.070074,0.053088,0.045121,0.036996,0.03418,0.02755,0.023265,0.015243,0.013878,0.009529,0.007126,0.005064,0.004408,0.003283,0.002153,0.001338,0.000996,0.000499,0.00044,0.000314,0.026293,0.02659,0.026594,0.028614,0.035479,0.060151,0.062316,0.067619,0.067439,0.073969,0.088841,0.064241,0.082159,0.098132,0.063532,0.036016,0.03713,0.03845,0.030339,0.030444,0.023593,0.017207,0.015274,0.013175,0.011839,0.00954,0.005309,0.005954,0.004061,0.004314,0.002857,0.001397,0.001009,0.000542,0.000433,0.000318,0.032125,0.0325515,0.0334495,0.0340195,0.0349365,0.0505875,0.066385,0.0773255,0.095782,0.1144075,0.105799,0.10491,0.0779005,0.0869075,0.074373,0.065799,0.057458,0.0493075,0.043902,0.0356925,0.027057,0.026696,0.0241795,0.0251015,0.0183485,0.012196,0.009596,0.005481,0.004621,0.0032895,0.0022265,0.001658,0.0009835,0.000584,0.0004515,0.000347,0.039389,0.039717,0.040238,0.040659,0.044879,0.05638,0.078616,0.090814,0.120441,0.121705,0.117064,0.136381,0.100054,0.113338,0.096086,0.090185,0.078673,0.055099,0.047837,0.037738,0.034812,0.029425,0.026606,0.028599,0.020784,0.016498,0.013525,0.007129,0.005162,0.004386,0.002685,0.001877,0.001052,0.000641,0.000481,0.000382,0.029131,0.029587,0.03043,0.030769,0.031446,0.044898,0.051536,0.067428,0.068631,0.089594,0.066167,0.064925,0.058357,0.051945,0.044515,0.03292,0.032306,0.038544,0.035803,0.029492,0.022084,0.021818,0.019773,0.01508,0.010701,0.008928,0.006716,0.004913,0.00411,0.002593,0.001616,0.001307,0.000827,0.000513,0.000399,0.00031
AL-2016-0004,2016-10-16T02:18:00,,,,,GR,39.7342,20.7236,18.8506,,SS,3.8,,4.35,,,,,,,,,,,,,,,,,AC,KBN,0,D,0,Inside structure,Building,Pillar,AL,40.6236,20.7874,800,B,vs_profile,,,742,AC,,MASW,1.88,420.1,98.90663605,3.128837488,,,,,0.2,0.2,0.2,25,25,25,-0.05073,0.055476,0.03328,0.0496455,0.055518,0.043724,-0.003488,-0.004215,-0.002045,0.00387254,0.00447959,0.00323155,-0.000467,0.000488,0.000466,0.000542808,0.000594916,0.00323155,36.14,32.33,40.75,34.3775,36.975,31.965,0.014313,0.0158952,0.0116608,0.0152805,0.015968,0.0139089,0.387971035,0.430081885,0.31626938,0.406193743,0.435203895,0.37906056,6.81E-06,8.80E-06,4.27E-06,7.80E-06,9.12E-06,6.49E-06,0.050745,0.05112,0.051902,0.051371,0.053524,0.068206,0.08762,0.103926,0.121053,0.223913,0.201814,0.112578,0.094029,0.106375,0.073453,0.069574,0.06798,0.065259,0.042881,0.045311,0.037996,0.03118,0.020416,0.017831,0.012664,0.010795,0.005524,0.003252,0.001864,0.00145,0.001195,0.000759,0.000569,0.000428,0.000353,0.000286,0.0555,0.056127,0.056986,0.056968,0.056935,0.069213,0.085483,0.104382,0.120467,0.129628,0.18153,0.250112,0.172745,0.162034,0.153582,0.105111,0.072678,0.065657,0.046555,0.034459,0.030046,0.024526,0.021058,0.018731,0.017785,0.008309,0.003709,0.002158,0.001652,0.001511,0.00112,0.000741,0.000653,0.000508,0.000357,0.000312,0.033358,0.033954,0.036249,0.036184,0.041122,0.067458,0.088945,0.10303,0.088097,0.098862,0.112833,0.09283,0.11639,0.087962,0.072795,0.043895,0.051438,0.053267,0.044183,0.039987,0.034625,0.024663,0.017579,0.017934,0.01216,0.007509,0.004227,0.002999,0.001964,0.00165,0.001101,0.000624,0.000511,0.000326,0.000315,0.000309,0.0496645,0.0499765,0.0505805,0.0505695,0.054849,0.065705,0.080915,0.1034885,0.119856,0.1808665,0.190621,0.1810625,0.145613,0.141455,0.109402,0.0837345,0.069243,0.0642125,0.0438225,0.041013,0.034237,0.0286915,0.022176,0.018623,0.014623,0.009459,0.0048845,0.002678,0.001851,0.001495,0.0011345,0.0007685,0.0006145,0.000444,0.0003865,0.000307,0.055578,0.056184,0.057214,0.057133,0.057017,0.071896,0.088323,0.116338,0.135207,0.226297,0.222956,0.250112,0.177702,0.162034,0.153758,0.106233,0.073962,0.066428,0.050122,0.045311,0.038079,0.031393,0.02489,0.021628,0.019283,0.012388,0.005573,0.003302,0.002175,0.001727,0.001238,0.000823,0.000659,0.000508,0.000409,0.000331,0.043725,0.044098,0.045092,0.045814,0.048757,0.056289,0.067344,0.0964,0.100877,0.112049,0.116299,0.112578,0.092613,0.08865,0.067511,0.053656,0.057069,0.048005,0.037686,0.034083,0.029465,0.02038,0.018901,0.017439,0.011385,0.007154,0.003435,0.002051,0.001617,0.00135,0.00101,0.000694,0.000528,0.000406,0.000337,0.000285
AL-2016-0004,2016-10-16T02:18:00,,,,,GR,39.7342,20.7236,18.8506,,SS,3.8,,4.35,,,,,,,,,,,,,,,,,AC,DURR,0,D,,Free-field,Fiberglass box,Pillar,AL,41.3199,19.4573,,C,vs_profile,,,202,AC,,MASW,0.83,342.2,206.1937281,329.0532086,,,,,0.2,0.2,0.2,25,25,25,0.091675,0.080241,-0.048216,0.0839095,0.100526,0.071543,-0.006367,-0.006968,0.003642,0.007238275,0.00808714,0.00636614,0.001655,-0.001602,-0.000751,0.00165699,0.0019404,0.00636614,61.86,62.635,81.005,62,62.635,61.065,0.0387738,0.0348334,0.0185452,0.03717585,0.0387772,0.0342618,1.140215145,1.205070905,0.841942885,1.16478135,1.21690274,1.1218477,3.35E-05,3.62E-05,1.58E-05,3.48E-05,3.71E-05,3.25E-05,0.091836,0.092395,0.093929,0.095808,0.111461,0.110432,0.147149,0.186883,0.229227,0.272474,0.259794,0.291329,0.186421,0.212244,0.182817,0.164054,0.145946,0.117293,0.118904,0.13892,0.092405,0.088932,0.081394,0.064565,0.045753,0.031247,0.02184,0.012177,0.008165,0.005665,0.003738,0.002279,0.001758,0.001328,0.001002,0.000843,0.080337,0.080856,0.082872,0.088202,0.105879,0.090305,0.119579,0.141277,0.181968,0.208038,0.189584,0.343289,0.226963,0.229673,0.171101,0.166121,0.116307,0.132453,0.161978,0.125163,0.092409,0.055574,0.048294,0.04873,0.041017,0.030582,0.021579,0.016241,0.009544,0.007671,0.005047,0.002463,0.001593,0.001333,0.000926,0.000776,0.048233,0.049455,0.053195,0.072356,0.086345,0.088813,0.084632,0.105728,0.164478,0.257509,0.191247,0.216153,0.165849,0.140568,0.124259,0.137342,0.085899,0.073578,0.066112,0.056601,0.044677,0.042542,0.02501,0.017265,0.015458,0.012496,0.009367,0.008865,0.005223,0.002956,0.00247,0.001472,0.00086,0.000652,0.000542,0.000419,0.083968,0.084529,0.08592,0.0896265,0.1021415,0.093674,0.14052,0.165496,0.1894765,0.263632,0.2300125,0.2911765,0.2202765,0.2236005,0.189493,0.1650875,0.1477505,0.1394985,0.131044,0.1392375,0.092407,0.0681415,0.06623,0.0538785,0.0437315,0.0326365,0.0236645,0.012992,0.0085245,0.0065235,0.0043165,0.0024835,0.001698,0.0013305,0.000968,0.0008005,0.100625,0.101035,0.10237,0.103467,0.114883,0.120805,0.150256,0.188123,0.23626,0.283004,0.26076,0.369093,0.257197,0.25353,0.213197,0.197207,0.180122,0.166969,0.161978,0.150947,0.104625,0.090592,0.085832,0.064565,0.047107,0.034292,0.02613,0.017738,0.01041,0.00865,0.005082,0.00302,0.001917,0.00152,0.001078,0.000905,0.071553,0.072177,0.07255,0.0743,0.087336,0.080153,0.103477,0.133766,0.175116,0.208038,0.189204,0.206639,0.157185,0.195422,0.164946,0.127804,0.116307,0.112832,0.107439,0.118622,0.066603,0.05196,0.043168,0.043951,0.03689,0.029406,0.019275,0.01163,0.007284,0.005403,0.003584,0.002147,0.001522,0.001128,0.000865,0.000707
AL-2016-0004,2016-10-16T02:18:00,,,,,GR,39.7342,20.7236,18.8506,,SS,3.8,,4.35,,,,,,,,,,,,,,,,,HI,LMS2,,D,0,,,,GR,40.834985,21.141815,923,,topography,,,,,,,2.32,451.3,127.2995746,16.08791365,,,,,0.15,0.15,0.15,40,40,40,-0.086494,0.113386,0.036464,0.1042685,0.134039,0.0851206,0.004804,-0.005409,-0.002651,0.0052243,0.0057039,0.00473011,0.000549,0.000549,-0.000331,0.00055963,0.000623347,0.00473011,28.93,29.525,33.815,29.3475,29.91,28.885,0.0145497,0.0167462,0.00891636,0.015846596,0.017806267,0.0136951,0.543503335,0.64460146,0.29875512,0.597985455,0.64460146,0.543503335,1.69E-05,2.34E-05,4.27E-06,2.02E-05,2.34E-05,1.69E-05,0.086615,0.087381,0.088593,0.091587,0.097082,0.131386,0.322506,0.220894,0.341779,0.291021,0.201102,0.213831,0.141522,0.123927,0.141297,0.138978,0.110938,0.075849,0.050377,0.029681,0.033636,0.024475,0.011503,0.009018,0.007476,0.004929,0.003287,0.00232,0.001898,0.001755,0.001148,0.000957,0.000744,0.000547,0.00045,0.000418,0.11365,0.114943,0.116439,0.118791,0.130289,0.161732,0.289783,0.337521,0.290217,0.321067,0.337451,0.231319,0.226092,0.219337,0.165151,0.076876,0.067255,0.073959,0.061514,0.063227,0.02488,0.020765,0.015037,0.011768,0.009615,0.006918,0.005123,0.003614,0.002448,0.001751,0.001371,0.001104,0.000908,0.000539,0.000482,0.000429,0.036473,0.036744,0.037915,0.038697,0.047352,0.055322,0.061518,0.086103,0.09697,0.099001,0.117734,0.109338,0.113687,0.083773,0.085822,0.064497,0.040743,0.0292,0.031726,0.026564,0.02303,0.01601,0.013648,0.008906,0.005614,0.003266,0.003169,0.002465,0.001675,0.001398,0.001083,0.000654,0.000381,0.000346,0.000259,0.000217,0.1048985,0.106066,0.1100375,0.1127485,0.126615,0.1668265,0.3032235,0.2791675,0.3021515,0.3102195,0.306522,0.217598,0.1848655,0.1879385,0.151954,0.1113805,0.09070815,0.074904,0.0578946,0.0494539,0.02918475,0.020991,0.01480735,0.009735955,0.008821175,0.005759685,0.00415841,0.003127155,0.002315115,0.001751095,0.0013825,0.001128025,0.000785925,0.000553127,0.000515624,0.000449768,0.135925,0.136634,0.139813,0.141854,0.150416,0.185995,0.362862,0.349191,0.346664,0.348193,0.341425,0.237501,0.250619,0.244697,0.180493,0.144898,0.128281,0.105213,0.0703182,0.0633902,0.0386361,0.0244834,0.0170025,0.0123982,0.00973451,0.00719797,0.00587301,0.00420936,0.00269841,0.00236079,0.00168481,0.00130291,0.000905017,0.000630753,0.000566698,0.000502359,0.0854445,0.0870094,0.0878657,0.0915868,0.0970819,0.123055,0.206178,0.212509,0.260422,0.291022,0.18006,0.194026,0.111001,0.123927,0.0996451,0.0768757,0.0589156,0.0575883,0.0385448,0.0282443,0.0248802,0.0177696,0.0114052,0.00806804,0.00624059,0.00398796,0.0026,0.00165506,0.00132979,0.00108419,0.000868555,0.000702082,0.000598064,0.000441764,0.000385064,0.000344941
