esm_event_id,event_time,isc_event_id,usgs_event_id,ingv_event_id,emsc_event_id,ev_nation_code,ev_latitude,ev_longitude,ev_depth_km,ev_hyp_ref,fm_type_code,ml,ml_ref,mw,mw_ref,ms,ms_ref,emec_mw,emec_mw_type,emec_mw_ref,event_source_id,es_strike,es_dip,es_rake,es_strike_dip_rake_ref,z_top,es_z_top_ref,es_length,es_width,es_geometry_ref,network_code,station_code,location_code,instrument_code,sensor_depth_m,proximity,hounsing,installation,st_nation_code,st_latitude,st_longitude,st_elevation,ec8_code,ec8_code_method,ec8_code_from_topography,ec8_code_ref,vs30_m_s,vs30_ref,vs30_calc_method,vs30_meas_type,slope_deg,vs30_m_s_wa,epi_dist,epi_az,jb_dist,rup_dist,rx_dist,ry0_dist,u_hp,v_hp,w_hp,u_lp,v_lp,w_lp,u_pga,v_pga,w_pga,rotd50_pga,rotd100_pga,rotd00_pga,u_pgv,v_pgv,w_pgv,rotd50_pgv,rotd100_pgv,rotd00_pgv,u_pgd,v_pgd,w_pgd,rotd50_pgd,rotd100_pgd,rotd00_pgd,u_t90,v_t90,w_t90,rotd50_t90,rotd100_t90,rot_d00_t90,u_housner,v_housner,w_housner,rotd50_housner,rotd100_housner,rotd00_housner,u_cav,v_cav,w_cav,rotd50_cav,rotd100_cav,rotd00_cav,u_ia,v_ia,w_ia,rotd50_ia,rotd100_ia,rotd00_ia,u_t0_010,u_t0_025,u_t0_040,u_t0_050,u_t0_070,u_t0_100,u_t0_150,u_t0_200,u_t0_250,u_t0_300,u_t0_350,u_t0_400,u_t0_450,u_t0_500,u_t0_600,u_t0_700,u_t0_750,u_t0_800,u_t0_900,u_t1_000,u_t1_200,u_t1_400,u_t1_600,u_t1_800,u_t2_000,u_t2_500,u_t3_000,u_t3_500,u_t4_000,u_t4_500,u_t5_000,u_t6_000,u_t7_000,u_t8_000,u_t9_000,u_t10_000,v_t0_010,v_t0_025,v_t0_040,v_t0_050,v_t0_070,v_t0_100,v_t0_150,v_t0_200,v_t0_250,v_t0_300,v_t0_350,v_t0_400,v_t0_450,v_t0_500,v_t0_600,v_t0_700,v_t0_750,v_t0_800,v_t0_900,v_t1_000,v_t1_200,v_t1_400,v_t1_600,v_t1_800,v_t2_000,v_t2_500,v_t3_000,v_t3_500,v_t4_000,v_t4_500,v_t5_000,v_t6_000,v_t7_000,v_t8_000,v_t9_000,v_t10_000,w_t0_010,w_t0_025,w_t0_040,w_t0_050,w_t0_070,w_t0_100,w_t0_150,w_t0_200,w_t0_250,w_t0_300,w_t0_350,w_t0_400,w_t0_450,w_t0_500,w_t0_600,w_t0_700,w_t0_750,w_t0_800,w_t0_900,w_t1_000,w_t1_200,w_t1_400,w_t1_600,w_t1_800,w_t2_000,w_t2_500,w_t3_000,w_t3_500,w_t4_000,w_t4_500,w_t5_000,w_t6_000,w_t7_000,w_t8_000,w_t9_000,w_t10_000,rotd50_t0_010,rotd50_t0_025,rotd50_t0_040,rotd50_t0_050,rotd50_t0_070,rotd50_t0_100,rotd50_t0_150,rotd50_t0_200,rotd50_t0_250,rotd50_t0_300,rotd50_t0_350,rotd50_t0_400,rotd50_t0_450,rotd50_t0_500,rotd50_t0_600,rotd50_t0_700,rotd50_t0_750,rotd50_t0_800,rotd50_t0_900,rotd50_t1_000,rotd50_t1_200,rotd50_t1_400,rotd50_t1_600,rotd50_t1_800,rotd50_t2_000,rotd50_t2_500,rotd50_t3_000,rotd50_t3_500,rotd50_t4_000,rotd50_t4_500,rotd50_t5_000,rotd50_t6_000,rotd50_t7_000,rotd50_t8_000,rotd50_t9_000,rotd50_t10_000,rotd100_t0_010,rotd100_t0_025,rotd100_t0_040,rotd100_t0_050,rotd100_t0_070,rotd100_t0_100,rotd100_t0_150,rotd100_t0_200,rotd100_t0_250,rotd100_t0_300,rotd100_t0_350,rotd100_t0_400,rotd100_t0_450,rotd100_t0_500,rotd100_t0_600,rotd100_t0_700,rotd100_t0_750,rotd100_t0_800,rotd100_t0_900,rotd100_t1_000,rotd100_t1_200,rotd100_t1_400,rotd100_t1_600,rotd100_t1_800,rotd100_t2_000,rotd100_t2_500,rotd100_t3_000,rotd100_t3_500,rotd100_t4_000,rotd100_t4_500,rotd100_t5_000,rotd100_t6_000,rotd100_t7_000,rotd100_t8_000,rotd100_t9_000,rotd100_t10_000,rotd00_t0_010,rotd00_t0_025,rotd00_t0_040,rotd00_t0_050,rotd00_t0_070,rotd00_t0_100,rotd00_t0_150,rotd00_t0_200,rotd00_t0_250,rotd00_t0_300,rotd00_t0_350,rotd00_t0_400,rotd00_t0_450,rotd00_t0_500,rotd00_t0_600,rotd00_t0_700,rotd00_t0_750,rotd00_t0_800,rotd00_t0_900,rotd00_t1_000,rotd00_t1_200,rotd00_t1_400,rotd00_t1_600,rotd00_t1_800,rotd00_t2_000,rotd00_t2_500,rotd00_t3_000,rotd00_t3_500,rotd00_t4_000,rotd00_t4_500,rotd00_t5_000,rotd00_t6_000,rotd00_t7_000,rotd00_t8_000,rotd00_t9_000,rotd00_t10_000
EMSC-20081024_0000091,2008-10-24T17:00:00,,,,,AL,41.1882,20.2379,10.1535,,SS,4,,4.21,,,,,,,,,,,,,,,,,MN,PDG,,D,5,,,,ME,42.4297,19.2608,40,,geology,,S4_2007-2009_DiCapua_et_al_2011,,,,,1.21,372.7,160.0192325,329.833868,,,,,0.15,0.15,0.15,30,30,30,0.053812,0.057896,-0.053272,0.054237,0.068027,0.043215,-0.002623,0.003262,0.002816,0.00281608,0.00383216,0.00189828,0.000349,0.000392,0.000409,0.000376451,0.000439034,0.00189828,44.205,42.96,41.03,43.5,47.62,38.05,0.0105739,0.0104107,0.00933913,0.0104923,0.0125366,0.00754407,0.391231805,0.376776815,0.375905785,0.381272852,0.391231805,0.37601521,5.94E-06,5.86E-06,5.79E-06,5.90E-06,6.59E-06,5.22E-06,0.053965,0.056138,0.064023,0.072894,0.109148,0.143453,0.143874,0.212897,0.125799,0.079751,0.07477,0.076615,0.062493,0.064868,0.054402,0.040541,0.03726,0.041299,0.035762,0.04113,0.032256,0.015903,0.014012,0.011887,0.012755,0.007701,0.003822,0.002297,0.001839,0.001722,0.001376,0.00092,0.000673,0.000427,0.000345,0.000282,0.058011,0.05804,0.066311,0.075557,0.097113,0.1087,0.132971,0.148088,0.142198,0.130754,0.146782,0.115528,0.081497,0.055664,0.044111,0.045013,0.049273,0.052767,0.036709,0.0437,0.030281,0.014647,0.013718,0.013331,0.009736,0.005375,0.00367,0.001931,0.001474,0.001474,0.001308,0.000843,0.000594,0.0005,0.000336,0.000261,0.053392,0.054226,0.057373,0.063255,0.109267,0.120024,0.146487,0.245171,0.108164,0.104815,0.081957,0.08459,0.089581,0.04925,0.04357,0.046909,0.042325,0.031309,0.026099,0.023955,0.025152,0.016328,0.017599,0.014233,0.009296,0.005362,0.00298,0.002207,0.001596,0.001469,0.001477,0.001478,0.000719,0.000457,0.00033,0.000327,0.0543425,0.0565575,0.0646845,0.0735705,0.104043,0.1287295,0.136676,0.1835845,0.1339325,0.107817,0.1152395,0.09617,0.0705265,0.0556355,0.0519285,0.045387,0.0435985,0.041534,0.03581,0.042958,0.0313495,0.015257,0.0137345,0.01256,0.0116535,0.006753,0.0037455,0.002313,0.0017235,0.001604,0.0013235,0.000976,0.0006275,0.000443,0.0003345,0.00027,0.068407,0.070388,0.077722,0.084063,0.110943,0.143624,0.168704,0.249096,0.177684,0.142878,0.149618,0.115934,0.084337,0.064868,0.056021,0.050478,0.051389,0.053553,0.040329,0.053849,0.04024,0.020298,0.018036,0.017093,0.014837,0.008378,0.005124,0.002853,0.002114,0.001924,0.00169,0.001214,0.000746,0.000511,0.000372,0.000293,0.04343,0.045179,0.049514,0.058945,0.081073,0.102054,0.111055,0.103185,0.094578,0.075358,0.071861,0.062355,0.056085,0.049694,0.042765,0.039914,0.034723,0.035063,0.026536,0.017598,0.012008,0.009118,0.007058,0.009736,0.006187,0.002958,0.002099,0.001562,0.001208,0.001019,0.000832,0.000843,0.000517,0.00039,0.000268,0.000218
EMSC-20081024_0000096,2008-10-24T19:31:00,,,,,AL,41.1876,20.2316,19.0123,,NF,4.5,,4.5,,4.5,,4.5,,,,,,,,,,,,,MN,PDG,,D,5,,,,ME,42.4297,19.2608,40,,geology,,S4_2007-2009_DiCapua_et_al_2011,,,,,1.21,372.7,159.8119796,330.0055155,,,,,0.1,0.1,0.1,30,30,30,-0.117476,-0.15365,-0.11881,0.1313875,0.178289,0.10347,-0.010294,0.007909,-0.008055,0.009105265,0.0104988,0.00715724,0.001621,0.001368,-0.001545,0.00146335,0.00202058,0.00715724,39.26,36.605,39.12,37.6975,39.88,34.545,0.0370968,0.0341549,0.0306276,0.0356181,0.0433995,0.026564,0.81273021,0.82462073,0.808783765,0.81721687,0.849574485,0.775436185,3.01E-05,3.33E-05,3.09E-05,3.17E-05,3.33E-05,3.01E-05,0.117561,0.119647,0.127091,0.13275,0.192289,0.331126,0.281294,0.417088,0.277973,0.23486,0.243625,0.246644,0.200384,0.203029,0.266952,0.142661,0.135808,0.131319,0.140466,0.105897,0.103373,0.058947,0.05669,0.052254,0.050165,0.030537,0.014364,0.00872,0.007044,0.006618,0.005863,0.004015,0.003105,0.002003,0.001373,0.001028,0.154051,0.156018,0.161046,0.175036,0.238233,0.248569,0.247488,0.461698,0.35143,0.227225,0.306815,0.315901,0.334848,0.261617,0.211705,0.146974,0.151159,0.138122,0.110342,0.124677,0.101333,0.05338,0.048507,0.050943,0.039051,0.018335,0.012751,0.007921,0.005618,0.005556,0.005508,0.004077,0.002348,0.001515,0.001103,0.000875,0.118859,0.120165,0.122857,0.147276,0.197007,0.218441,0.243803,0.39533,0.272952,0.225165,0.299997,0.346693,0.215251,0.187838,0.166719,0.142666,0.14532,0.120861,0.120169,0.094984,0.071033,0.051099,0.061033,0.051613,0.031422,0.020541,0.010961,0.006858,0.00478,0.004504,0.005357,0.006864,0.00401,0.002692,0.001845,0.0013,0.1315565,0.133529,0.137851,0.145343,0.205461,0.3024815,0.268319,0.43718,0.2990385,0.2334685,0.260346,0.294447,0.279613,0.2534175,0.2524255,0.145898,0.136239,0.139989,0.124743,0.1145415,0.102353,0.0561505,0.051204,0.0515985,0.0452915,0.0248895,0.0136145,0.0085235,0.0066675,0.0062505,0.0055905,0.0040785,0.002759,0.0017755,0.0012865,0.001033,0.178614,0.181418,0.193525,0.200876,0.250448,0.364252,0.340663,0.538302,0.361395,0.260152,0.317835,0.340612,0.335051,0.276818,0.275173,0.164962,0.155355,0.168363,0.171012,0.140742,0.128771,0.073143,0.07076,0.06678,0.062615,0.032426,0.018416,0.011257,0.007306,0.007149,0.006798,0.00539,0.003806,0.002441,0.001586,0.001226,0.103674,0.103998,0.108554,0.123403,0.171034,0.201175,0.230228,0.270431,0.235038,0.204972,0.218046,0.227939,0.200384,0.190046,0.171018,0.122636,0.108578,0.103042,0.09007,0.058917,0.042404,0.043862,0.028876,0.036319,0.021974,0.009686,0.00653,0.006058,0.004118,0.003942,0.003469,0.003399,0.00198,0.001265,0.000929,0.00083
EMSC-20090306_0000080,2009-03-06T23:06:00,,,,,AL,41.168,19.513,7.9,,SS,3.9,,4.49,,,,,,,,,,,,,,,,,MN,PDG,,D,5,,,,ME,42.4297,19.2608,40,,geology,,S4_2007-2009_DiCapua_et_al_2011,,,,,1.21,372.7,141.6949332,351.5770221,,,,,0.15,0.15,0.15,30,30,30,0.076497,0.058889,-0.061903,0.0759655,0.081716,0.058662,-0.005438,-0.003196,0.004587,0.004807735,0.0055853,0.00319581,0.000601,-0.000456,-0.000791,0.000517792,0.000747584,0.00319581,29.815,33.505,35.485,31.8175,34.115,27.34,0.0166774,0.0138638,0.0178968,0.01565635,0.016864,0.0136597,0.498061195,0.457833845,0.460051205,0.476990098,0.509857745,0.44641137,1.21E-05,9.91E-06,9.43E-06,1.10E-05,1.22E-05,9.81E-06,0.076842,0.078349,0.08425,0.090296,0.109036,0.176375,0.241629,0.248855,0.203035,0.267467,0.183802,0.186945,0.196119,0.149546,0.12707,0.101595,0.102514,0.09302,0.06413,0.058573,0.034867,0.022031,0.020843,0.023417,0.012591,0.005685,0.004094,0.003794,0.002324,0.001967,0.001401,0.000918,0.000669,0.000525,0.00045,0.000376,0.05909,0.061236,0.066902,0.074988,0.103161,0.169739,0.17477,0.300587,0.19132,0.185054,0.153079,0.107512,0.1054,0.148483,0.080686,0.064313,0.066141,0.070057,0.057703,0.040068,0.029262,0.027336,0.015041,0.016029,0.014178,0.006726,0.004947,0.003229,0.002008,0.001773,0.001318,0.00076,0.000532,0.000387,0.000326,0.000286,0.061903,0.062972,0.062753,0.07593,0.080139,0.140253,0.140596,0.271281,0.180098,0.142002,0.107653,0.097162,0.11077,0.161262,0.097693,0.07027,0.061559,0.058704,0.071176,0.070899,0.054802,0.042157,0.031767,0.023642,0.015917,0.008495,0.005562,0.003433,0.002245,0.002198,0.001555,0.001128,0.000755,0.000606,0.000468,0.000423,0.076095,0.077272,0.0817315,0.089231,0.108973,0.169773,0.1991265,0.2779095,0.1961225,0.224071,0.179729,0.165538,0.1522195,0.1476135,0.098671,0.085633,0.0863955,0.074925,0.062187,0.046446,0.0318575,0.0254595,0.0189985,0.0193225,0.0135995,0.0065545,0.0045405,0.0035235,0.0021735,0.0018715,0.001305,0.0007885,0.000552,0.000454,0.0003895,0.000355,0.081737,0.082348,0.087805,0.097149,0.118722,0.188672,0.243034,0.310458,0.225398,0.267467,0.203558,0.192163,0.201804,0.15868,0.128639,0.102225,0.102514,0.093479,0.074212,0.065587,0.038562,0.027411,0.021978,0.026412,0.016737,0.007467,0.006421,0.004983,0.003074,0.002646,0.001638,0.001037,0.000779,0.000627,0.000514,0.000444,0.05909,0.061236,0.065298,0.070151,0.099076,0.135747,0.154762,0.168515,0.164685,0.142057,0.12374,0.107512,0.1054,0.134962,0.078056,0.062415,0.062996,0.061925,0.048093,0.036697,0.027753,0.018012,0.014188,0.014264,0.012447,0.00556,0.003173,0.002522,0.001566,0.001239,0.000867,0.000615,0.000516,0.000388,0.000326,0.00027
EMSC-20090307_0000077,2009-03-07T18:51:00,,,,,AL,41.177,19.495,10,,SS,4.1,,4.58,,,,,,,,,,,,,,,,,MN,PDG,,D,5,,,,ME,42.4297,19.2608,40,,geology,,S4_2007-2009_DiCapua_et_al_2011,,,,,1.21,372.7,140.491268,352.1146959,,,,,0.1,0.1,0.1,30,30,30,-0.151668,0.133764,-0.135628,0.143507,0.180224,0.111679,0.011523,-0.00789,0.014088,0.00925651,0.0130771,0.00614041,0.001647,0.00081,-0.002312,0.00123955,0.00177976,0.00614041,26.85,29.09,32.94,27.645,32.145,25.48,0.0367693,0.0290324,0.0414479,0.0329345,0.0410197,0.0235321,0.75539453,0.75895817,0.7324319,0.75717635,0.829460845,0.671542265,3.52E-05,3.37E-05,3.08E-05,3.44E-05,4.42E-05,2.47E-05,0.151944,0.154412,0.165144,0.154339,0.239536,0.222584,0.241786,0.319391,0.46352,0.35895,0.467571,0.442432,0.402065,0.408345,0.288693,0.246468,0.215501,0.180822,0.146869,0.120355,0.071491,0.059718,0.04687,0.04134,0.026361,0.017872,0.013293,0.009464,0.006967,0.005343,0.004324,0.002883,0.002142,0.001636,0.001322,0.00122,0.134288,0.13733,0.140593,0.154966,0.245176,0.189512,0.237009,0.297892,0.439367,0.406389,0.390464,0.525078,0.513755,0.338033,0.222895,0.146469,0.123442,0.127821,0.125997,0.107371,0.073025,0.044581,0.02495,0.022586,0.018799,0.007803,0.007266,0.004498,0.003211,0.002935,0.001911,0.001609,0.001085,0.000856,0.000829,0.00069,0.135629,0.137068,0.138279,0.144625,0.1619,0.213024,0.200913,0.320072,0.233254,0.28156,0.343459,0.461175,0.305512,0.39639,0.325784,0.260824,0.232397,0.211271,0.176421,0.157936,0.11476,0.086828,0.06539,0.044309,0.031081,0.014965,0.010718,0.00806,0.006059,0.005226,0.004039,0.002927,0.002535,0.001942,0.00143,0.001239,0.143566,0.1459905,0.1552625,0.1546525,0.2265885,0.196075,0.2377945,0.3099275,0.437606,0.360949,0.4293485,0.474228,0.41667,0.3478845,0.252315,0.193422,0.168197,0.1572655,0.137207,0.113945,0.072258,0.0488815,0.038108,0.036366,0.0243515,0.01353,0.009758,0.00741,0.0050205,0.003837,0.003119,0.002119,0.0015835,0.001226,0.0010325,0.000922,0.180826,0.184197,0.1902,0.212195,0.245535,0.23051,0.286251,0.357789,0.47566,0.410162,0.538926,0.559118,0.522648,0.449955,0.330404,0.2726,0.233716,0.21029,0.187692,0.155016,0.096537,0.065523,0.047803,0.043615,0.027179,0.018817,0.013625,0.009688,0.007051,0.005395,0.004394,0.002989,0.002235,0.00173,0.001388,0.001302,0.11176,0.113896,0.119621,0.128578,0.180125,0.178178,0.209774,0.222459,0.313289,0.325045,0.243735,0.261436,0.350635,0.203585,0.174767,0.135781,0.09135,0.085987,0.077163,0.045563,0.05441,0.030608,0.021968,0.019545,0.017122,0.007803,0.00617,0.004038,0.003211,0.002763,0.001909,0.001285,0.000895,0.000697,0.000633,0.000543
EMSC-20090310_0000100,2009-03-10T08:32:00,,,,,AL,41.271,20.387,10,,SS,3.9,,4.21,,,,,,,,,,,,,,,,,MN,PDG,,D,5,,,,ME,42.4297,19.2608,40,,geology,,S4_2007-2009_DiCapua_et_al_2011,,,,,1.21,372.7,159.0871892,324.3683295,,,,,0.1,0.1,0.1,30,30,30,0.075258,0.049182,-0.053414,0.0638345,0.077904,0.049182,-0.003779,-0.002437,0.002412,0.003157685,0.00379846,0.00221475,-0.000903,-0.000542,0.00037,0.000773645,0.00109465,0.00221475,38.57,42.42,39.2,40.07,43.97,36.47,0.0114402,0.00791616,0.00857695,0.00978136,0.0117027,0.00778973,0.396742975,0.36272315,0.37255248,0.37725684,0.403301295,0.356156865,6.79E-06,5.24E-06,5.94E-06,6.02E-06,6.81E-06,5.22E-06,0.075353,0.076851,0.082071,0.092184,0.118212,0.18808,0.178207,0.127296,0.208858,0.177607,0.137484,0.104979,0.077351,0.058787,0.050108,0.047449,0.044095,0.038897,0.036633,0.028197,0.024525,0.013165,0.011609,0.012024,0.015566,0.014827,0.012418,0.008128,0.005909,0.004403,0.002832,0.001992,0.001574,0.001087,0.000946,0.000556,0.049314,0.050919,0.056541,0.080517,0.131007,0.141638,0.159142,0.138421,0.101884,0.113392,0.073765,0.106164,0.073253,0.067473,0.049521,0.037898,0.043041,0.033534,0.022383,0.018791,0.013109,0.008843,0.010996,0.00883,0.008677,0.008278,0.006575,0.004333,0.003816,0.002781,0.002264,0.001231,0.000731,0.000459,0.000515,0.000346,0.053818,0.055221,0.05793,0.067326,0.124806,0.168029,0.181413,0.142388,0.1494,0.190557,0.071282,0.070982,0.052029,0.047723,0.063966,0.055124,0.033359,0.028416,0.030568,0.029384,0.01806,0.009648,0.007956,0.009844,0.008698,0.005485,0.006342,0.004658,0.002509,0.001759,0.001074,0.000827,0.000456,0.000363,0.000275,0.000256,0.064115,0.0675145,0.071175,0.083868,0.1278495,0.1751985,0.1679995,0.131405,0.1609585,0.163607,0.1179835,0.1103545,0.0721565,0.0621425,0.0518025,0.0420315,0.042998,0.034881,0.0302105,0.024993,0.018042,0.012088,0.011165,0.009986,0.011717,0.012093,0.0097235,0.0065315,0.004971,0.0037705,0.00256,0.00158,0.001221,0.000838,0.000759,0.000459,0.077963,0.079589,0.088984,0.094153,0.145928,0.216454,0.186175,0.163361,0.212427,0.185892,0.140665,0.134782,0.078507,0.067596,0.062216,0.047512,0.046777,0.039822,0.03676,0.028839,0.024827,0.01542,0.012812,0.01299,0.015608,0.015749,0.013356,0.009042,0.007028,0.004875,0.003565,0.002195,0.001719,0.001178,0.001067,0.000643,0.049314,0.05092,0.056541,0.06976,0.109778,0.140168,0.131992,0.113253,0.101324,0.108906,0.072033,0.086799,0.054977,0.055164,0.047486,0.033685,0.035613,0.032013,0.018826,0.016942,0.012217,0.008804,0.008516,0.007592,0.007612,0.004944,0.002361,0.001802,0.001603,0.001266,0.00086,0.000499,0.000314,0.00028,0.000249,0.000233
EMSC-20090318_0000073,2009-03-18T16:20:00,,,,,AL,41.1752,19.5638,21.4306,,SS,,,4.35,,,,,,,,,,,,,,,,,MN,PDG,,D,5,,,,ME,42.4297,19.2608,40,,geology,,S4_2007-2009_DiCapua_et_al_2011,,,,,1.21,372.7,141.5934547,349.8567025,,,,,0.15,0.15,0.15,30,30,30,0.069823,0.062115,0.069959,0.0656685,0.071264,0.055774,0.003844,-0.002898,-0.004296,0.0036288,0.00404115,0.00283593,0.000466,-0.000402,-0.000804,0.000448547,0.000542748,0.00283593,33.78,38.99,40.21,35.9775,39.025,32.895,0.0147524,0.0128687,0.0164904,0.0140599,0.0148716,0.0125642,0.503634185,0.49365062,0.46973916,0.498523493,0.50489243,0.490275385,1.06E-05,9.29E-06,8.51E-06,9.96E-06,1.07E-05,9.28E-06,0.069879,0.071146,0.079317,0.090515,0.125635,0.185162,0.200236,0.306207,0.190016,0.162905,0.145374,0.179449,0.167131,0.15355,0.103584,0.091032,0.103017,0.096534,0.058265,0.047565,0.028645,0.019807,0.018627,0.020896,0.010628,0.004615,0.003518,0.003221,0.001934,0.001405,0.001019,0.000874,0.000524,0.000467,0.000375,0.000319,0.062212,0.063722,0.072138,0.0875,0.102263,0.139042,0.1805,0.191115,0.143195,0.136166,0.140302,0.132778,0.142807,0.136639,0.079519,0.061372,0.068825,0.058408,0.063663,0.042205,0.030898,0.024326,0.013473,0.013421,0.011563,0.00479,0.004419,0.002893,0.00184,0.001728,0.001249,0.00084,0.000479,0.000468,0.00036,0.000276,0.070141,0.071712,0.073376,0.078652,0.111072,0.138974,0.145294,0.212357,0.134319,0.118707,0.126127,0.12556,0.103798,0.152244,0.077385,0.068717,0.061937,0.058408,0.065496,0.063995,0.049699,0.038984,0.029151,0.020212,0.01523,0.007772,0.004634,0.002856,0.002258,0.001997,0.001535,0.000999,0.000979,0.000707,0.00054,0.000455,0.0661115,0.0682015,0.0722165,0.0870475,0.1080435,0.161554,0.191726,0.237442,0.159239,0.1557005,0.141797,0.159946,0.1477615,0.136173,0.0805305,0.079584,0.085615,0.079687,0.060128,0.0433455,0.0304145,0.019784,0.0181405,0.017083,0.012379,0.0047775,0.004024,0.003075,0.0018875,0.001501,0.001111,0.000822,0.0005645,0.0004445,0.0003565,0.0002935,0.071429,0.072714,0.080791,0.094547,0.127178,0.204626,0.212464,0.312447,0.190016,0.194082,0.156486,0.184267,0.169491,0.16168,0.103584,0.091281,0.104045,0.097653,0.064216,0.055893,0.033434,0.025014,0.019485,0.02372,0.013979,0.005949,0.005499,0.004129,0.002606,0.002066,0.001267,0.000876,0.000615,0.000482,0.000377,0.000356,0.055785,0.056462,0.061766,0.075972,0.094753,0.126915,0.166585,0.169302,0.131762,0.111497,0.115337,0.113687,0.123724,0.106498,0.068803,0.061372,0.06716,0.055611,0.046534,0.032345,0.028424,0.017765,0.011967,0.012689,0.010552,0.004526,0.003067,0.002211,0.001567,0.001312,0.000802,0.000684,0.000474,0.000383,0.000316,0.000263
