esm_event_id,event_time,isc_event_id,usgs_event_id,ingv_event_id,emsc_event_id,ev_nation_code,ev_latitude,ev_longitude,ev_depth_km,ev_hyp_ref,fm_type_code,ml,ml_ref,mw,mw_ref,ms,ms_ref,emec_mw,emec_mw_type,emec_mw_ref,event_source_id,es_strike,es_dip,es_rake,es_strike_dip_rake_ref,z_top,es_z_top_ref,es_length,es_width,es_geometry_ref,network_code,station_code,location_code,instrument_code,sensor_depth_m,proximity,hounsing,installation,st_nation_code,st_latitude,st_longitude,st_elevation,ec8_code,ec8_code_method,ec8_code_from_topography,ec8_code_ref,vs30_m_s,vs30_ref,vs30_calc_method,vs30_meas_type,slope_deg,vs30_m_s_wa,epi_dist,epi_az,jb_dist,rup_dist,rx_dist,ry0_dist,u_hp,v_hp,w_hp,u_lp,v_lp,w_lp,u_pga,v_pga,w_pga,rotd50_pga,rotd100_pga,rotd00_pga,u_pgv,v_pgv,w_pgv,rotd50_pgv,rotd100_pgv,rotd00_pgv,u_pgd,v_pgd,w_pgd,rotd50_pgd,rotd100_pgd,rotd00_pgd,u_t90,v_t90,w_t90,rotd50_t90,rotd100_t90,rot_d00_t90,u_housner,v_housner,w_housner,rotd50_housner,rotd100_housner,rotd00_housner,u_cav,v_cav,w_cav,rotd50_cav,rotd100_cav,rotd00_cav,u_ia,v_ia,w_ia,rotd50_ia,rotd100_ia,rotd00_ia,u_t0_010,u_t0_025,u_t0_040,u_t0_050,u_t0_070,u_t0_100,u_t0_150,u_t0_200,u_t0_250,u_t0_300,u_t0_350,u_t0_400,u_t0_450,u_t0_500,u_t0_600,u_t0_700,u_t0_750,u_t0_800,u_t0_900,u_t1_000,u_t1_200,u_t1_400,u_t1_600,u_t1_800,u_t2_000,u_t2_500,u_t3_000,u_t3_500,u_t4_000,u_t4_500,u_t5_000,u_t6_000,u_t7_000,u_t8_000,u_t9_000,u_t10_000,v_t0_010,v_t0_025,v_t0_040,v_t0_050,v_t0_070,v_t0_100,v_t0_150,v_t0_200,v_t0_250,v_t0_300,v_t0_350,v_t0_400,v_t0_450,v_t0_500,v_t0_600,v_t0_700,v_t0_750,v_t0_800,v_t0_900,v_t1_000,v_t1_200,v_t1_400,v_t1_600,v_t1_800,v_t2_000,v_t2_500,v_t3_000,v_t3_500,v_t4_000,v_t4_500,v_t5_000,v_t6_000,v_t7_000,v_t8_000,v_t9_000,v_t10_000,w_t0_010,w_t0_025,w_t0_040,w_t0_050,w_t0_070,w_t0_100,w_t0_150,w_t0_200,w_t0_250,w_t0_300,w_t0_350,w_t0_400,w_t0_450,w_t0_500,w_t0_600,w_t0_700,w_t0_750,w_t0_800,w_t0_900,w_t1_000,w_t1_200,w_t1_400,w_t1_600,w_t1_800,w_t2_000,w_t2_500,w_t3_000,w_t3_500,w_t4_000,w_t4_500,w_t5_000,w_t6_000,w_t7_000,w_t8_000,w_t9_000,w_t10_000,rotd50_t0_010,rotd50_t0_025,rotd50_t0_040,rotd50_t0_050,rotd50_t0_070,rotd50_t0_100,rotd50_t0_150,rotd50_t0_200,rotd50_t0_250,rotd50_t0_300,rotd50_t0_350,rotd50_t0_400,rotd50_t0_450,rotd50_t0_500,rotd50_t0_600,rotd50_t0_700,rotd50_t0_750,rotd50_t0_800,rotd50_t0_900,rotd50_t1_000,rotd50_t1_200,rotd50_t1_400,rotd50_t1_600,rotd50_t1_800,rotd50_t2_000,rotd50_t2_500,rotd50_t3_000,rotd50_t3_500,rotd50_t4_000,rotd50_t4_500,rotd50_t5_000,rotd50_t6_000,rotd50_t7_000,rotd50_t8_000,rotd50_t9_000,rotd50_t10_000,rotd100_t0_010,rotd100_t0_025,rotd100_t0_040,rotd100_t0_050,rotd100_t0_070,rotd100_t0_100,rotd100_t0_150,rotd100_t0_200,rotd100_t0_250,rotd100_t0_300,rotd100_t0_350,rotd100_t0_400,rotd100_t0_450,rotd100_t0_500,rotd100_t0_600,rotd100_t0_700,rotd100_t0_750,rotd100_t0_800,rotd100_t0_900,rotd100_t1_000,rotd100_t1_200,rotd100_t1_400,rotd100_t1_600,rotd100_t1_800,rotd100_t2_000,rotd100_t2_500,rotd100_t3_000,rotd100_t3_500,rotd100_t4_000,rotd100_t4_500,rotd100_t5_000,rotd100_t6_000,rotd100_t7_000,rotd100_t8_000,rotd100_t9_000,rotd100_t10_000,rotd00_t0_010,rotd00_t0_025,rotd00_t0_040,rotd00_t0_050,rotd00_t0_070,rotd00_t0_100,rotd00_t0_150,rotd00_t0_200,rotd00_t0_250,rotd00_t0_300,rotd00_t0_350,rotd00_t0_400,rotd00_t0_450,rotd00_t0_500,rotd00_t0_600,rotd00_t0_700,rotd00_t0_750,rotd00_t0_800,rotd00_t0_900,rotd00_t1_000,rotd00_t1_200,rotd00_t1_400,rotd00_t1_600,rotd00_t1_800,rotd00_t2_000,rotd00_t2_500,rotd00_t3_000,rotd00_t3_500,rotd00_t4_000,rotd00_t4_500,rotd00_t5_000,rotd00_t6_000,rotd00_t7_000,rotd00_t8_000,rotd00_t9_000,rotd00_t10_000
EMSC-20110124_0000005,2011-01-24T01:26:00,,,,,ME,43.136,18.859,10,,SS,4.4,,4.5,,4.5,,4.5,,,,,,,,,,,,,MN,BLY,,D,1,,,,BA,44.7488,17.1839,256,,topography,,,,,,,10.42,823.2,224.038513,323.6915049,,,,,0.1,0.1,0.1,30,30,30,0.035339,0.029049,0.024172,0.036469,0.041419,0.028194,-0.003123,-0.003002,-0.001656,0.00313744,0.00339194,0.00271291,-0.000553,-0.00075,0.000451,0.000638636,0.000882131,0.00271291,57.33,61.175,57.905,58.495,61.58,57.18,0.0131805,0.0123667,0.00733994,0.01263165,0.0132055,0.0115864,0.40246767,0.33269928,0.27115083,0.368656605,0.403159495,0.32914594,5.73E-06,3.96E-06,2.66E-06,4.85E-06,5.78E-06,3.92E-06,0.03534,0.03579,0.035223,0.036475,0.036136,0.039376,0.048709,0.05637,0.090442,0.083295,0.142267,0.101193,0.073788,0.088516,0.116238,0.085407,0.055976,0.057765,0.065212,0.036601,0.031482,0.027865,0.020717,0.016676,0.01599,0.006866,0.005865,0.003888,0.002708,0.002184,0.001793,0.001711,0.001415,0.000859,0.000598,0.000422,0.029103,0.029331,0.032207,0.029575,0.029748,0.034052,0.037818,0.061719,0.073933,0.08833,0.099913,0.084553,0.079548,0.116709,0.080959,0.077069,0.0664,0.069732,0.067773,0.041679,0.034286,0.018414,0.01527,0.015031,0.011102,0.011401,0.008804,0.005935,0.003751,0.003009,0.002121,0.002247,0.00175,0.001209,0.000782,0.000484,0.024213,0.024707,0.025405,0.02534,0.025474,0.027986,0.042281,0.110141,0.066726,0.058496,0.064129,0.05884,0.067331,0.067275,0.05419,0.051063,0.046712,0.041371,0.023151,0.024447,0.014376,0.01334,0.009984,0.008694,0.006441,0.00603,0.00363,0.002643,0.002051,0.001689,0.002245,0.001136,0.000826,0.000683,0.000436,0.000354,0.0365465,0.0370145,0.037173,0.037442,0.0381325,0.038925,0.0495975,0.0664185,0.0810425,0.0944295,0.117577,0.093965,0.0789825,0.0892915,0.085928,0.081792,0.0647695,0.061247,0.067347,0.0406075,0.0314615,0.021175,0.0158635,0.0155485,0.0129805,0.0081525,0.007422,0.004958,0.003138,0.002346,0.0021065,0.002,0.0015505,0.001002,0.0006915,0.000448,0.04148,0.042312,0.041839,0.042573,0.042074,0.045766,0.058211,0.079261,0.109386,0.105357,0.144883,0.107282,0.086105,0.11741,0.118548,0.088331,0.071892,0.069966,0.084775,0.044939,0.036884,0.028411,0.020971,0.019706,0.016586,0.011497,0.008877,0.006252,0.00414,0.003009,0.002423,0.00233,0.001991,0.001388,0.000958,0.000576,0.028259,0.028267,0.029992,0.028986,0.028923,0.032932,0.036775,0.055272,0.068761,0.078764,0.086807,0.084553,0.073788,0.083513,0.059593,0.068562,0.054995,0.05036,0.040633,0.030363,0.023434,0.014563,0.013846,0.011196,0.009472,0.006438,0.005581,0.002767,0.001984,0.001777,0.001687,0.00117,0.00082,0.000641,0.000413,0.000301
EMSC-20110214_0000020,2011-02-14T09:17:00,,,,,AL,40.47,19.52,10,,SS,3.9,,4.3,,,,,,,,,,,,,,,,,MN,PDG,,D,5,,,,ME,42.4297,19.2608,40,,geology,,S4_2007-2009_DiCapua_et_al_2011,,,,,1.21,372.7,218.7240937,354.4025754,,,,,0.2,0.2,0.2,30,30,30,-0.012826,0.014815,0.012888,0.013427,0.017023,0.011956,-0.000773,-0.000513,-0.000873,0.000668183,0.00081145,0.000511049,0.00014,-9.20E-05,-0.000109,0.000124812,0.000175728,0.000511049,81.36,78.805,76.61,80.1725,82.44,77.205,0.00324932,0.00246319,0.00296039,0.002863125,0.00324932,0.00242382,0.19102864,0.186035295,0.179836305,0.188514213,0.19960035,0.176228385,8.64E-07,8.24E-07,7.61E-07,8.44E-07,9.44E-07,7.44E-07,0.012886,0.014089,0.015499,0.019855,0.035802,0.046066,0.035618,0.029531,0.042216,0.02955,0.027768,0.025941,0.018818,0.020057,0.01507,0.019808,0.012008,0.009495,0.011236,0.008567,0.008579,0.007299,0.00558,0.004791,0.003128,0.002086,0.001475,0.001007,0.00079,0.000716,0.000526,0.000271,0.000151,0.000117,0.00011,8.30E-05,0.015012,0.015613,0.01949,0.023893,0.038939,0.044111,0.04373,0.03677,0.029698,0.025818,0.02235,0.025935,0.018464,0.016775,0.012645,0.012168,0.009882,0.007469,0.006356,0.006583,0.006986,0.006408,0.003972,0.003114,0.002325,0.001576,0.000979,0.000605,0.000447,0.000333,0.000234,0.00015,0.000137,0.000118,8.20E-05,5.80E-05,0.012998,0.01463,0.016501,0.017146,0.027204,0.036405,0.036361,0.037601,0.031757,0.021797,0.021842,0.015217,0.01637,0.019264,0.020261,0.011717,0.009623,0.010011,0.010892,0.009255,0.008415,0.0061,0.005125,0.003431,0.003339,0.002066,0.001,0.0006,0.00051,0.000369,0.000443,0.000209,0.000165,0.000114,9.50E-05,6.30E-05,0.0135375,0.0141715,0.017533,0.023329,0.0353075,0.0465345,0.036756,0.0361815,0.032493,0.02833,0.0238895,0.025938,0.018641,0.019586,0.0142735,0.0156355,0.0113075,0.009721,0.0083675,0.0072525,0.0077125,0.0063635,0.0051895,0.004151,0.0031185,0.001815,0.001264,0.000784,0.0006785,0.0005265,0.000395,0.00022,0.0001385,0.000114,8.50E-05,7.00E-05,0.017048,0.017614,0.022292,0.026785,0.038939,0.053149,0.043818,0.042678,0.042267,0.031054,0.02832,0.034984,0.024015,0.022036,0.017472,0.020122,0.014778,0.010699,0.011427,0.008575,0.00984,0.007641,0.005853,0.004848,0.003392,0.00214,0.001486,0.00101,0.00084,0.000731,0.00055,0.000278,0.000154,0.000125,0.000111,8.30E-05,0.012123,0.012639,0.015219,0.017265,0.030448,0.036828,0.031677,0.026722,0.029054,0.023981,0.021482,0.019063,0.013485,0.012911,0.01085,0.009201,0.009315,0.007146,0.006192,0.005628,0.005178,0.004715,0.003452,0.002381,0.002282,0.001501,0.000818,0.000578,0.000435,0.000324,0.000229,0.00014,0.000124,9.40E-05,7.00E-05,5.20E-05
EMSC-20110514_0000018,2011-05-14T08:45:00,,,,,MK,41.72,20.98,10,,SS,4.1,,4.1,,4.1,,4.1,,,,,,,,,,,,,MN,PDG,,D,5,,,,ME,42.4297,19.2608,40,,geology,,S4_2007-2009_DiCapua_et_al_2011,,,,,1.21,372.7,162.6447103,299.5642801,,,,,0.1,0.1,0.1,30,30,30,-0.112891,0.102739,0.077727,0.1085665,0.120791,0.085127,-0.007081,0.007592,0.004246,0.007430875,0.0086442,0.00616295,-0.000705,-0.000981,0.000644,0.000803475,0.000989306,0.00616295,27.6,27.825,33.525,27.7125,31.785,23.19,0.0206502,0.0229987,0.0171343,0.0224189,0.0246959,0.0206502,0.560261775,0.518503365,0.478483755,0.532777968,0.560401975,0.518361015,1.78E-05,1.48E-05,1.09E-05,1.63E-05,1.84E-05,1.42E-05,0.113217,0.11449,0.115466,0.118616,0.146835,0.147131,0.159847,0.306768,0.342541,0.413941,0.431555,0.257919,0.18956,0.168811,0.11907,0.154866,0.148159,0.101885,0.085045,0.06379,0.037371,0.036721,0.023661,0.016464,0.013972,0.010702,0.006684,0.005374,0.002973,0.002301,0.001741,0.001026,0.000817,0.000682,0.000573,0.000548,0.102746,0.103446,0.10464,0.107079,0.123831,0.167559,0.189199,0.24681,0.23491,0.369082,0.28414,0.212161,0.185173,0.207765,0.277133,0.146976,0.119433,0.093552,0.088887,0.063334,0.065017,0.036069,0.035742,0.023422,0.017245,0.00841,0.006726,0.004462,0.002583,0.002406,0.001888,0.00158,0.001338,0.001015,0.000894,0.000795,0.077788,0.07861,0.083356,0.081421,0.111852,0.122482,0.183372,0.200942,0.185952,0.221112,0.223629,0.222381,0.184614,0.161561,0.16085,0.104057,0.07518,0.074164,0.077966,0.055611,0.032232,0.023735,0.023151,0.017417,0.014591,0.008118,0.005667,0.003393,0.00276,0.002521,0.001702,0.001042,0.000848,0.000592,0.000539,0.000432,0.1088505,0.109796,0.110906,0.113835,0.1387975,0.1571365,0.1972345,0.2807415,0.3058475,0.405323,0.341995,0.2720215,0.1979735,0.1738725,0.2104345,0.1543365,0.1359025,0.1000655,0.0860645,0.06474,0.0532675,0.03999,0.031199,0.020284,0.016678,0.00963,0.006705,0.004521,0.0031685,0.002466,0.0019195,0.001334,0.0011925,0.000915,0.000798,0.000717,0.120792,0.122763,0.126771,0.129104,0.159749,0.171576,0.229688,0.321878,0.347434,0.4724,0.44534,0.304488,0.25172,0.224892,0.289583,0.189506,0.148673,0.110728,0.114505,0.084945,0.074787,0.043137,0.038216,0.024537,0.018012,0.010878,0.007826,0.005967,0.003525,0.002866,0.00203,0.001644,0.001343,0.001065,0.000905,0.000835,0.085127,0.085745,0.088295,0.086888,0.108469,0.138812,0.157117,0.176754,0.233872,0.199221,0.211524,0.198452,0.157141,0.145583,0.11907,0.11063,0.11353,0.085128,0.059223,0.053066,0.03532,0.03494,0.022811,0.013416,0.013406,0.00615,0.003576,0.003227,0.002582,0.002051,0.001566,0.000959,0.000718,0.000594,0.000509,0.000437
EMSC-20110609_0000036,2011-06-09T16:16:00,,,,,AL,40.559,20.215,10,,SS,4.3,,4.48,,,,,,,,,,,,,,,,,MN,PDG,,D,5,,,,ME,42.4297,19.2608,40,,geology,,S4_2007-2009_DiCapua_et_al_2011,,,,,1.21,372.7,222.5167134,339.3329324,,,,,0.1,0.1,0.1,30,30,30,0.032218,-0.033653,-0.025712,0.0335605,0.03751,0.03065,-0.002701,-0.001865,0.001462,0.002131365,0.0027275,0.00186517,-0.000456,0.000294,0.000259,0.00037787,0.000443762,0.00186517,60.155,57.21,59.985,59.27,60.51,56.44,0.0107369,0.00709117,0.00668706,0.009155805,0.0110029,0.00677015,0.38711228,0.357138565,0.343781625,0.37164939,0.39156542,0.35262832,3.85E-06,3.47E-06,3.09E-06,3.66E-06,3.87E-06,3.45E-06,0.032376,0.033449,0.035218,0.038313,0.042426,0.06063,0.120878,0.08156,0.096376,0.072241,0.072764,0.084083,0.069914,0.05435,0.048209,0.056002,0.048207,0.04873,0.048983,0.038983,0.030127,0.019625,0.017582,0.014166,0.010333,0.008367,0.00367,0.002613,0.002585,0.001985,0.000999,0.000617,0.00062,0.000426,0.000339,0.000297,0.033759,0.03569,0.03607,0.037746,0.045348,0.069449,0.090637,0.077454,0.107124,0.113921,0.083888,0.078182,0.070063,0.046003,0.048859,0.037884,0.032499,0.025952,0.032354,0.02263,0.018023,0.016816,0.008796,0.007442,0.005499,0.003069,0.002569,0.001814,0.001435,0.001211,0.000659,0.000504,0.000319,0.000296,0.000234,0.000219,0.025763,0.02652,0.027596,0.029383,0.050506,0.060921,0.068248,0.070345,0.094862,0.07897,0.068327,0.075012,0.058628,0.050989,0.037989,0.02862,0.024442,0.023985,0.026907,0.022725,0.01796,0.010993,0.010339,0.008117,0.007348,0.003205,0.002076,0.001466,0.000826,0.000875,0.00067,0.000607,0.000424,0.000393,0.000363,0.000221,0.03363,0.0354045,0.0358515,0.037983,0.047205,0.064347,0.0905685,0.080931,0.1027195,0.0945685,0.077254,0.080113,0.068697,0.0496515,0.048534,0.0449665,0.0380805,0.0388765,0.0414255,0.03792,0.0254505,0.018332,0.0138655,0.0104155,0.007914,0.0061825,0.003303,0.0022995,0.002031,0.0015705,0.0008945,0.0005955,0.000461,0.000385,0.0003185,0.0002585,0.037523,0.038748,0.041144,0.039054,0.055872,0.073184,0.121202,0.09272,0.142129,0.113921,0.084192,0.096896,0.076412,0.055287,0.057108,0.057985,0.048624,0.051063,0.052845,0.041636,0.032406,0.019964,0.018658,0.014275,0.010624,0.008416,0.003696,0.002631,0.002828,0.002194,0.001121,0.000676,0.000626,0.000443,0.000354,0.000306,0.03065,0.031365,0.033677,0.034232,0.042391,0.055757,0.078605,0.071052,0.070059,0.06902,0.066081,0.06523,0.052992,0.041481,0.041746,0.03782,0.030928,0.025952,0.028038,0.02263,0.01174,0.010334,0.006615,0.006434,0.005262,0.002992,0.002128,0.001268,0.001075,0.000879,0.000603,0.000428,0.000317,0.000296,0.000236,0.000218
EMSC-20110609_0000036,2011-06-09T16:16:00,,,,,AL,40.559,20.215,10,,SS,4.3,,4.48,,,,,,,,,,,,,,,,,HL,JAN,0,D,0,,,,GR,39.65616,20.84874,526,,topography,,,,,,,2.53,466.6,113.8817137,151.4713227,,,,,0.15,0.15,0.15,30,30,30,-0.097154,0.086541,0.059753,0.0911875,0.110081,0.065209,-0.0071,0.007299,-0.004379,0.00717014,0.00775445,0.00464159,0.000997,0.000884,-0.001049,0.00101272,0.00118397,0.00464159,34.225,43.355,40.795,37.6375,44.81,33.975,0.0296311,0.0226758,0.0194723,0.02638875,0.0298551,0.0207312,0.7970127,0.69874168,0.48504876,0.751333847,0.825414265,0.664112475,2.81E-05,1.72E-05,9.21E-06,2.26E-05,3.02E-05,1.51E-05,0.097161,0.097835,0.105985,0.102333,0.119524,0.146943,0.275711,0.260763,0.465425,0.343095,0.307582,0.259172,0.201246,0.156214,0.129308,0.082557,0.086945,0.096513,0.104527,0.098392,0.085538,0.070279,0.059018,0.040758,0.029539,0.013394,0.012749,0.006912,0.0053,0.003968,0.003049,0.001523,0.001097,0.000964,0.000729,0.000594,0.086809,0.089638,0.094883,0.091138,0.104663,0.126284,0.15681,0.145513,0.238958,0.212117,0.302095,0.18899,0.163032,0.196923,0.124262,0.091288,0.096043,0.090004,0.097792,0.078228,0.080027,0.048568,0.037005,0.024048,0.017028,0.011808,0.010383,0.005579,0.003975,0.003058,0.002251,0.001443,0.001193,0.000787,0.000642,0.00056,0.05991,0.060724,0.059576,0.070098,0.075573,0.085032,0.143422,0.145734,0.190911,0.183849,0.193839,0.115229,0.100331,0.111016,0.085537,0.067839,0.06006,0.075784,0.081217,0.06677,0.062206,0.050369,0.037903,0.023505,0.019927,0.01262,0.010485,0.005403,0.005222,0.004261,0.003975,0.001668,0.001159,0.000897,0.000697,0.000551,0.0913865,0.0930645,0.1041475,0.09854,0.111103,0.1441175,0.214607,0.2223685,0.3675445,0.284575,0.304838,0.224969,0.176839,0.1715395,0.1282555,0.087886,0.0864935,0.0911425,0.100555,0.090893,0.0827825,0.057724,0.0491225,0.033606,0.023626,0.013587,0.01232,0.006782,0.005076,0.004349,0.0029395,0.001521,0.0011305,0.000881,0.0006985,0.0005785,0.110424,0.111821,0.115895,0.115322,0.121067,0.149361,0.276458,0.273901,0.467276,0.380718,0.354932,0.308113,0.208674,0.208592,0.138066,0.111806,0.099584,0.099368,0.109061,0.104037,0.115333,0.070509,0.060346,0.041011,0.029821,0.017227,0.01587,0.008499,0.006341,0.005003,0.00311,0.001855,0.001533,0.001136,0.000968,0.000802,0.065544,0.067647,0.089867,0.081836,0.078488,0.10719,0.15681,0.138254,0.223602,0.181865,0.165455,0.136403,0.146415,0.13739,0.086302,0.061982,0.070371,0.083411,0.068507,0.04735,0.042382,0.047155,0.036851,0.023766,0.016896,0.009036,0.010383,0.004643,0.003977,0.002944,0.002215,0.001385,0.000928,0.000644,0.000531,0.000449
EMSC-20111004_0000023,2011-10-04T09:26:00,,,,,GR,39.17,21.6003,9.3801,,SS,,,4.48,,,,,,,,,,,,,,,,,HL,PLG,0,D,0,,,,GR,40.37328,23.44443,566,,topography,,,,,,,3.54,520.9,206.9048099,49.1961909,,,,,0.15,0.15,0.15,30,30,30,-0.030262,0.031165,0.028612,0.030899,0.03286,0.028831,-0.001669,0.002028,0.001907,0.0018635,0.00203169,0.00149094,-0.000443,0.000404,0.000323,0.000432937,0.000498464,0.00149094,50.79,49.115,50.455,49.9125,52.085,45.925,0.00917162,0.010153,0.00777519,0.00959581,0.0106849,0.00818336,0.36392892,0.34590179,0.31119033,0.354733488,0.372437655,0.330261995,4.18E-06,3.71E-06,3.13E-06,3.94E-06,4.32E-06,3.56E-06,0.030301,0.030814,0.03226,0.048027,0.048713,0.059033,0.117009,0.143204,0.131412,0.093771,0.055996,0.042337,0.042061,0.037787,0.03582,0.041211,0.045966,0.043967,0.035034,0.032141,0.034495,0.024285,0.016988,0.010917,0.0077,0.006054,0.004045,0.003639,0.002705,0.002047,0.00244,0.002128,0.001292,0.000601,0.00043,0.000297,0.031211,0.032773,0.034994,0.040591,0.037645,0.064404,0.101419,0.156674,0.103074,0.084882,0.048681,0.040202,0.041126,0.041221,0.044781,0.038936,0.038496,0.030553,0.040169,0.030903,0.048944,0.025504,0.01278,0.015298,0.00962,0.004982,0.00381,0.003113,0.00212,0.001717,0.001396,0.00087,0.000419,0.000497,0.000394,0.000252,0.028642,0.028854,0.033814,0.04109,0.065448,0.062204,0.070192,0.11209,0.079659,0.0667,0.06498,0.039656,0.044107,0.050698,0.052011,0.038599,0.035507,0.040144,0.033037,0.022963,0.024147,0.020442,0.012595,0.008462,0.006166,0.004655,0.002914,0.002777,0.002314,0.002183,0.001942,0.001448,0.000996,0.000594,0.000385,0.000312,0.030953,0.032426,0.0330705,0.041138,0.044314,0.0617055,0.105952,0.139964,0.114252,0.0888985,0.054644,0.041557,0.0399465,0.0377695,0.0413585,0.040723,0.0397775,0.0368385,0.0385755,0.030333,0.039604,0.024551,0.0152585,0.0120685,0.0091825,0.00564,0.0039365,0.003321,0.002388,0.0019585,0.001943,0.001627,0.0009535,0.000576,0.0004095,0.0003155,0.032865,0.034254,0.035593,0.051556,0.048756,0.066103,0.123256,0.157214,0.144224,0.119345,0.06246,0.051099,0.043285,0.043628,0.048138,0.048679,0.049349,0.050557,0.041927,0.03259,0.051536,0.028326,0.016987,0.015935,0.010089,0.006889,0.004849,0.004357,0.003031,0.002113,0.002637,0.002164,0.001292,0.000694,0.000512,0.000368,0.028992,0.029597,0.030993,0.035806,0.037155,0.054052,0.084356,0.109247,0.101593,0.071799,0.045721,0.033502,0.031046,0.028371,0.035808,0.029097,0.030881,0.028672,0.030506,0.023515,0.025093,0.016567,0.01278,0.007888,0.007417,0.003911,0.002843,0.002915,0.001895,0.001627,0.001262,0.000806,0.000419,0.000495,0.000315,0.000223
