EVENT_NAME: None
EVENT_ID: INT-20230206_0000222
EVENT_DATE_YYYYMMDD: 20230206
EVENT_TIME_HHMMSS: 102449
EVENT_LATITUDE_DEGREE: 38.1100
EVENT_LONGITUDE_DEGREE: 37.2400
EVENT_DEPTH_KM: 10.0
HYPOCENTER_REFERENCE: EMSC-CSEM
MAGNITUDE_W: 7.5
MAGNITUDE_W_REFERENCE: EMSC-CSEM
MAGNITUDE_L: 
MAGNITUDE_L_REFERENCE: 
FOCAL_MECHANISM: Strike-slip faulting
NETWORK: TK
STATION_CODE: 4612
STATION_NAME: Goksun Kahramanmaras
STATION_LATITUDE_DEGREE: 38.023950
STATION_LONGITUDE_DEGREE: 36.481870
STATION_ELEVATION_M: 1340
LOCATION: 
SENSOR_DEPTH_M: 0.0
VS30_M/S: 
SITE_CLASSIFICATION_EC8: C (inferred from topography)
MORPHOLOGIC_CLASSIFICATION: 
EPICENTRAL_DISTANCE_KM: 67.2
EARTHQUAKE_BACKAZIMUTH_DEGREE: 81.6
DATE_TIME_FIRST_SAMPLE_YYYYMMDD_HHMMSS: 20230206_102433.554
DATE_TIME_FIRST_SAMPLE_PRECISION: milliseconds
SAMPLING_INTERVAL_S: 0.005000
NDATA: 17000
DURATION_S: 85.000
STREAM: HNE
UNITS: cm/s^2
INSTRUMENT: HN
INSTRUMENT_ANALOG/DIGITAL: D
INSTRUMENTAL_FREQUENCY_HZ: 
INSTRUMENTAL_DAMPING: 
FULL_SCALE_G: 
N_BIT_DIGITAL_CONVERTER: 
PGA_CM/S^2: 520.013432
TIME_PGA_S: 37.700000
BASELINE_CORRECTION: BASELINE REMOVED
FILTER_TYPE: BUTTERWORTH
FILTER_ORDER: 2
LOW_CUT_FREQUENCY_HZ: 0.020
HIGH_CUT_FREQUENCY_HZ: 40.000
LATE/NORMAL_TRIGGERED: NT
DATABASE_VERSION: 0.5
HEADER_FORMAT: DYNA 1.2
DATA_TYPE: ACCELERATION
PROCESSING: manual (Paolucci et al., 2011)
DATA_TIMESTAMP_YYYYMMDD_HHMMSS: 20251106_221422.559
DATA_LICENSE: D (network default license)
DATA_CITATION: Luzi L., Lanzano G., Felicetta C., D Amico M. C., Russo E., Sgobba S., Pacor, F., & ORFEUS Working Group 5 (2020). Engineering Strong Motion Database (ESM) (Version 2.0). Istituto Nazionale di Geofisica e Vulcanologia (INGV). https://doi.org/10.13127/ESM.2
DATA_CREATOR: ESM working group
ORIGINAL_DATA_MEDIATOR_CITATION: afad
ORIGINAL_DATA_MEDIATOR: afad
ORIGINAL_DATA_CREATOR_CITATION: Disaster And Emergency Management Authority. (1973). Turkish National Strong Motion Network. Department of Earthquake, Disaster and Emergency Management Authority. https://doi.org/10.7914/SN/TK http://www.fdsn.org/networks/detail/TK/
ORIGINAL_DATA_CREATOR: network: TK (Turkish National Strong Motion Network (TNSMN)); owner: Disaster and Emergency Management Authority (AFAD)
USER1: 
USER2: 
USER3: 
USER4: 
USER5: 
[...]
63.804528
78.258830
91.443256
101.616165
107.364348
108.932571
108.010938
106.479485
104.576977
100.413492
92.807708
83.317262
73.427145
61.806217
46.595885
28.526580
10.499852
-4.478873
-15.226541
-22.910321
-28.837154
-32.476825
-32.575393
-29.061981
-23.578677
-18.889147
-17.193659
-18.795169
-22.518049
-26.631513
-29.493259
-30.141647
-28.893755
-27.129039
-25.237355
-21.369712
-13.875245
-3.918137
5.451254
11.789836
15.503352
20.325166
30.033701
45.112656
62.857077
78.873142
88.946889
91.227318
88.436980
87.699170
94.566031
107.990244
123.343068
137.232686
148.577435
157.653531
164.717204
169.553181
172.748041
176.369331
181.744179
187.219749
189.133284
184.182969
171.671257
154.326826
136.109874
120.039024
108.517209
103.780897
106.265029
113.143219
119.906664
122.923660
121.125770
116.528854
112.697919
112.602581
116.899711
123.356828
128.787700
131.394801
131.637189
131.861295
134.335336
139.360014
145.168264
149.039780
149.559034
148.135345
147.568199
149.732693
154.300714
159.142374
163.388965
169.650147
181.545891
200.059818
222.202103
242.220334
256.261009
265.939480
275.896585
289.565465
306.640457
322.634126
331.720520
330.111910
317.900622
299.568197
282.143806
272.046132
271.048542
274.183026
273.740625
264.749904
247.915136
229.783626
218.561790
219.505790
232.870086
253.128905
269.917527
271.425224
252.133811
218.279327
182.435396
154.546153
135.830112
118.167288
93.262842
61.043124
27.208629
-2.502696
-25.317602
-42.247029
-56.864313
-73.096186
-92.227393
-111.622263
-128.248517
-141.961633
-153.859671
-164.069061
-172.943312
-182.488530
-194.575892
-208.814828
-223.218600
-235.727357
-244.840984
-249.745217
-250.546570
-248.923286
-248.746002
-254.888647
-268.312235
-283.099153
-292.001708
-292.915041
-288.740865
-284.060130
-281.344241
-279.408915
-276.850748
-275.438117
-278.496358
-287.272145
-298.214262
-303.182272
-295.477234
-275.554087
-249.757064
-225.428319
-204.866112
-182.994524
-154.383159
-120.155252
-85.753889
-56.135435
-33.956808
-19.417865
-10.432175
-2.949027
7.507480
23.372084
42.534230
58.710547
68.226059
74.861025
84.017759
95.963983
107.574057
116.614052
123.054710
128.533009
135.185704
144.909915
159.307107
179.043711
201.859764
222.138148
235.505611
242.969235
248.727917
256.288599
266.912455
279.669156
292.551589
303.300200
309.447663
309.130164
303.766117
298.885671
298.561787
299.931286
294.916866
275.070756
236.680067
183.916491
126.778506
76.470229
39.574923
15.073425
-1.032481
-11.140139
-17.936746
-26.313999
-39.141942
-53.600690
-65.481259
-74.245615
-81.656411
-88.771419
-96.104348
-105.460992
-120.971866
-147.051789
-181.394897
-211.694354
-226.067459
-223.958336
-214.039429
-207.115205
-210.286246
-224.090343
-244.665289
-267.245352
-288.682914
-308.133824
-324.555788
-334.485531
-333.283328
-317.175869
-283.921123
-233.125639
-167.416096
-93.713808
-22.620543
34.800172
73.724406
98.884974
116.674510
127.476983
129.532420
125.536834
123.121907
130.929794
151.953093
180.554393
209.569020
236.344397
258.077347
268.449117
266.955713
266.022224
279.121160
306.653321
337.366008
357.591586
361.808633
356.622376
349.831712
340.442802
324.696633
305.487715
292.417078
295.579087
315.811763
339.992068
351.339750
341.643336
313.281806
275.524469
237.431761
202.423851
169.253394
135.486382
100.931646
68.709047
41.452041
18.057036
-3.800580
-24.032600
-40.119571
-49.483221
-52.921097
-55.386631
-60.346720
-65.560480
-68.104992
-69.912749
-75.104313
-85.185208
-98.071682
-109.529013
-116.007868
-116.954110
-114.701351
-112.806611
-112.999475
-113.403824
-111.050281
-104.873353
-95.797365
-85.758596
-77.058773
-71.786999
-70.787914
-73.007254
-76.454055
-79.457277
-81.164256
-81.834710
-83.142582
-87.715100
-96.782828
-108.359982
-118.828918
-125.529204
-128.184122
-128.835273
-129.549304
-130.409200
-130.225932
-128.147879
-124.618768
-121.339955
-119.786186
-120.056010
-121.647994
-124.308562
-127.388245
-129.414186
-129.665228
-129.532708
-131.084611
-134.905617
-139.294036
-140.763513
-136.163879
-124.423003
-106.134295
-82.903150
-57.749523
-34.855481
-16.835596
-2.967005
7.912199
14.655791
16.001664
13.429257
10.205009
8.834422
9.215285
8.654668
5.117082
-0.229072
-5.084942
-8.886994
-12.812756
-18.308195
-25.362367
-31.825008
-35.250129
-35.098068
-33.235637
-33.104922
-37.343977
-45.692848
-55.262449
-62.263445
-64.876397
-64.994828
-66.145232
-70.649093
-78.608764
-88.050973
-96.076954
-100.220837
-99.582721
-95.319363
-89.523711
-83.601162
-77.152546
-68.023139
-54.579078
-37.669475
-19.780645
-3.597961
8.506218
15.367477
19.252233
26.100551
39.759012
57.130776
71.858125
80.181470
82.919103
83.987614
85.553836
85.385829
81.769988
78.181746
79.887207
88.687547
101.930545
114.318854
121.632576
123.498492
122.450050
121.853417
124.280736
130.270253
137.469520
140.467780
132.840718
110.536078
75.710369
37.851311
7.578381
-10.137481
-16.786912
-17.997054
-19.429792
-23.428706
-28.894613
-33.088729
-34.930505
-36.654384
-40.464641
-45.182606
-47.855592
-46.961761
-43.966538
-42.799432
-46.439275
-54.120749
-62.729810
-69.483171
-73.486505
-75.899188
-78.191077
-80.629994
-82.835674
-84.702154
-86.197444
-86.854387
-85.908012
-82.840506
-78.024617
-72.914020
-69.105279
-67.382774
-67.779832
-69.941755
-73.185834
-76.378622
-78.003196
-76.764662
-73.025999
-69.503625
-69.272533
-73.471849
-81.055909
-89.625629
-96.761876
-100.933533
-101.193311
-96.739281
-87.207085
-73.105206
-55.743762
-36.946098
-18.761167
-3.193439
8.204800
14.937664
18.189107
20.639837
24.281192
28.388676
30.180222
26.862697
18.141890
7.358052
-1.108682
-4.956281
-4.673851
-2.734038
-1.545575
-1.769764
-2.540309
-2.520230
-1.112119
1.070323
3.356823
5.908604
8.640575
10.235145
9.359315
6.135022
1.842820
-1.998477
-4.185259
-4.054984
-1.453807
3.367224
9.870921
17.213653
24.086143
29.036709
31.833377
34.104906
37.377985
41.421852
45.808654
51.733536
61.135959
75.123720
93.613269
115.543509
139.152956
162.405054
183.854237
203.188298
220.392488
234.589476
243.843974
246.300473
242.977378
238.811124
238.210588
241.115361
245.690099
252.336364
263.514356
280.684818
300.047850
312.052189
310.288521
299.128908
288.710277
286.277534
292.072981
299.994330
304.176715
304.266182
302.761549
300.899370
298.709180
296.619653
295.784793
297.095156
299.423787
299.586803
296.466863
293.843384
296.034834
302.749856
309.689029
311.937811
307.686515
299.729942
291.845335
284.865197
276.736373
264.065494
243.525533
213.342825
175.393701
136.395045
105.408186
89.747437
90.954080
103.064872
116.778611
124.925963
125.313345
120.846619
115.738423
111.949395
109.396107
107.139465
103.537182
96.449675
85.011134
71.294546
59.474326
53.455392
53.714689
56.014509
55.418845
50.816331
45.106027
42.655044
44.984403
48.511419
48.529002
43.665357
35.494325
26.341863
17.791504
10.153339
3.047759
-3.888162
-10.790818
-17.663199
-24.568376
-31.476716
-37.575451
-41.363705
-42.841513
-44.850169
-50.277431
-58.956791
-68.206729
-74.934720
-77.608257
-77.068793
-75.045189
-72.544879
-69.900699
-67.252144
-64.480929
-61.170412
-57.283212
-53.650763
-51.176497
-49.859845
-48.812725
-46.874794
-43.598485
-39.899214
-37.504248
-37.932628
-41.550878
-47.233644
-53.406030
-59.218858
-64.743442
-70.670344
-77.811606
-86.786283
-98.151886
-112.496084
-129.987107
-149.763875
-169.725429
-187.000315
-199.651043
-208.152442
-214.804568
-221.946678
-229.597394
-234.550037
-233.511127
-226.546774
-217.079002
-209.920006
-208.101865
-210.652156
-213.843709
-213.859812
-209.488843
-203.297512
-199.153828
-199.280908
-203.637919
-210.648116
-218.670878
-226.800898
-233.869114
-237.749950
-236.971717
-232.303536
-225.851334
-219.564371
-214.878809
-212.861918
-214.159670
-218.655717
-225.022199
-230.811820
-233.910676
-233.862659
-231.488114
-227.952208
-224.181325
-220.641490
-217.559426
-215.308642
-214.719959
-216.869412
-221.855032
-228.088346
-233.744867
-238.243020
-241.674740
-243.800634
-244.136971
-242.465149
-239.043766
-234.517080
-229.509163
-224.234669
-218.531689
-212.341890
-206.628800
-203.540211
-204.350984
-207.468087
-209.130476
-205.564528
-195.691837
-182.379933
-169.739980
-160.026393
-153.352439
-148.682335
-145.048682
-142.381755
-141.338892
-142.435478
-144.609549
-144.825091
-140.672397
-132.927412
-124.819213
-119.839056
-119.474492
-122.126517
-124.831913
-125.515648
-123.842789
-120.880826
-117.450431
-112.954639
-106.387112
-97.620460
-87.245193
-75.898693
-64.006038
-51.955607
-40.613476
-31.436073
-25.448278
-22.398559
-21.397743
-21.686336
-22.324111
-21.848380
-19.056696
-13.954145
-7.693122
-1.821728
2.911974
7.052884
11.008732
13.802879
14.106965
11.685057
7.431686
2.732484
-1.254660
-4.023043
-5.538269
-5.972497
-5.643620
-4.873668
-3.632684
-1.732017
-0.317298
-2.598370
-11.397182
-26.471022
-44.781763
-62.342070
-76.589782
-87.376833
-94.648700
-96.573389
-91.695884
-81.399781
-68.946683
-57.586455
-49.886841
-47.352692
-49.428614
-53.055430
-54.569016
-51.885475
-44.925436
-35.080844
-24.144555
-13.505730
-4.203660
2.928931
7.588902
10.242802
11.629740
12.239250
12.461455
12.823457
13.768443
15.428360
17.861576
21.260383
25.646933
30.651247
36.020684
42.163926
49.932936
60.046921
72.502352
86.342636
100.322134
113.759756
126.859513
140.350753
154.211258
167.005237
177.300478
184.703147
188.452646
186.879061
180.823580
175.708605
176.404154
182.010162
188.081570
191.247639
191.481526
191.599343
193.362744
194.823198
193.365809
189.279636
184.836044
181.695375
179.326858
175.069700
166.711442
154.870030
142.509125
133.199880
129.277784
131.001491
137.816837
149.383489
164.415493
179.760007
192.201872
200.296251
203.623023
201.967898
196.638752
191.192927
188.442729
187.483448
185.085124
178.987612
170.645383
165.149654
165.623208
168.912533
169.556733
165.009191
155.637130
142.810119
128.074126
113.190553
100.297305
91.521993
87.648662
87.342438
88.622736
90.479159
92.659272
94.992166
97.458082
100.455300
104.514348
109.730417
115.284957
119.412795
120.428492
117.956257
113.446775
109.809756
109.630543
113.677823
121.350953
131.448787
141.988782
150.042364
152.898720
149.664342
142.101189
134.116458
128.826323
126.071283
123.522680
119.060708
112.529696
106.121124
102.303988
101.767196
103.602373
106.307746
108.562906
109.610017
109.185756
107.459743
105.164546
103.498524
103.323045
104.554407
106.708367
109.513625
112.578459
114.913771
115.239094
112.710424
107.664524
101.782878
96.902253
93.864278
92.684167
92.988547
93.916363
94.133372
92.736331
90.003483
86.787450
83.659565
80.810899
78.240434
75.814718
73.272781
70.354679
66.959945
63.162810
59.058714
54.410345
48.499258
40.689144
31.079421
20.602374
10.723527
2.719172
-2.968792
-6.739730
-9.421435
-11.551108
-13.117438
-14.512884
-17.182374
-22.392900
-29.851684
-38.003713
-45.089647
-50.213071
-53.813336
-56.896514
-60.286754
-64.859017
-71.655955
-80.877253
-91.213043
-101.226749
-110.872231
-121.193667
-133.400433
-148.319000
-166.205941
-186.913996
-210.166633
-235.798161
-263.701457
-293.193846
-322.635736
-350.236198
-375.001744
-396.847186
-416.383336
-434.620327
-452.382972
-469.041913
-481.559109
-485.344166
-476.057649
-451.915402
-415.220815
-371.304513
-326.423492
-285.504940
-250.696342
-222.143145
-199.651673
-184.112610
-177.299784
-178.512801
-182.408277
-182.759940
-176.977815
-166.263762
-153.561690
-140.971466
-128.562005
-116.387944
-106.345687
-100.666427
-99.613118
-100.988947
-101.075926
-97.020548
-88.798802
-78.735009
-69.856575
-63.869651
-60.155505
-57.416812
-55.495592
-55.068498
-56.482655
-58.866662
-60.051269
-58.027452
-52.502127
-45.128587
-38.820694
-36.075940
-37.464006
-41.576891
-45.965298
-49.058823
-51.528973
-55.287963
-61.724982
-70.501910
-79.403062
-86.089194
-89.857622
-91.596194
-92.868278
-94.705233
-96.864264
-98.354763
-98.247048
-96.050811
-91.827516
-86.122616
-79.832018
-73.899282
-68.884053
-64.526886
-59.761464
-53.802860
-47.103750
-40.890495
-36.266647
-33.713762
-33.008345
-33.627285
-35.091041
-36.836376
-38.086825
-38.184205
-36.974728
-34.782305
-32.165736
-29.603534
-27.324521
-25.471738
-24.197901
-23.357899
-22.308684
-20.378379
-17.361138
-13.395971
-8.703816
-3.604098
1.404586
5.788687
9.243528
11.917255
14.399805
17.212541
20.369748
23.615305
26.860548
30.373261
34.651191
39.929261
45.988092
52.934258
61.856752
74.214078
90.990302
112.651391
139.551381
172.455773
212.670737
261.000827
316.239802
374.076227
427.483760
470.217298
499.823861
516.379509
520.013432
510.031583
485.758333
449.235922
406.643116
365.159024
329.698256
303.420246
288.528298
284.243175
285.310141
285.239316
280.365360
270.714415
258.904070
247.675503
238.102018
230.214610
223.908495
218.531919
212.596061
205.117831
196.667375
188.040156
178.901816
168.687834
157.689335
146.284503
133.985240
120.096530
104.751523
89.079190
74.986993
64.541471
58.415135
53.147492
40.803234
15.723315
-18.825237
-52.216814
-72.363246
-73.473116
-60.519284
-44.050082
-32.811864
-30.196427
-33.935542
-39.597172
-44.022183
-45.810403
-44.837284
-42.053624
-39.133850
-37.200230
-35.977338
-35.107822
-35.833504
-40.755954
-51.520440
-64.675371
-71.160231
-65.485147
-52.995891
-42.994207
-39.653777
-41.938260
-47.038611
-52.492853
-56.761718
-58.743070
-57.653433
-54.024801
-50.167362
-48.255494
-48.400757
-49.211250
-49.210597
-47.746666
-45.221291
-42.373819
-39.487303
-36.249264
-32.096840
-27.015725
-22.015029
-18.421934
-16.994913
-17.708017
-19.797572
-21.858500
-22.175905
-19.695771
-14.877623
-9.406527
-5.245179
-3.302205
-2.732903
-2.083853
-0.602332
1.770121
4.832432
8.233383
11.414302
13.702053
14.577798
14.084648
13.001277
12.290172
12.449086
13.390338
14.688540
16.140350
18.108579
21.054782
24.868572
28.639227
31.027937
31.511583
31.195099
31.730528
33.914945
37.418628
41.147222
43.963907
45.296642
45.242399
44.403692
43.476808
42.863821
42.564414
42.263959
41.631964
40.526745
38.834725
36.325607
32.890408
28.817646
24.711244
21.219435
18.708305
17.096412
16.104014
15.536694
15.274340
15.163625
14.980756
14.431794
13.169776
10.879799
7.497371
3.320731
-1.262224
-6.048449
-10.937522
-15.799510
-20.561942
-25.283859
-29.993997
-34.618532
-39.318602
-44.696437
-51.271683
-58.933326
-67.090566
-75.031802
-82.080751
-87.649531
-91.338531
-93.093570
-93.337656
-92.910690
-92.576154
-92.586937
-92.833578
-93.167292
-93.554264
-94.056994
-94.638507
-95.047832
-95.038551
-94.625293
-94.090327
-93.869265
-94.387078
-95.904532
-98.428425
-101.712084
-105.421467
-109.267570
-112.946335
-116.129439
-118.728417
-121.069878
-123.563707
-126.325847
-129.216159
-132.030004
-134.628057
-136.987659
-139.147594
-141.089437
-142.582945
-143.168317
-142.494908
-140.626336
-137.909367
-134.727274
-131.398030
-128.140891
-125.030520
-121.955578
-118.650519
-114.769403
-110.017061
-104.318738
-97.989784
-91.762415
-86.445032
-82.570680
-80.348799
-79.680360
-80.091504
-80.798849
-81.200701
-81.293111
-81.448415
-82.034922
-83.271318
-85.199103
-87.678758
-90.420641
-93.129376
-95.631911
-97.847204
-99.717837
-101.185044
-102.148738
-102.337623
-101.202238
-97.993679
-91.935999
-82.539681
-70.068207
-56.050928
-43.207344
-33.917010
-28.885771
-27.709101
-29.846599
-34.646801
-40.849933
-46.246378
-48.261204
-46.182224
-42.420693
-39.902078
-39.303679
-39.766810
-40.602012
-41.741016
-43.403748
-45.499273
-47.309236
-47.900307
-46.673157
-43.567629
-39.036581
-33.814778
-28.699322
-24.404421
-21.283589
-18.854323
-15.827836
-11.444208
-6.413624
-1.720943
2.589936
6.632096
9.685919
10.836250
9.980832
7.891382
5.788540
4.772804
5.334394
7.155504
9.260592
10.778413
11.580013
12.027956
12.495798
13.199299
14.226481
15.663076
17.675005
20.442203
24.031018
28.278616
32.780228
37.159084
41.446649
46.307697
52.789206
61.195966
70.388619
78.913836
86.242978
92.488452
97.746697
102.078320
105.619703
108.292509
109.629206
109.331376
107.747666
105.446784
102.767441
100.196035
98.788512
99.698232
103.312585
108.591317
113.143210
114.857757
113.467772
110.326341
107.338797
105.701660
105.309008
105.702106
106.911220
108.754194
110.113894
109.791701
107.669515
104.809178
102.882797
103.132860
105.574533
109.185836
112.483808
114.177854
113.671423
111.151307
107.443354
103.593851
100.452512
98.451819
97.434326
96.572927
94.655051
91.122866
86.800316
83.043209
80.549295
78.983876
77.237893
74.328011
70.135704
65.187249
60.050607
54.794871
48.883481
41.925176
34.285398
26.611342
19.243559
12.400873
6.478219
1.781951
-1.822396
-4.792125
-7.585861
-10.392473
-13.044882
-15.279486
-16.984891
-18.144280
-18.745566
-18.898394
-18.930224
-19.181545
-19.746315
-20.413400
-20.731777
-20.210576
-18.590250
-16.120590
-13.608434
-11.870262
-11.166037
-11.184857
-11.275487
-10.767596
-9.294353
-7.047525
-4.831974
-3.601965
-3.876320
-5.420933
-7.291791
-8.507729
-8.708467
-8.180127
-7.602255
-7.693820
-8.887573
-11.145334
-13.971964
-16.820852
-19.481947
-22.064343
-24.853251
-28.226232
-32.558323
-38.005901
-44.342819
-51.078493
-57.636584
-63.405935
-67.724152
-69.858921
-69.038951
-64.616496
-56.291523
-44.354208
-29.846510
-14.439074
-0.130168
11.281247
18.727341
22.147236
22.487518
21.198581
19.660360
18.861843
19.213982
20.490055
21.897622
22.438384
21.283489
17.922742
12.229169
4.515689
-4.444528
-13.540102
-21.480469
-27.000249
-29.229395
-28.310630
-25.646634
-22.941952
-21.135721
-20.293039
-19.964042
-19.678980
-19.219826
-18.388864
-16.820706
-14.324518
-11.250938
-8.324124
-6.271959
-5.526834
-6.063602
-7.499072
-9.320894
-11.193589
-13.116407
-15.173021
-17.292805
-19.395346
-21.557450
-23.851011
-26.156625
-28.281152
-30.141390
-31.802551
-33.503166
-35.671181
-38.607654
-41.604284
-42.769037
-40.993823
-37.567399
-34.747271
-33.720879
-34.265245
-35.391649
-36.409530
-37.477045
-38.857473
-40.292746
-41.700641
-43.749881
-46.881240
-50.423346
-53.530921
