EVENT_NAME: None
EVENT_ID: INT-20230206_0000222
EVENT_DATE_YYYYMMDD: 20230206
EVENT_TIME_HHMMSS: 102449
EVENT_LATITUDE_DEGREE: 38.1100
EVENT_LONGITUDE_DEGREE: 37.2400
EVENT_DEPTH_KM: 10.0
HYPOCENTER_REFERENCE: EMSC-CSEM
MAGNITUDE_W: 7.5
MAGNITUDE_W_REFERENCE: EMSC-CSEM
MAGNITUDE_L: 
MAGNITUDE_L_REFERENCE: 
FOCAL_MECHANISM: Strike-slip faulting
NETWORK: TK
STATION_CODE: 4612
STATION_NAME: Goksun Kahramanmaras
STATION_LATITUDE_DEGREE: 38.023950
STATION_LONGITUDE_DEGREE: 36.481870
STATION_ELEVATION_M: 1340
LOCATION: 
SENSOR_DEPTH_M: 0.0
VS30_M/S: 
SITE_CLASSIFICATION_EC8: C (inferred from topography)
MORPHOLOGIC_CLASSIFICATION: 
EPICENTRAL_DISTANCE_KM: 67.2
EARTHQUAKE_BACKAZIMUTH_DEGREE: 81.6
DATE_TIME_FIRST_SAMPLE_YYYYMMDD_HHMMSS: 20230206_102433.554
DATE_TIME_FIRST_SAMPLE_PRECISION: milliseconds
SAMPLING_INTERVAL_S: 0.005000
NDATA: 17000
DURATION_S: 85.000
STREAM: HNZ
UNITS: cm/s^2
INSTRUMENT: HN
INSTRUMENT_ANALOG/DIGITAL: D
INSTRUMENTAL_FREQUENCY_HZ: 
INSTRUMENTAL_DAMPING: 
FULL_SCALE_G: 
N_BIT_DIGITAL_CONVERTER: 
PGA_CM/S^2: 440.787473
TIME_PGA_S: 31.430000
BASELINE_CORRECTION: BASELINE REMOVED
FILTER_TYPE: BUTTERWORTH
FILTER_ORDER: 2
LOW_CUT_FREQUENCY_HZ: 0.020
HIGH_CUT_FREQUENCY_HZ: 40.000
LATE/NORMAL_TRIGGERED: NT
DATABASE_VERSION: 0.5
HEADER_FORMAT: DYNA 1.2
DATA_TYPE: ACCELERATION
PROCESSING: manual (Paolucci et al., 2011)
DATA_TIMESTAMP_YYYYMMDD_HHMMSS: 20251106_221422.876
DATA_LICENSE: D (network default license)
DATA_CITATION: Luzi L., Lanzano G., Felicetta C., D Amico M. C., Russo E., Sgobba S., Pacor, F., & ORFEUS Working Group 5 (2020). Engineering Strong Motion Database (ESM) (Version 2.0). Istituto Nazionale di Geofisica e Vulcanologia (INGV). https://doi.org/10.13127/ESM.2
DATA_CREATOR: ESM working group
ORIGINAL_DATA_MEDIATOR_CITATION: afad
ORIGINAL_DATA_MEDIATOR: afad
ORIGINAL_DATA_CREATOR_CITATION: Disaster And Emergency Management Authority. (1973). Turkish National Strong Motion Network. Department of Earthquake, Disaster and Emergency Management Authority. https://doi.org/10.7914/SN/TK http://www.fdsn.org/networks/detail/TK/
ORIGINAL_DATA_CREATOR: network: TK (Turkish National Strong Motion Network (TNSMN)); owner: Disaster and Emergency Management Authority (AFAD)
USER1: 
USER2: 
USER3: 
USER4: 
USER5: 
[...]
-0.492228
-0.742196
-0.929465
-1.072934
-1.201600
-1.302810
-1.303051
-1.138207
-0.833058
-0.504574
-0.307146
-0.322015
-0.487482
-0.682589
-0.844807
-1.010464
-1.282493
-1.710289
-2.198388
-2.572325
-2.700874
-2.588785
-2.390971
-2.272406
-2.267472
-2.288103
-2.201266
-1.926483
-1.499385
-1.042607
-0.707042
-0.615987
-0.818216
-1.263386
-1.810416
-2.307923
-2.681211
-2.955386
-3.224748
-3.556165
-3.914668
-4.206992
-4.362802
-4.386468
-4.360510
-4.368257
-4.419778
-4.462391
-4.428559
-4.290633
-4.094597
-3.937965
-3.925558
-4.119435
-4.503242
-4.989197
-5.443842
-5.728406
-5.741463
-5.453505
-4.923666
-4.271096
-3.630417
-3.110699
-2.773496
-2.650343
-2.759240
-3.090560
-3.600200
-4.248957
-5.034868
-5.956558
-6.960107
-7.928065
-8.713508
-9.230469
-9.513091
-9.645536
-9.669742
-9.569629
-9.300143
-8.841297
-8.234486
-7.566798
-6.955579
-6.574398
-6.671186
-7.501547
-9.210716
-11.693927
-14.532287
-17.157853
-19.086216
-20.090157
-20.277569
-19.980098
-19.587937
-19.414016
-19.615870
-20.222114
-21.169584
-22.285898
-23.263327
-23.695006
-23.169913
-21.441384
-18.558555
-14.818972
-10.646885
-6.451599
-2.519676
1.014824
4.197496
7.291925
10.716499
14.709468
19.016986
22.959375
25.701567
26.666647
25.879359
23.977492
22.012105
21.006847
21.559315
23.779427
27.403637
32.025513
37.253424
42.602551
47.310791
50.290338
50.314982
46.638471
39.555533
30.324562
20.730500
12.348809
5.907823
1.195050
-2.713253
-6.885615
-12.016680
-18.274469
-25.250085
-31.909641
-36.715453
-38.216429
-35.585568
-28.578651
-17.393288
-2.837994
13.455259
29.146409
41.504035
47.930225
46.532037
36.578970
18.692305
-5.552177
-34.042334
-64.164973
-92.907955
-117.539223
-136.302729
-148.413914
-153.608251
-151.390802
-140.691846
-120.762000
-92.203303
-57.124612
-18.897103
18.341244
50.463581
74.670409
90.494861
99.260503
102.842368
102.267153
96.944557
85.712111
68.524254
47.679648
27.607004
11.715708
-0.425376
-11.906423
-25.411217
-39.877111
-49.120661
-45.641980
-25.600725
8.598801
48.418033
83.763914
108.068996
120.246881
123.988558
123.521083
119.765925
110.784657
94.180333
69.982377
42.178407
16.466380
-3.279068
-17.660843
-31.899945
-50.803545
-73.853329
-95.644648
-108.520887
-105.675997
-84.113570
-46.933732
-3.824108
33.114448
54.681998
57.864773
46.442818
26.979981
4.720427
-16.760072
-34.612711
-46.534565
-51.467852
-50.916652
-49.386961
-51.908288
-60.735558
-73.548712
-84.235200
-88.035267
-85.253773
-77.762282
-65.084305
-46.248107
-22.316177
5.493774
38.259101
77.866953
123.848649
171.030662
209.646004
230.296256
228.638708
204.967110
162.402517
106.336989
43.784803
-19.053974
-78.492818
-131.211230
-171.784627
-193.721982
-192.408826
-168.525096
-129.354572
-84.680753
-42.267104
-7.220644
17.498999
31.674899
38.605515
44.109534
54.115207
70.940989
90.938794
107.037060
112.637799
104.140924
81.951588
49.288444
10.668186
-28.838180
-64.113644
-90.928857
-107.181303
-113.778723
-114.083653
-110.525794
-102.337540
-88.621615
-71.768527
-56.098839
-44.542688
-36.172904
-26.301198
-11.424189
6.356578
21.194808
27.998423
26.643314
23.376316
25.694308
36.062187
49.789378
57.337599
52.598498
38.633948
22.002850
5.577961
-11.056584
-28.271201
-44.446864
-56.148939
-61.022846
-60.213596
-56.910256
-53.023382
-46.107589
-29.757580
-1.578389
30.146987
51.558455
53.453030
40.214584
30.291573
38.686677
61.426141
82.917401
90.953569
85.740269
79.279255
79.969374
80.500815
67.439516
36.306777
-3.267914
-32.072639
-37.491456
-25.874908
-14.566412
-17.455645
-35.659836
-56.465005
-65.962762
-61.139368
-48.152863
-35.370761
-27.466090
-22.678036
-15.812652
-2.860193
15.570426
33.384867
43.621004
44.342347
41.351385
45.889599
63.894560
87.794959
102.948377
97.874684
69.265779
22.967837
-29.287549
-74.194150
-101.143840
-105.736823
-90.868582
-65.789505
-41.527747
-25.547163
-18.504333
-14.147070
-5.261825
10.051723
27.560436
39.838165
42.654839
39.247707
36.318137
38.068936
43.730945
48.151019
46.142140
36.811415
23.975248
13.305629
6.024587
-4.409392
-25.116912
-55.372889
-86.198573
-104.779202
-102.150552
-78.675715
-41.546157
-0.077897
37.274463
64.603886
79.231393
81.825288
75.323555
63.548648
50.158232
38.057747
29.554352
26.482160
29.742258
38.905571
52.265546
66.237253
73.752216
65.256567
36.662127
-4.225603
-42.927429
-67.582552
-75.737716
-75.847859
-78.639308
-87.567254
-96.984375
-95.549829
-74.834152
-36.553796
8.499883
45.577404
63.451604
60.360914
43.562899
24.967893
13.081988
7.228911
1.058487
-11.053088
-29.752013
-49.956682
-65.597079
-73.503092
-71.333685
-56.046700
-28.948406
0.245534
19.327927
21.805758
9.790733
-7.284902
-18.724515
-18.657004
-7.906503
7.269585
20.297808
28.896998
34.607164
39.473647
41.597152
34.218317
13.646935
-13.745585
-36.019298
-44.039622
-36.882073
-22.262181
-8.894496
0.130592
4.992187
5.863311
5.329916
9.936327
23.619734
41.847254
56.360298
62.216287
59.248872
50.399818
38.912624
26.811746
16.281460
10.442850
10.580608
14.223608
18.630405
23.945883
30.287168
34.444019
32.133682
21.730024
5.397744
-11.544301
-22.898121
-24.276892
-15.426967
-1.156833
11.233844
15.322086
7.768434
-10.366359
-33.770190
-54.418698
-65.655876
-66.096565
-59.795337
-53.401828
-49.811853
-43.722122
-26.133183
7.255591
48.564068
77.344526
76.244584
46.323644
4.684606
-26.603464
-34.618088
-23.918605
-8.572658
-0.142760
-1.423198
-6.336633
-8.272144
-7.576822
-9.138680
-15.571798
-21.429667
-14.579924
8.634252
33.319436
41.316432
29.278754
7.349325
-10.549426
-16.059247
-11.222778
-4.062213
-1.061676
-1.236377
4.048424
19.929398
39.111006
49.317049
44.636422
28.738803
11.169796
-2.768720
-17.381965
-36.249760
-52.532774
-56.157059
-44.595105
-23.950995
-4.061665
9.345301
18.753126
28.260459
35.922725
34.646201
18.356300
-9.367370
-32.332424
-34.634767
-15.040377
12.195922
25.879571
14.386700
-13.909826
-42.012357
-59.801503
-67.907703
-73.685084
-81.477388
-86.952037
-84.772125
-77.004304
-70.252919
-68.974497
-72.049937
-73.421585
-68.073307
-56.879297
-43.946981
-31.793643
-19.255690
-2.739374
18.162028
36.888919
44.910044
38.991223
24.392654
13.212285
15.268675
29.773612
46.872644
54.740103
49.484348
39.587626
35.340163
37.950830
42.156180
42.830810
37.551057
26.833151
13.951178
4.610324
4.994974
18.392873
41.251702
62.966160
74.868310
77.774316
77.135398
75.905000
74.036205
70.097464
61.335750
44.788077
22.538713
4.427551
-0.302784
7.259096
15.683550
10.999143
-8.677350
-26.568396
-25.554972
-6.776765
16.034347
30.551358
34.143942
34.416053
38.791391
44.647079
41.187382
17.564074
-26.344737
-74.645286
-106.064624
-107.877810
-82.000736
-44.133643
-13.471492
-1.800388
-9.741957
-28.468630
-47.736769
-62.137126
-68.452285
-62.415853
-42.261353
-12.891793
16.169648
34.662599
34.256306
12.138480
-23.360071
-52.651457
-60.271169
-48.529805
-30.577834
-16.826675
-7.195822
8.408204
37.328572
73.213023
101.071403
108.060214
91.763066
62.795193
36.167411
19.919267
9.189030
-10.772383
-46.441034
-82.276886
-93.651994
-68.260197
-18.463291
21.873120
26.949942
4.181959
-17.956966
-15.683005
11.373723
39.009599
48.134744
48.260463
58.407978
81.132686
103.273923
108.385363
87.707364
45.045314
-8.572611
-61.752299
-105.053316
-130.965131
-133.683782
-110.728184
-67.420925
-18.700935
19.058103
38.170113
43.171601
47.745654
62.238588
82.757656
94.356106
81.916558
44.498465
1.579096
-23.379188
-21.830868
-2.296408
17.030539
21.594022
10.235816
-8.529931
-25.581417
-39.720327
-59.883748
-93.084741
-131.472445
-153.368003
-135.230502
-73.749451
2.291545
55.297567
68.240625
52.082708
36.209968
42.033553
64.770311
87.941487
101.685590
100.722591
79.197502
38.982022
-2.686694
-24.597141
-18.438242
4.283745
18.382785
9.507956
-10.146582
-23.079558
-29.916771
-41.601861
-62.494845
-85.718483
-97.929608
-91.027070
-69.762710
-44.591819
-21.995555
-2.945276
14.322917
30.576924
44.626775
57.461468
73.445619
91.208156
97.626572
80.050604
40.814738
-3.415546
-32.175702
-38.047236
-35.066491
-41.750139
-61.763634
-84.484330
-95.739688
-90.702920
-77.933502
-64.078461
-42.692904
-9.188040
24.733848
43.732810
44.697650
32.498561
11.711382
-10.368565
-19.698144
-3.558136
37.492516
84.958554
109.164073
93.735485
52.036586
7.923579
-27.198748
-51.872275
-64.957493
-65.914681
-59.007187
-53.070918
-57.257076
-73.473454
-91.579539
-95.595891
-74.843910
-34.049049
6.340333
30.411586
42.117703
50.185517
50.561166
34.133629
2.538056
-26.933645
-29.918809
0.321536
40.078769
63.272380
67.830146
60.158656
35.626764
-8.580681
-56.547919
-84.058075
-78.035057
-44.939419
-5.996627
23.744142
47.868849
69.169232
72.408088
43.010667
-9.801935
-58.678752
-76.538459
-53.570896
-4.207672
46.785252
81.105865
92.118417
83.649138
64.727378
44.509357
29.381889
21.146283
16.775236
9.984127
-3.263002
-18.770715
-23.233480
-0.668838
49.975765
103.823717
128.023685
107.544765
57.606965
17.695295
16.563504
44.133350
68.370620
65.285879
34.768819
0.404468
-13.195608
-2.905934
12.395811
5.289029
-35.694152
-90.949427
-127.492331
-123.580850
-78.281914
-10.198454
54.763019
96.308006
105.921535
87.607986
51.221588
5.690271
-41.957987
-85.129018
-116.605404
-129.832515
-123.570018
-103.458465
-74.856046
-39.714575
-8.203667
-2.793188
-32.225220
-71.975308
-90.836181
-82.289786
-59.648623
-38.334872
-25.953792
-20.486503
-16.050296
-7.528781
10.630611
43.047554
82.859594
107.900675
102.195423
76.121102
55.385985
58.020286
77.745213
84.534854
56.846991
8.669420
-27.153835
-28.916177
-1.738640
25.362630
28.984057
14.811141
3.316973
7.701465
29.310298
59.775296
82.347304
78.333888
46.126745
9.505136
-10.934697
-21.991185
-37.115604
-52.836234
-61.787850
-68.242887
-73.340761
-62.384816
-28.469182
5.182303
6.320980
-34.815483
-97.799313
-143.647815
-145.696597
-112.125948
-71.462729
-48.625779
-53.278973
-77.420476
-102.454833
-109.546709
-90.479531
-52.153001
-6.384023
37.479725
64.118676
51.745921
1.519388
-46.077740
-54.599069
-32.175512
-5.947932
13.988095
28.844200
34.599702
25.759859
4.849453
-19.280528
-36.157237
-33.993594
-3.010407
50.930748
100.425143
120.139969
110.462181
90.111829
77.403914
77.916960
84.578319
95.721907
125.101067
179.077689
236.092627
264.594917
248.061688
187.894565
98.406263
5.317233
-57.442605
-63.502890
-12.205824
65.972218
120.346869
117.165221
69.049178
17.696054
0.021061
22.120301
52.321318
51.505316
7.361695
-58.782123
-105.561478
-105.815152
-70.791836
-31.663728
-10.975303
-11.803427
-20.890161
-25.110526
-24.332274
-25.974927
-36.013761
-57.401227
-88.838606
-118.359938
-123.404904
-92.059659
-41.124232
-2.656359
0.327935
-30.054697
-66.003616
-80.284734
-69.206861
-43.351292
-10.096738
30.635381
81.130458
135.445684
176.200264
190.405684
182.768411
165.547371
146.393069
133.264021
139.594622
171.660469
214.817837
239.724224
219.973932
153.976017
74.214796
21.554447
14.428804
41.550047
72.076680
82.184649
72.216774
50.014532
13.955436
-34.405623
-76.020651
-88.323940
-65.986249
-24.748306
8.037882
15.020293
3.189397
-9.431442
-11.805191
-3.209681
9.674401
16.351308
8.088089
-12.361755
-28.319926
-27.950577
-19.857865
-20.564010
-38.094628
-72.769879
-119.862973
-161.657167
-167.110490
-120.560519
-44.581806
23.301241
65.069942
92.582158
134.946166
200.460643
253.453547
249.700663
180.355657
75.996473
-13.043414
-51.108761
-41.375623
-12.446748
8.594670
17.030727
30.912537
55.347640
60.481523
22.190079
-38.837822
-84.213239
-96.869963
-80.475310
-45.848910
-8.041662
15.972937
21.805473
26.307507
47.970267
86.746866
130.895590
170.335668
197.477415
202.312829
171.782625
98.413612
0.068634
-75.394025
-90.986986
-57.957352
-17.066815
-1.944959
-19.039859
-49.394189
-78.843903
-116.942658
-167.264846
-197.867801
-164.191119
-50.889768
103.448852
215.508352
225.286976
151.208677
56.846588
-5.452434
-18.667711
-0.477118
20.502508
28.426111
26.094397
28.346234
43.275959
60.569176
66.211364
59.057435
46.596500
35.012249
27.190347
24.033734
23.513283
18.421713
-3.063362
-51.122030
-119.104357
-174.679005
-178.558631
-113.030095
-1.468523
95.359388
127.275227
93.658955
19.834357
-77.062597
-185.436932
-282.790193
-331.782195
-293.690859
-163.070530
11.996730
165.957666
262.138036
305.119619
327.424762
352.365332
370.108950
363.589844
339.596244
321.977834
327.615025
344.826184
329.922528
243.130560
87.341567
-86.948923
-199.250232
-183.230766
-34.782089
166.811442
284.476684
234.089736
71.640759
-68.526595
-84.946801
17.151714
120.427013
111.085630
-8.181536
-132.489928
-134.979324
27.166516
259.169180
420.824696
440.787473
341.721502
208.158641
112.357707
65.463130
55.094767
88.877866
172.790390
276.569928
343.853706
327.784437
230.718723
114.467367
40.993407
16.561816
11.274783
0.575599
-18.236271
-30.862786
-28.927212
-23.931714
-28.820677
-39.540943
-47.202722
-55.172293
-74.456115
-109.598237
-148.168399
-161.285235
-126.079581
-49.129811
32.384413
67.161179
26.202152
-70.159514
-169.278940
-218.923289
-195.151302
-115.158091
-18.949850
55.861065
88.520481
79.440857
41.695593
-6.661110
-41.795081
-37.871133
12.455384
85.578306
151.097273
197.342424
223.987891
226.798613
199.102641
142.513185
76.493102
35.483520
41.200027
81.553996
129.064002
165.078277
180.343091
169.861038
137.869891
100.687887
71.563979
46.251445
11.392163
-38.431016
-89.487789
-112.080380
-89.343046
-39.502764
3.161082
17.947090
9.229528
0.237074
6.346749
16.825568
13.507012
-6.317505
-33.064938
-57.186757
-75.021068
-88.160985
-97.536905
-100.657055
-99.327616
-106.648623
-139.998325
-207.227429
-293.474429
-359.179530
-365.991186
-306.701529
-213.606472
-145.777360
-146.475361
-206.843820
-276.776362
-298.336002
-246.750241
-153.546859
-78.323966
-66.172354
-120.750241
-200.602660
-255.368568
-262.376109
-228.785835
-180.432967
-149.323377
-159.660459
-210.197652
-267.364774
-291.372414
-265.354042
-198.133205
-112.913877
-30.065409
41.618786
93.552310
110.638262
91.214560
62.382953
55.782805
77.281895
106.509722
115.544813
98.094836
80.997365
88.164901
107.685405
112.700885
95.096451
71.109393
65.003638
76.988565
70.855803
18.342360
-60.280067
-121.518857
-141.786230
-132.444701
-129.689003
-158.508445
-207.776073
-252.578727
-283.143960
-303.373874
-316.740653
-316.662272
-287.543430
-223.201143
-143.355510
-85.492125
-81.305155
-125.749777
-168.178051
-162.150734
-114.064869
-68.953068
-71.924466
-136.037420
-230.058327
-304.112422
-320.545707
-266.042328
-155.842001
-32.419695
48.505779
57.826038
19.926420
-19.405973
-34.741195
-27.136901
-12.053978
-2.507137
-0.549554
-6.814805
-28.322761
-67.300188
-109.978813
-136.250044
-135.415179
-113.452302
-91.699012
-93.568810
-130.465135
-196.580362
-270.132547
-323.261674
-333.743190
-293.690841
-213.680036
-117.148741
-31.688098
20.211686
30.369102
10.893738
-8.715052
-4.006301
23.899247
53.280674
57.643643
23.139161
-39.856247
-101.986127
-130.405174
-112.451253
-68.514164
-30.044146
-11.847039
-6.740833
2.951947
20.131610
21.268390
-12.908760
-67.053826
-105.258867
-101.424764
-60.084955
-17.805294
-10.603303
-43.225379
-94.448552
-135.282966
-143.811894
-114.574228
-60.188604
-7.686821
15.184051
-3.353809
-47.842528
-77.101684
-53.667110
25.118423
123.027304
181.489848
159.468352
65.022972
-56.432197
-149.791287
-176.339211
-130.308801
-34.881247
70.603685
149.105103
181.320339
167.770590
122.837302
61.068976
-12.837511
-97.967990
-186.231504
-257.126005
-282.101887
-245.169414
-160.457058
-64.801488
0.677806
11.381732
-27.312480
-87.649416
-136.226717
-153.505953
-145.031770
-129.131660
-118.367997
-109.737092
-87.263772
-43.692431
3.022932
23.939580
0.784355
-64.716122
-149.791304
-217.829000
-229.790851
-161.975877
-23.188296
141.648684
264.788099
296.836356
239.514166
129.341524
7.019538
-99.259721
-175.692567
-209.594165
-184.968174
-106.715469
-17.121555
35.832618
36.819195
5.432999
-21.869180
-20.573591
2.593444
21.304744
10.189246
-41.110368
-121.680082
-204.962997
-258.052685
-253.561317
-184.362835
-77.453317
9.268047
31.384467
-2.234968
-45.157701
-51.138076
-6.655254
59.595993
112.254506
142.158128
153.835497
145.285278
114.472277
72.623165
40.813167
36.097948
55.331614
71.912016
63.053033
33.709677
3.383664
-14.816166
-16.921213
-3.802760
19.138966
39.846076
41.178060
9.418185
-47.964362
-94.406498
-90.987658
-28.340715
66.523742
142.689295
159.396751
114.984871
42.241711
-11.920137
-14.067744
34.980609
103.402328
144.123153
120.614645
27.790124
-109.956001
-252.754366
-365.847608
-429.523362
-424.265198
-326.633621
-148.362138
36.601373
141.906594
133.017984
41.670398
-56.922902
-103.006373
-96.273307
-73.240093
-68.168833
-95.007324
-139.954111
-161.630122
-108.627457
28.267199
183.192757
268.032869
241.842691
130.443856
8.090889
-59.464431
-60.791252
-25.036143
10.421826
21.658419
7.667418
-16.117525
-29.671560
-21.415063
4.499424
35.811201
61.660383
74.889216
74.684207
74.137868
98.717507
157.929317
221.744247
240.266457
181.057825
59.787023
-57.172560
-108.369649
-88.916290
-35.230090
13.964766
44.526708
71.169123
106.171931
132.312977
119.251380
55.046417
-34.326174
-89.410967
-64.687439
28.349587
133.374292
187.123829
162.574890
90.354353
23.987718
-4.945848
-0.856952
6.830274
-0.284453
-7.318496
5.164172
31.466409
56.688093
80.044895
107.307800
133.178471
138.245864
102.090753
32.077352
-26.258713
-34.965222
-6.583526
17.451323
8.650650
-26.705079
-49.476385
-23.210010
51.223007
136.238482
180.088979
156.273010
88.159083
22.718235
-5.879593
11.207546
59.527981
113.273534
146.321607
138.170901
81.508111
-5.964026
-80.487762
-103.280836
-71.298800
-12.544614
35.440720
51.606195
46.564028
47.832105
75.959280
127.744501
173.409468
180.794438
142.044737
78.521317
28.672741
17.268803
33.046939
44.687540
27.848568
-18.736305
-70.029391
-91.725714
-61.637230
16.731914
111.421976
180.476253
195.472046
156.384801
93.577407
45.144824
31.165017
44.855665
57.680480
42.525261
-4.697028
-64.541288
