EVENT_NAME: None
EVENT_ID: INT-20230206_0000222
EVENT_DATE_YYYYMMDD: 20230206
EVENT_TIME_HHMMSS: 102449
EVENT_LATITUDE_DEGREE: 38.1100
EVENT_LONGITUDE_DEGREE: 37.2400
EVENT_DEPTH_KM: 10.0
HYPOCENTER_REFERENCE: EMSC-CSEM
MAGNITUDE_W: 7.5
MAGNITUDE_W_REFERENCE: EMSC-CSEM
MAGNITUDE_L: 
MAGNITUDE_L_REFERENCE: 
FOCAL_MECHANISM: Strike-slip faulting
NETWORK: TK
STATION_CODE: 4611
STATION_NAME: None
STATION_LATITUDE_DEGREE: 37.747200
STATION_LONGITUDE_DEGREE: 37.284260
STATION_ELEVATION_M: 1097
LOCATION: 
SENSOR_DEPTH_M: 0.0
VS30_M/S: 
SITE_CLASSIFICATION_EC8: B (inferred from topography)
MORPHOLOGIC_CLASSIFICATION: 
EPICENTRAL_DISTANCE_KM: 40.5
EARTHQUAKE_BACKAZIMUTH_DEGREE: 354.5
DATE_TIME_FIRST_SAMPLE_YYYYMMDD_HHMMSS: 20230206_102423.694
DATE_TIME_FIRST_SAMPLE_PRECISION: milliseconds
SAMPLING_INTERVAL_S: 0.005000
NDATA: 21000
DURATION_S: 105.000
STREAM: HNN
UNITS: cm/s^2
INSTRUMENT: HN
INSTRUMENT_ANALOG/DIGITAL: D
INSTRUMENTAL_FREQUENCY_HZ: 
INSTRUMENTAL_DAMPING: 
FULL_SCALE_G: 
N_BIT_DIGITAL_CONVERTER: 
PGA_CM/S^2: -193.871014
TIME_PGA_S: 44.035000
BASELINE_CORRECTION: BASELINE REMOVED
FILTER_TYPE: BUTTERWORTH
FILTER_ORDER: 2
LOW_CUT_FREQUENCY_HZ: 0.030
HIGH_CUT_FREQUENCY_HZ: 40.000
LATE/NORMAL_TRIGGERED: NT
DATABASE_VERSION: 0.5
HEADER_FORMAT: DYNA 1.2
DATA_TYPE: ACCELERATION
PROCESSING: manual (Paolucci et al., 2011)
DATA_TIMESTAMP_YYYYMMDD_HHMMSS: 20251106_221422.218
DATA_LICENSE: D (network default license)
DATA_CITATION: Luzi L., Lanzano G., Felicetta C., D Amico M. C., Russo E., Sgobba S., Pacor, F., & ORFEUS Working Group 5 (2020). Engineering Strong Motion Database (ESM) (Version 2.0). Istituto Nazionale di Geofisica e Vulcanologia (INGV). https://doi.org/10.13127/ESM.2
DATA_CREATOR: ESM working group
ORIGINAL_DATA_MEDIATOR_CITATION: afad
ORIGINAL_DATA_MEDIATOR: afad
ORIGINAL_DATA_CREATOR_CITATION: Disaster And Emergency Management Authority. (1973). Turkish National Strong Motion Network. Department of Earthquake, Disaster and Emergency Management Authority. https://doi.org/10.7914/SN/TK http://www.fdsn.org/networks/detail/TK/
ORIGINAL_DATA_CREATOR: network: TK (Turkish National Strong Motion Network (TNSMN)); owner: Disaster and Emergency Management Authority (AFAD)
USER1: 
USER2: 
USER3: 
USER4: 
USER5: 
[...]
22.244977
25.469899
27.998356
29.044970
27.713656
23.422556
16.251144
7.023664
-3.182194
-13.553912
-23.593734
-32.979719
-41.433846
-48.649253
-54.296590
-58.059064
-59.703364
-59.179227
-56.709745
-52.741630
-47.570839
-41.024905
-32.659186
-22.180944
-9.891104
3.095367
15.212633
24.986250
31.459905
34.384636
33.953028
30.489353
24.440054
16.516517
7.829130
-0.188537
-6.329448
-10.147228
-11.951856
-12.543189
-12.796125
-13.281319
-14.101647
-14.929772
-15.379689
-15.378898
-15.201065
-15.281251
-15.831631
-16.542288
-16.695682
-15.472401
-12.331873
-7.265171
-0.670408
6.879662
14.801410
22.587447
29.796963
36.024063
40.886289
44.048790
45.303545
44.626914
42.138062
38.052167
32.721993
26.708258
20.801391
15.965789
13.127371
12.933080
15.563437
20.556704
26.706954
32.207408
35.375060
35.373624
32.322050
27.093062
20.907028
14.935378
10.068328
6.844235
5.638935
6.835093
10.704419
17.186672
25.738273
35.328081
44.705275
52.660080
58.067521
59.951187
57.803420
51.881709
43.100770
32.713165
21.878174
11.356133
1.619799
-6.885395
-13.530299
-17.478113
-18.064010
-15.224772
-9.615613
-2.444981
5.061519
12.101277
18.183056
22.899680
25.956391
27.319630
27.318321
26.609168
25.887607
25.611540
25.982501
26.993276
28.401106
29.703221
30.253209
29.446881
26.937482
22.816295
17.632862
12.257027
7.489460
3.724395
0.991231
-0.871000
-2.058218
-2.681689
-2.703159
-1.954822
-0.339274
1.984729
4.616773
6.974858
8.322470
7.886126
5.232562
0.570029
-5.439001
-12.017756
-18.509120
-24.482948
-29.669830
-33.869780
-36.918021
-38.664645
-38.943027
-37.583618
-34.556081
-30.089881
-24.597291
-18.523612
-12.219546
-5.874998
0.430207
6.656927
12.783915
18.799575
24.679449
30.368213
35.803457
40.960013
45.881483
50.649565
55.225814
59.328539
62.521275
64.342496
64.351990
62.184363
57.703315
51.111161
42.841087
33.447308
23.679583
14.540728
7.069675
2.025124
-0.347293
-0.366359
1.385333
4.357087
7.996217
11.612453
14.347427
15.251566
13.521807
8.797853
1.425229
-7.451711
-16.268191
-23.596400
-28.659843
-31.572336
-32.919365
-33.228081
-32.773716
-31.603149
-29.733744
-27.317652
-24.599044
-21.789228
-18.957283
-16.014655
-12.894750
-9.726955
-6.809852
-4.510758
-3.169800
-3.007755
-4.043788
-6.096821
-8.992982
-12.755805
-17.534545
-23.426197
-30.298294
-37.676271
-44.800910
-50.790909
-54.928222
-56.910030
-56.866373
-55.220492
-52.379684
-48.490149
-43.520078
-37.475156
-30.599567
-23.428035
-16.503668
-10.068619
-4.042612
1.791279
7.406633
12.279838
15.625654
16.750706
15.238262
11.024331
4.380223
-4.163838
-13.989276
-24.521684
-35.185327
-45.337265
-54.326671
-61.595082
-66.725907
-69.437290
-69.522497
-66.855796
-61.560120
-54.085771
-44.935121
-34.420807
-22.864006
-10.875293
0.648020
10.699333
18.473111
23.650787
26.487836
27.723681
28.209244
28.533986
28.918796
29.251803
29.243316
28.594027
27.128541
24.897153
22.204767
19.574026
17.575128
16.616127
16.782134
17.786481
19.177867
20.604383
21.955359
23.352357
24.910687
26.553742
28.130725
29.535432
30.566303
30.828041
30.013951
28.213599
25.851848
23.462022
21.444895
19.932127
18.896786
18.329963
18.339625
19.131343
20.798919
23.151917
25.821737
28.464337
30.873189
32.902392
34.084912
33.400512
29.736979
22.521177
12.026019
-0.656161
-14.127532
-27.201519
-39.014125
-48.969345
-56.660918
-61.816374
-64.261219
-63.907546
-60.809134
-55.243690
-47.789453
-39.352310
-31.049072
-24.022811
-19.206905
-17.105236
-17.657864
-20.155029
-23.290965
-25.420553
-25.187199
-22.040776
-16.073981
-7.613719
3.077396
15.812055
29.983614
44.158568
56.383274
64.727182
67.722631
64.679727
55.831383
42.373437
26.275605
9.945184
-4.301036
-14.728196
-20.388220
-21.183234
-17.792936
-11.531952
-4.092005
2.722069
7.197916
7.942447
4.197395
-3.909812
-15.460022
-29.048210
-43.274166
-57.094880
-69.688611
-80.250442
-88.055556
-92.573263
-93.413355
-90.262883
-83.029284
-72.077630
-58.417204
-43.685295
-29.655400
-17.678053
-8.405442
-1.689341
3.249818
7.372045
10.994002
13.373049
13.677254
12.081011
9.740525
8.209162
8.659377
11.369373
15.954649
21.818562
28.448183
35.465655
42.345050
48.270619
52.615879
55.466576
57.518724
59.563171
61.694000
62.915945
61.985507
58.436840
52.808031
46.341499
40.213837
34.863966
29.980003
24.847884
18.964382
12.468679
5.926528
-0.024935
-4.812392
-8.010259
-9.553135
-9.909754
-9.928785
-10.515932
-12.220257
-14.923940
-17.914888
-20.167648
-20.808794
-19.511662
-16.544259
-12.665724
-8.927938
-6.458015
-6.226710
-8.836830
-14.402131
-22.498002
-32.248547
-42.475740
-51.933273
-59.595824
-64.980529
-68.338220
-70.397542
-71.897048
-73.073706
-73.444004
-72.347120
-69.569096
-65.416894
-60.493059
-55.303960
-49.963235
-44.238060
-37.722779
-30.060765
-21.190883
-11.577843
-2.240320
5.767780
11.960037
16.623140
20.655301
24.887496
29.456758
33.793389
36.882020
37.678749
35.573926
30.814980
24.643978
18.668336
14.073268
11.225126
9.659246
8.631520
7.679705
6.721309
5.935043
5.536888
5.559060
5.692428
5.233576
3.313415
-0.724999
-6.887963
-14.318636
-21.752286
-28.137347
-32.981051
-36.361372
-38.433568
-39.007205
-37.737738
-34.475986
-29.394211
-22.978844
-15.956364
-9.204891
-3.624807
0.015069
1.244532
0.020678
-3.294538
-8.062585
-13.627698
-19.540703
-25.555869
-31.518009
-37.192461
-42.146681
-45.809545
-47.603504
-47.098461
-44.127939
-38.798702
-31.462120
-22.647997
-12.940125
-2.754606
7.798691
18.707530
29.724265
40.107267
48.575333
53.716285
54.437367
50.151215
40.926766
27.747270
12.581341
-2.242179
-14.834176
-24.223968
-30.450091
-34.027578
-35.431510
-35.134937
-33.781164
-32.117176
-30.818206
-30.331903
-30.745410
-31.690538
-32.350951
-31.743142
-29.067631
-23.960401
-16.614613
-7.648973
2.114156
11.879338
21.029880
29.081420
35.589336
40.106809
42.165239
41.296899
37.179711
30.026565
20.868161
11.257127
2.733504
-3.702040
-7.867933
-10.079299
-10.690333
-9.869174
-7.595473
-3.926056
0.808308
6.183994
11.923481
17.885289
23.929350
29.758446
34.831918
38.459620
39.940253
38.677397
34.313823
26.933663
17.213372
6.317177
-4.342774
-13.470306
-20.244221
-24.516833
-26.824175
-28.047248
-29.056397
-30.603268
-33.273465
-37.361200
-42.780029
-49.193434
-56.188574
-63.323792
-70.092545
-75.857701
-79.891375
-81.684616
-81.250533
-79.114313
-76.139127
-73.227392
-71.023373
-69.723281
-69.002620
-68.190836
-66.543165
-63.536521
-59.078444
-53.449697
-47.123456
-40.519353
-33.835342
-27.129192
-20.473531
-14.046530
-8.122246
-2.908641
1.576049
5.388923
8.483922
10.645258
11.558553
11.081408
9.456035
7.175935
4.731206
2.414079
0.264432
-1.718287
-3.342926
-4.207744
-3.822438
-1.873011
1.533504
5.819243
10.023475
13.072406
14.054111
12.369150
7.842634
0.819789
-7.830552
-16.976902
-25.530204
-32.607072
-37.613472
-40.255824
-40.500799
-38.443299
-34.190458
-27.889429
-19.827947
-10.560719
-0.966714
7.913814
15.139996
20.158961
23.000262
24.169773
24.394639
24.258807
23.899538
23.002223
21.005214
17.545510
12.802488
7.347692
1.824116
-3.324868
-8.006143
-12.382534
-16.664400
-20.831364
-24.447302
-26.799893
-27.170535
-25.118019
-20.651687
-14.125806
-6.067477
2.919188
12.197308
21.113634
29.022464
35.350604
39.698603
41.967400
42.409997
41.464622
39.564694
37.093668
34.387511
31.705061
29.190718
26.876790
24.701151
22.545548
20.325999
18.176734
16.564383
16.099383
17.240539
20.041942
24.021648
28.295976
31.786395
33.422352
32.377845
28.388631
21.967434
14.200532
6.358702
-0.542028
-6.023692
-10.001420
-12.533466
-13.694467
-13.545104
-12.201065
-9.931884
-7.216794
-4.652274
-2.568922
-0.753575
1.262452
3.775557
6.719379
9.673487
12.097001
13.552270
13.753035
12.584626
10.201270
7.078831
3.824670
0.908237
-1.501882
-3.489534
-4.973752
-5.405747
-4.113863
-0.805814
4.234661
10.234637
16.355013
22.021212
26.760955
29.957768
30.907007
29.039258
24.197853
16.803119
7.707358
-2.014930
-11.189674
-18.666090
-23.548469
-25.411080
-24.309921
-20.682687
-15.165551
-8.449991
-1.268615
5.643888
11.747164
16.846800
20.935318
23.930923
25.509487
25.103349
22.222369
16.815896
9.418420
1.122377
-6.710305
-12.820249
-16.397887
-17.291020
-15.875213
-12.860511
-9.189724
-5.903551
-3.817550
-3.243409
-4.071366
-6.010835
-8.836662
-12.471212
-16.707540
-20.960297
-24.419631
-26.302651
-25.981793
-23.132922
-18.025360
-11.638552
-5.152767
0.634146
5.432505
9.350519
12.661497
15.601701
18.293311
20.725641
22.815955
24.552831
26.234955
28.552150
32.157271
37.166593
43.024715
48.629069
52.740543
54.379169
52.967547
48.380563
40.973980
31.572188
21.296397
11.323378
2.627276
-4.220011
-9.067387
-12.113917
-13.774128
-14.582779
-15.206946
-16.408377
-18.785451
-22.518223
-27.380600
-32.889228
-38.524354
-43.894109
-48.700186
-52.619783
-55.186689
-55.780137
-53.858264
-49.179775
-41.815890
-32.203841
-21.414774
-11.195067
-3.228276
1.562452
2.837902
0.468450
-5.412112
-14.133463
-24.291048
-33.867984
-41.028981
-44.906188
-45.653323
-44.093776
-41.075612
-36.953492
-31.634676
-24.882416
-16.712570
-7.605224
1.774349
10.900919
19.395279
26.955325
33.412561
38.753498
42.935059
45.803350
47.415772
48.224616
48.543871
48.035065
46.020164
42.068067
36.351342
29.693291
23.143325
17.550403
13.515921
11.459629
11.576118
13.725676
17.366039
21.609610
25.538906
28.511361
30.182774
30.416942
29.193589
26.569711
22.737056
18.086462
13.204771
8.842024
5.834317
4.945564
6.553972
10.403493
15.707019
21.384997
26.330104
29.648602
30.843722
29.931352
27.384507
23.989292
20.612229
17.978935
16.561375
16.530644
17.789130
20.022972
22.744972
25.307901
26.877174
26.447175
23.053053
16.100167
5.749685
-6.876243
-20.034920
-31.845258
-40.646432
-45.279918
-45.326402
-41.279110
-34.464811
-26.750642
-19.916623
-15.050510
-12.376499
-11.389033
-11.349920
-11.734797
-12.248310
-12.684103
-12.837823
-12.546561
-11.880306
-11.193880
-10.728111
-10.245846
-9.243449
-7.374519
-4.759870
-2.033572
0.092449
1.238456
1.274384
0.100147
-2.382041
-6.126855
-10.669389
-14.981453
-17.834313
-18.371763
-16.637310
-13.748350
-11.189916
-9.921882
-9.924943
-10.220257
-9.610509
-7.389146
-3.353967
2.404013
9.594482
17.749388
26.268924
34.466821
41.578353
46.815863
49.593985
49.769822
47.708716
44.202308
40.169706
36.345376
33.152092
30.729382
29.163813
28.674466
29.501710
31.694821
34.968144
38.693017
42.112297
44.499953
45.057752
42.914357
37.632160
29.708328
20.447431
11.494053
4.159166
-1.094732
-4.584731
-7.097319
-9.472524
-12.236033
-15.423230
-18.551817
-20.819709
-21.306485
-19.057332
-13.240185
-3.575454
9.326376
24.187939
39.460149
53.604554
65.264649
73.337236
77.056801
76.128896
70.781652
61.558988
49.118861
34.286895
18.155059
1.986473
-13.015958
-26.022465
-36.740487
-45.137228
-51.105346
-54.421267
-54.856985
-52.351105
-47.111531
-39.546317
-30.196426
-19.815782
-9.452914
-0.322092
6.479652
10.372692
11.513074
10.420896
7.477305
2.730443
-3.963754
-12.349206
-21.335222
-29.364263
-34.960409
-36.980005
-34.760558
-28.349233
-18.667553
-7.286048
4.018074
13.849021
21.626538
27.456090
31.760529
34.853720
36.692926
37.080918
35.919994
33.228608
29.147610
24.140783
19.108270
15.024247
12.471376
11.425374
11.235696
10.870823
9.253905
5.633943
-0.102742
-7.396985
-15.256593
-22.900935
-30.233061
-37.489406
-44.704545
-51.542382
-57.378319
-61.623264
-64.102065
-65.327705
-66.509060
-68.937913
-73.281109
-79.300466
-85.971749
-92.159788
-97.218934
-100.915824
-103.125951
-103.648453
-102.187681
-98.554794
-92.860167
-85.497656
-77.044179
-68.146887
-59.429126
-51.436452
-44.617318
-39.336387
-35.825581
-33.979073
-33.208080
-32.624307
-31.317082
-28.569279
-24.055888
-18.029546
-11.348668
-5.067579
0.031285
3.597712
5.664272
6.390810
5.848438
4.055836
1.093100
-2.829654
-7.340181
-11.920150
-15.990815
-19.122184
-21.176132
-22.141868
-21.881969
-19.991875
-15.822967
-8.794806
1.274192
14.074270
28.870687
44.711958
60.562809
75.187043
87.078338
94.797513
97.450924
95.044108
88.577762
79.623404
69.845106
60.820499
53.943386
50.205398
49.945106
52.751630
57.557339
63.040494
67.976108
71.232178
71.786188
69.105729
63.480934
55.807111
47.216576
38.882261
31.919390
27.304613
25.785548
27.768047
33.152026
41.158113
50.401171
59.564939
67.985644
75.407097
81.521050
85.852888
87.934100
87.715204
85.797714
83.046643
80.144588
77.576882
75.722330
74.758936
74.551026
74.751193
74.975456
74.924480
74.447963
73.501062
72.002687
69.597903
65.605038
59.442158
50.910910
39.729748
25.124637
6.321069
-16.825551
-43.762780
-73.297516
-103.464115
-131.637764
-155.490292
-173.830111
-186.304262
-192.882387
-193.871014
-189.978591
-181.935271
-170.218858
-155.511758
-139.116336
-122.491676
-106.600123
-91.795807
-78.134399
-65.951355
-55.936365
-47.936110
-40.089242
-30.110943
-17.072986
-2.068052
12.092616
22.350215
26.730669
24.428885
15.578174
1.370583
-15.823277
-32.978058
-47.280614
-57.074869
-62.379584
-64.231615
-63.769290
-61.753188
-58.406987
-53.642054
-47.478262
-40.571540
-34.353134
-30.144084
-28.327100
-28.610711
-30.489997
-33.209024
-35.829038
-38.025261
-40.573461
-44.273302
-48.740351
-52.544591
-53.956867
-51.793887
-46.014754
-37.668464
-28.479265
-20.054383
-13.191877
-7.819220
-3.265395
1.238682
6.218614
12.153015
19.750818
29.855148
43.075723
59.229752
77.053121
94.716977
110.382562
122.154828
127.997669
126.279502
116.576415
100.254608
80.473017
60.927739
44.473916
32.683869
25.992307
24.324599
27.534503
35.081406
45.635777
57.316113
68.255507
77.216724
83.839670
88.032837
89.414553
87.715063
83.484376
78.360236
74.630379
73.656236
74.655283
75.587050
74.774805
72.051648
68.815750
66.182685
63.567631
59.958270
55.481593
50.993669
47.089968
43.879291
41.195907
38.841647
36.573584
33.706969
29.003242
21.539143
11.468819
-0.446672
-13.521483
-27.150110
-40.691888
-53.760983
-66.414456
-78.616673
-89.716628
-98.754005
-105.026963
-108.386253
-109.201371
-107.892110
-104.564012
-99.235668
-92.126317
-83.535847
-73.675590
-62.788496
-51.236976
-39.244441
-26.751215
-13.883966
-1.375406
9.765736
18.708861
24.795888
27.397046
25.966774
20.219604
10.330890
-2.934921
-18.277122
-33.950163
-47.871290
-57.869908
-62.310014
-60.703770
-53.834949
-43.529498
-31.955333
-20.875807
-11.251330
-3.194668
3.531120
9.076254
13.636186
17.627006
21.438680
25.196803
28.963852
32.885291
36.791785
39.887705
41.280907
40.722130
38.885698
37.171729
36.847084
38.314847
41.274461
45.108174
48.991197
51.904647
52.802307
50.857105
45.693671
37.556300
27.303749
16.288967
6.072385
-1.877416
-6.451741
-7.284230
-5.266982
-2.599637
-1.471614
-2.643910
-5.254498
-7.369177
-7.161943
-3.913430
1.933078
9.077595
15.799306
20.463078
22.155804
21.124040
18.444147
15.372579
12.681585
10.344123
8.044132
5.744744
3.673777
2.160589
1.690536
2.967648
6.663544
13.048532
21.717237
31.516759
40.914399
48.475478
53.197340
54.648980
52.753175
47.491318
38.786585
26.640051
11.621102
-4.877942
-21.230571
-36.109283
-48.150632
-55.661287
-57.323948
-53.010407
-43.752734
-31.388153
-18.240019
-6.827408
0.547820
2.254323
-2.320363
-12.594925
-27.024802
-43.486070
-59.721532
-73.750381
-84.122937
-90.030923
-91.196843
-87.816745
-80.737380
-71.488443
-61.680226
-52.312602
-43.571603
-34.970262
-25.879694
-16.068117
-5.906764
3.687093
11.682411
17.398834
20.704530
22.003558
21.958364
21.241124
20.554234
20.697964
22.462600
26.420440
32.688707
40.783378
49.743737
58.357959
65.396456
69.777708
70.614279
67.309225
59.850600
49.048307
36.349950
23.448567
11.820802
2.462279
-3.852611
-6.257295
-3.891043
3.739546
16.231349
31.972696
48.602501
63.793948
76.031976
84.956142
90.661149
92.909516
91.174072
85.161660
75.544181
64.235996
53.397428
44.266884
36.850819
30.154663
22.874998
13.999968
2.905008
-10.640821
-26.248823
-42.700761
-58.155754
-70.616183
-78.582882
-81.510632
-79.615760
-73.585715
-64.573209
-54.157002
-43.860104
-34.609002
-26.621313
-19.648261
-13.617884
-9.083547
-6.818691
-7.200613
-9.917668
-13.937932
-17.833097
-20.279021
-20.690133
-19.638012
-18.482449
-18.642917
-20.737329
-24.013196
-26.711691
-26.845898
-23.131962
-15.597748
-5.274189
6.321271
17.446346
26.323120
31.496320
32.224097
28.645332
21.701815
12.659253
2.654171
-7.335500
-16.378899
-23.586641
-28.258124
-30.184844
-29.770143
-27.572809
-23.849260
-18.668764
-12.213863
-4.923566
2.532787
9.501195
15.610051
20.874045
25.628026
30.180089
34.459935
37.971037
39.993304
40.079874
38.407717
35.494765
31.776163
27.469122
22.649440
17.527833
12.701774
9.128782
7.857073
9.458275
13.636904
19.562345
26.343028
33.162807
39.257204
43.895948
46.434341
46.430443
43.672765
37.995074
29.226576
17.621398
4.168058
-9.885246
-23.610101
-36.419589
-47.853699
-57.408038
-64.512039
-68.750082
-70.069340
-68.748816
-65.307619
-60.464169
-55.048509
-49.718094
-44.686640
-39.714721
-34.216280
-27.471286
-18.961359
-8.871513
1.646121
11.007301
17.855870
21.300573
21.011362
17.366947
11.479068
4.766412
-1.493241
-6.265097
-8.841602
-9.199983
-8.280998
-7.649207
-8.863698
-12.796303
-19.248428
-27.341896
-36.039161
-44.288157
-50.993454
-55.025950
-55.383297
-51.605260
-44.122127
-34.120986
-23.149456
-12.554064
-3.096784
4.866211
11.114636
15.568482
18.366722
19.828456
20.413801
20.792028
21.813438
24.145242
27.967748
33.150365
39.487097
46.598868
53.750145
59.883948
63.851719
64.852636
62.757197
57.954321
51.094231
43.018504
34.777205
27.580623
22.608459
20.593002
21.511323
24.776157
29.531769
34.764564
39.383301
42.456434
43.463142
42.358524
39.522452
35.576498
31.166814
26.766030
22.540598
18.404232
14.176469
9.835075
5.705204
2.370401
0.441270
0.219643
1.414876
3.162456
4.319193
4.128503
2.694525
0.633851
-1.425036
-2.947188
-3.457475
-2.604717
-0.235923
3.650191
8.922772
15.156175
21.499896
26.877978
30.352716
31.494402
30.491726
27.666966
23.050614
16.629048
8.671284
-0.399220
-10.173574
-20.040942
-28.963368
-35.681318
-39.032363
-38.135138
-32.572424
-22.726658
-10.047636
3.196323
14.582125
22.613084
27.355149
