EVENT_NAME: None
EVENT_ID: INT-20230206_0000222
EVENT_DATE_YYYYMMDD: 20230206
EVENT_TIME_HHMMSS: 102449
EVENT_LATITUDE_DEGREE: 38.1100
EVENT_LONGITUDE_DEGREE: 37.2400
EVENT_DEPTH_KM: 10.0
HYPOCENTER_REFERENCE: EMSC-CSEM
MAGNITUDE_W: 7.5
MAGNITUDE_W_REFERENCE: EMSC-CSEM
MAGNITUDE_L: 
MAGNITUDE_L_REFERENCE: 
FOCAL_MECHANISM: Strike-slip faulting
NETWORK: TK
STATION_CODE: 4617
STATION_NAME: None
STATION_LATITUDE_DEGREE: 37.585510
STATION_LONGITUDE_DEGREE: 36.830300
STATION_ELEVATION_M: 544
LOCATION: 
SENSOR_DEPTH_M: 0.0
VS30_M/S: 
SITE_CLASSIFICATION_EC8: B (inferred from topography)
MORPHOLOGIC_CLASSIFICATION: 
EPICENTRAL_DISTANCE_KM: 68.5
EARTHQUAKE_BACKAZIMUTH_DEGREE: 31.6
DATE_TIME_FIRST_SAMPLE_YYYYMMDD_HHMMSS: 20230206_102433.522
DATE_TIME_FIRST_SAMPLE_PRECISION: milliseconds
SAMPLING_INTERVAL_S: 0.005000
NDATA: 21000
DURATION_S: 105.000
STREAM: HNE
UNITS: cm/s^2
INSTRUMENT: HN
INSTRUMENT_ANALOG/DIGITAL: D
INSTRUMENTAL_FREQUENCY_HZ: 
INSTRUMENTAL_DAMPING: 
FULL_SCALE_G: 
N_BIT_DIGITAL_CONVERTER: 
PGA_CM/S^2: -82.524230
TIME_PGA_S: 47.880000
BASELINE_CORRECTION: BASELINE REMOVED
FILTER_TYPE: BUTTERWORTH
FILTER_ORDER: 2
LOW_CUT_FREQUENCY_HZ: 0.020
HIGH_CUT_FREQUENCY_HZ: 40.000
LATE/NORMAL_TRIGGERED: NT
DATABASE_VERSION: 0.5
HEADER_FORMAT: DYNA 1.2
DATA_TYPE: ACCELERATION
PROCESSING: manual (Paolucci et al., 2011)
DATA_TIMESTAMP_YYYYMMDD_HHMMSS: 20251106_221423.033
DATA_LICENSE: D (network default license)
DATA_CITATION: Luzi L., Lanzano G., Felicetta C., D Amico M. C., Russo E., Sgobba S., Pacor, F., & ORFEUS Working Group 5 (2020). Engineering Strong Motion Database (ESM) (Version 2.0). Istituto Nazionale di Geofisica e Vulcanologia (INGV). https://doi.org/10.13127/ESM.2
DATA_CREATOR: ESM working group
ORIGINAL_DATA_MEDIATOR_CITATION: afad
ORIGINAL_DATA_MEDIATOR: afad
ORIGINAL_DATA_CREATOR_CITATION: Disaster And Emergency Management Authority. (1973). Turkish National Strong Motion Network. Department of Earthquake, Disaster and Emergency Management Authority. https://doi.org/10.7914/SN/TK http://www.fdsn.org/networks/detail/TK/
ORIGINAL_DATA_CREATOR: network: TK (Turkish National Strong Motion Network (TNSMN)); owner: Disaster and Emergency Management Authority (AFAD)
USER1: 
USER2: 
USER3: 
USER4: 
USER5: 
[...]
-26.479824
-26.743615
-27.217986
-27.871654
-28.566232
-29.118889
-29.380208
-29.291132
-28.917713
-28.433207
-28.051848
-27.897869
-27.921241
-27.998085
-28.069967
-28.182796
-28.436063
-28.835933
-29.203188
-29.298782
-28.984563
-28.252209
-27.180370
-25.862655
-24.367631
-22.783446
-21.267590
-20.019447
-19.206698
-18.870935
-18.883562
-19.051093
-19.255536
-19.519655
-19.979273
-20.714054
-21.611332
-22.445226
-23.017209
-23.233547
-23.124987
-22.798730
-22.379975
-21.972842
-21.632564
-21.356247
-21.102171
-20.857573
-20.675397
-20.595973
-20.575712
-20.548636
-20.516860
-20.553169
-20.724360
-20.940166
-20.881679
-20.203042
-18.784774
-16.818878
-14.742093
-12.968431
-11.647421
-10.675504
-9.823501
-8.903294
-7.873021
-6.774528
-5.633275
-4.418310
-3.045847
-1.426259
0.479151
2.611682
4.796192
6.791761
8.368186
9.379660
9.806978
9.725075
9.258254
8.562520
7.805687
7.111234
6.507175
5.942681
5.347868
4.726191
4.209370
3.982659
4.172149
4.771286
5.628088
6.544634
7.392634
8.161073
8.946940
9.869646
10.985045
12.268521
13.641103
15.031436
16.417117
17.786357
19.081395
20.186169
20.963965
21.361613
21.482425
21.513308
21.610324
21.828694
22.104156
22.312189
22.336844
22.101944
21.583980
20.810249
19.838785
18.701732
17.360339
15.730380
13.732579
11.338190
8.601015
5.658082
2.704919
-0.067892
-2.530323
-4.609426
-6.261380
-7.447206
-8.137991
-8.370126
-8.269422
-7.955872
-7.449116
-6.701801
-5.679307
-4.411944
-2.995079
-1.505803
0.065258
1.769731
3.630676
5.618630
7.654224
9.621650
11.379627
12.772391
13.653649
13.941156
13.665289
12.955542
11.979045
10.831921
9.477669
7.857852
6.051386
4.353705
3.225620
3.008423
3.662907
4.815111
5.953709
6.694369
6.954778
6.861243
6.584391
6.244415
5.881667
5.501564
5.123348
4.787296
4.547403
4.467645
4.615712
5.035318
5.707832
6.521175
7.273243
7.760307
7.877413
7.658021
7.261972
6.891017
6.701405
6.770450
7.090629
7.587378
8.150087
8.680038
9.123344
9.444013
9.576839
9.399087
8.745486
7.507144
5.723017
3.563925
1.264893
-0.965428
-3.012350
-4.853007
-6.534652
-8.157173
-9.847945
-11.702611
-13.723886
-15.803226
-17.741815
-19.336729
-20.477274
-21.193425
-21.642966
-21.986691
-22.260017
-22.358888
-22.113720
-21.459593
-20.557516
-19.696589
-19.124020
-18.914633
-18.916338
-18.846041
-18.431156
-17.531103
-16.203916
-14.648263
-13.102444
-11.748813
-10.661931
-9.851601
-9.313222
-9.019567
-8.906885
-8.911464
-9.014560
-9.243732
-9.645236
-10.234942
-10.967488
-11.767533
-12.572356
-13.340337
-14.036450
-14.599515
-14.917895
-14.851337
-14.288277
-13.237050
-11.876816
-10.464670
-9.200774
-8.141940
-7.191965
-6.229560
-5.238139
-4.304276
-3.542446
-2.980113
-2.496938
-1.929681
-1.210981
-0.418963
0.257675
0.663418
0.794114
0.753788
0.661875
0.597754
0.588166
0.648268
0.820560
1.164899
1.728987
2.519029
3.479481
4.495758
5.414187
6.087358
6.416295
6.360579
5.935379
5.202430
4.256684
3.202662
2.132931
1.123504
0.235677
-0.482400
-0.997444
-1.300300
-1.419561
-1.434148
-1.471073
-1.659269
-2.066297
-2.645460
-3.224730
-3.592246
-3.589964
-3.137463
-2.225501
-0.904490
0.723096
2.512160
4.293451
5.909627
7.245075
8.227158
8.831157
9.112483
9.220122
9.325964
9.534670
9.840312
10.134172
10.292600
10.263983
10.077904
9.813514
9.541025
9.272189
8.958071
8.519762
7.919004
7.219304
6.576565
6.184990
6.180812
6.569537
7.255911
8.114445
9.058770
10.073677
11.166093
12.313681
13.481009
14.656939
15.868871
17.172437
18.612131
20.190051
21.876990
23.629508
25.383227
27.044130
28.504819
29.669449
30.472787
30.892321
30.944550
30.665248
30.067368
29.115663
27.769685
26.046300
24.053277
21.977992
19.999413
18.210933
16.640279
15.295103
14.177990
13.286682
12.619711
12.188098
12.021444
12.151881
12.553954
13.098812
13.596391
13.872933
13.844250
13.551779
13.111005
12.640078
12.217772
11.865712
11.561613
11.262889
10.936461
10.585942
10.257758
10.018971
9.891454
9.812139
9.701975
9.553636
9.445123
9.492873
9.743196
10.101025
10.407256
10.549179
10.500066
10.298649
9.965090
9.440889
8.642776
7.547120
6.227597
4.837670
3.512795
2.286173
1.115994
-0.042909
-1.174610
-2.181991
-2.964826
-3.514318
-3.943048
-4.447828
-5.173653
-6.094396
-7.041261
-7.808367
-8.294465
-8.580718
-8.824376
-9.124430
-9.495974
-9.906154
-10.338839
-10.828240
-11.406072
-12.042815
-12.659630
-13.170943
-13.527399
-13.741252
-13.870843
-13.988221
-14.140625
-14.324250
-14.495060
-14.592480
-14.564271
-14.388202
-14.082859
-13.702990
-13.300774
-12.881650
-12.390824
-11.740320
-10.898637
-9.953584
-9.042410
-8.244084
-7.522750
-6.740977
-5.786530
-4.690525
-3.610486
-2.746621
-2.227834
-2.033479
-2.031863
-2.066575
-2.049115
-2.006871
-2.017133
-2.117895
-2.270784
-2.368136
-2.295451
-1.995066
-1.484993
-0.850116
-0.198947
0.393938
0.941724
1.554822
2.342943
3.317902
4.409799
5.536795
6.682040
7.920740
9.329316
10.889836
12.497329
14.011398
15.312526
16.340431
17.088552
17.573435
17.783561
17.651191
17.099624
16.101417
14.684306
12.900640
10.774586
8.288911
5.472441
2.463754
-0.581836
-3.609087
-6.664330
-9.824234
-13.081925
-16.288830
-19.261971
-21.907030
-24.221489
-26.250081
-28.048962
-29.668811
-31.155797
-32.546685
-33.842908
-34.993613
-35.926145
-36.588134
-36.969606
-37.108482
-37.069776
-36.908337
-36.618230
-36.107911
-35.261830
-34.028817
-32.483653
-30.836853
-29.339938
-28.177897
-27.427110
-27.053741
-26.952193
-26.992100
-27.059661
-27.084970
-27.034085
-26.883982
-26.597746
-26.137260
-25.554269
-25.051323
-24.879489
-25.187653
-25.938278
-26.924944
-27.957721
-29.015589
-30.163913
-31.416084
-32.698511
-33.886040
-34.883227
-35.675918
-36.285293
-36.712621
-36.952643
-37.026967
-36.991290
-36.927718
-36.927841
-37.065048
-37.353502
-37.735443
-38.149171
-38.589995
-39.071190
-39.555295
-39.926786
-40.017334
-39.708663
-39.018476
-38.073406
-37.051046
-36.145416
-35.532527
-35.307214
-35.438213
-35.812139
-36.303714
-36.820754
-37.317221
-37.757955
-38.082468
-38.203526
-38.012589
-37.377219
-36.158604
-34.290104
-31.847995
-29.028037
-26.073977
-23.181563
-20.430841
-17.810199
-15.270919
-12.771504
-10.294886
-7.818438
-5.286429
-2.635708
0.152562
3.000892
5.721266
8.093593
9.952104
11.204456
11.822632
11.835032
11.330476
10.469328
9.470227
8.531604
7.756390
7.157120
6.700677
6.366095
6.172642
6.129048
6.172695
6.167793
5.948499
5.407540
4.561237
3.513836
2.393644
1.313856
0.354379
-0.440998
-1.074677
-1.620692
-2.227788
-3.044348
-4.128591
-5.407074
-6.676683
-7.675074
-8.168717
-8.023826
-7.244083
-5.937508
-4.266044
-2.412722
-0.565218
1.084257
2.343604
3.049963
3.106491
2.513035
1.387924
-0.040381
-1.477835
-2.671517
-3.498818
-3.948341
-4.065434
-3.917180
-3.586253
-3.197469
-2.924308
-2.921236
-3.253475
-3.895228
-4.750201
-5.662813
-6.431763
-6.851749
-6.761173
-6.072321
-4.787208
-2.993707
-0.857571
1.392296
3.499346
5.258410
6.579445
7.467923
7.985968
8.238146
8.355266
8.439272
8.506959
8.488604
8.271791
7.791600
7.079689
6.174151
5.020771
3.500016
1.516068
-0.903042
-3.559810
-6.183538
-8.557338
-10.579796
-12.261003
-13.627018
-14.633051
-15.184078
-15.204724
-14.713262
-13.843368
-12.742113
-11.461728
-9.957764
-8.137617
-5.925382
-3.308045
-0.333094
2.905206
6.271522
9.600160
12.735113
15.577117
18.109675
20.396992
22.525633
24.533167
26.365856
27.881092
28.932576
29.452722
29.447529
28.952536
27.986444
26.537946
24.624409
22.347309
19.865937
17.335052
14.842961
12.385509
9.927467
7.483078
5.152888
3.108538
1.491751
0.313710
-0.553924
-1.325176
-2.178379
-3.152393
-4.153641
-5.018185
-5.605372
-5.865491
-5.822635
-5.538280
-5.101901
-4.632835
-4.267205
-4.124021
-4.246376
-4.566161
-4.957276
-5.312019
-5.588053
-5.826097
-6.123443
-6.593507
-7.324224
-8.347043
-9.632469
-11.093312
-12.591260
-13.954094
-15.021011
-15.687380
-15.910789
-15.685904
-14.989201
-13.755847
-11.960395
-9.702299
-7.194751
-4.708637
-2.498994
-0.738066
0.526718
1.392612
2.067448
2.796897
3.750720
4.948446
6.326488
7.834363
9.463278
11.227564
13.108187
15.011707
16.797220
18.325896
19.501216
20.290928
20.713500
20.810466
20.615914
20.142186
19.407708
18.470463
17.432323
16.422783
15.560226
14.914623
14.492659
14.234911
14.027297
13.721745
13.175324
12.295791
11.077705
9.611078
8.024424
6.416552
4.828993
3.256938
1.708298
0.243482
-1.072904
-2.233489
-3.288603
-4.309936
-5.332441
-6.317025
-7.181275
-7.846912
-8.264067
-8.415833
-8.298901
-7.899384
-7.183482
-6.116272
-4.727002
-3.149245
-1.554568
-0.073525
1.205180
2.198249
2.800641
2.913671
2.570817
2.011137
1.524265
1.259074
1.184871
1.151399
1.029544
0.822604
0.643190
0.646546
0.970229
1.675376
2.692364
3.824761
4.899674
5.907437
6.956178
8.144502
9.439209
10.648058
11.599152
12.310301
12.932852
13.617778
14.429052
15.330675
16.281246
17.314279
18.489876
19.810506
21.187335
22.459623
23.479546
24.176603
24.518151
24.452466
23.918587
22.897612
21.475398
19.850710
18.213290
16.639514
15.159126
13.863565
12.926703
12.546989
12.807540
13.582606
14.633472
15.747288
16.796530
17.743255
18.596290
19.371122
20.085303
20.766906
21.458224
22.207935
23.047551
23.977632
24.993554
26.118048
27.403628
28.905977
30.624986
32.472085
34.331122
36.128807
37.836410
39.443795
40.941187
42.319446
43.593633
44.813316
46.022498
47.219362
48.369045
49.436752
50.415220
51.337375
52.257569
53.217539
54.208329
55.158515
55.993401
56.702795
57.351241
58.040814
58.823641
59.646943
60.417597
61.075597
61.573327
61.826167
61.708719
61.104333
60.017222
58.638032
57.230509
55.981413
54.942187
54.040923
53.170206
52.268965
51.328050
50.360696
49.357091
48.247394
46.902823
45.171365
42.964620
40.330163
37.432017
34.491487
31.714014
29.229240
27.073667
25.198330
23.512946
21.945430
20.499323
19.271871
18.375037
17.853379
17.687574
17.830505
18.231225
18.833052
19.541910
20.222730
20.783467
21.247476
21.701944
22.206145
22.738888
23.207131
23.554163
23.854453
24.274035
24.970813
25.985729
27.183215
28.326076
29.197812
29.709957
29.945355
30.055738
30.133151
30.160158
30.029992
29.652780
29.040964
28.268708
27.395949
26.436305
25.372280
24.225393
23.101211
22.123629
21.346345
20.728859
20.170020
19.608653
19.099139
18.761668
18.693643
18.913885
19.355976
19.938803
20.629696
21.419558
22.268892
23.079409
23.706673
24.039801
24.073376
23.890585
23.602931
23.274848
22.881921
22.365761
21.714976
21.008099
20.398787
20.001293
19.784856
19.596780
19.254948
18.671825
17.914667
17.087245
16.192651
15.133267
13.794669
12.179704
10.481107
8.962871
7.807438
7.067711
6.690226
6.597439
6.747694
7.105452
7.604939
8.180441
8.806238
9.480879
10.185108
10.849600
11.367561
11.693271
11.914264
12.173349
12.558818
13.075177
13.673766
14.333499
15.109308
16.064849
17.190591
18.403637
19.590584
20.666325
21.609950
22.433780
23.131627
23.646217
23.876239
23.753670
23.306110
22.615540
21.752109
20.759539
19.688000
18.665221
17.910848
17.588046
17.666629
17.984251
18.374819
18.750745
19.113530
19.459563
19.707572
19.765793
19.620008
19.329982
18.987906
18.682933
18.479713
18.413449
18.490213
18.692567
18.989011
19.343979
19.712927
20.004384
20.054237
19.670981
18.708210
17.129484
15.040670
12.641158
10.142498
7.684396
5.289526
2.921614
0.570614
-1.695608
-3.723378
-5.341478
-6.441635
-7.020521
-7.189823
-7.135861
-7.057713
-7.093794
-7.269274
-7.515669
-7.723815
-7.814402
-7.790159
-7.721827
-7.701085
-7.778258
-7.932813
-8.136494
-8.427758
-8.913885
-9.718428
-10.879532
-12.290409
-13.786176
-15.252149
-16.639222
-17.929202
-19.083667
-20.024354
-20.691809
-21.104446
-21.344486
-21.521578
-21.753471
-22.153536
-22.806687
-23.738840
-24.896112
-26.151752
-27.373789
-28.492024
-29.499580
-30.420119
-31.256908
-31.959662
-32.449399
-32.660976
-32.577008
-32.249569
-31.800369
-31.408509
-31.274449
-31.568342
-32.364286
-33.595127
-35.087522
-36.638733
-38.114767
-39.507087
-40.867413
-42.222041
-43.553523
-44.823381
-46.015935
-47.156398
-48.263463
-49.314973
-50.303149
-51.291412
-52.376879
-53.619363
-54.997103
-56.408985
-57.756003
-59.016610
-60.230975
-61.448428
-62.676560
-63.855019
-64.886510
-65.689339
-66.249294
-66.645470
-67.007286
-67.449542
-68.018854
-68.668143
-69.292360
-69.781851
-70.064663
-70.128366
-70.002070
-69.728856
-69.345112
-68.863581
-68.264755
-67.510071
-66.600440
-65.621554
-64.704887
-63.958032
-63.412555
-63.017942
-62.721402
-62.535358
-62.498284
-62.616370
-62.868026
-63.236746
-63.735759
-64.405140
-65.262353
-66.265890
-67.352682
-68.485929
-69.655780
-70.864494
-72.124333
-73.460297
-74.899362
-76.444483
-78.035743
-79.538577
-80.809293
-81.759121
-82.341734
-82.524230
-82.298218
-81.709240
-80.872118
-79.951686
-79.076650
-78.259874
-77.405965
-76.361056
-74.983017
-73.195405
-70.984696
-68.370744
-65.370119
-61.992005
-58.308436
-54.507815
-50.829621
-47.466368
-44.510581
-41.948327
-39.716702
-37.761069
-36.045202
-34.554472
-33.317291
-32.403474
-31.848299
-31.595461
-31.563843
-31.736073
-32.162069
-32.900943
-33.918325
-35.039083
-36.067155
-36.911736
-37.564456
-38.024080
-38.255120
-38.194922
-37.824663
-37.223078
-36.518825
-35.813377
-35.135504
-34.432277
-33.616705
-32.625231
-31.447566
-30.126425
-28.712812
-27.229073
-25.686726
-24.111147
-22.528424
-20.941648
-19.330864
-17.677574
-16.012470
-14.432481
-13.024379
-11.789334
-10.667338
-9.601182
-8.589724
-7.704502
-7.034771
-6.627013
-6.473712
-6.521555
-6.680299
-6.833448
-6.863057
-6.677658
-6.230472
-5.527030
-4.609564
-3.527366
-2.299248
-0.900445
0.680836
2.379915
4.054203
5.530659
6.705477
7.615484
8.389040
9.163326
10.031117
11.011776
12.049665
13.029369
13.821511
14.334468
14.546738
14.512475
14.314598
14.010873
13.613880
13.098187
12.443430
11.679026
10.894271
10.214464
9.727359
9.421488
9.203715
8.946413
8.530335
7.867150
6.886569
5.525918
3.756002
1.614368
-0.788619
-3.290068
-5.729352
-7.991457
-9.990390
-11.637332
-12.836542
-13.511536
-13.667498
-13.431943
-13.001293
-12.556903
-12.201675
-11.935556
-11.705977
-11.471365
-11.227888
-11.005121
-10.826545
-10.680913
-10.548151
-10.434935
-10.376788
-10.418967
-10.585127
-10.860503
-11.217107
-11.640443
-12.117450
-12.608154
-13.025831
-13.245116
-13.171395
-12.816697
-12.319190
-11.906820
-11.777834
-11.994654
-12.494468
-13.151557
-13.853004
-14.544683
-15.202757
-15.793611
-16.272049
-16.596767
-16.746772
-16.734513
-16.610963
-16.457261
-16.348490
-16.320277
-16.373875
-16.501720
-16.716291
-17.047698
-17.471793
-17.855747
-18.023026
-17.857497
-17.369769
-16.695805
-15.974824
-15.236260
-14.428802
-13.510995
-12.539655
-11.696002
-11.167581
-11.011555
-11.121360
-11.275118
-11.279089
-11.087433
-10.776884
-10.468562
-10.258244
-10.178762
-10.220089
-10.359116
-10.567191
-10.807568
-11.032364
-11.179056
-11.166401
-10.900767
-10.307079
-9.352166
-8.026213
-6.320406
-4.239734
-1.830967
0.794677
3.458724
5.960566
8.138935
9.928217
11.393486
12.702025
14.051148
15.549892
17.136619
18.639257
19.882063
20.768354
21.316300
21.609989
21.739790
21.785517
21.816103
21.887173
22.042418
22.333109
22.834638
23.630470
24.777366
26.263275
27.990162
29.826339
31.668367
33.458220
35.174059
36.803933
38.328622
39.732705
41.012431
42.154055
43.119167
43.879653
44.459235
44.930812
45.379659
45.837283
46.247401
46.535918
46.691045
46.763027
46.824226
46.918530
47.032594
47.120969
47.137524
47.039169
46.789234
46.388715
45.903695
45.444542
45.122317
45.000035
45.063826
45.249935
45.489680
45.745097
46.022031
46.337461
46.679658
46.995543
47.201593
47.224057
47.032715
46.632235
46.039114
45.265356
44.314468
43.198422
41.957717
40.669364
39.444017
38.403532
37.649021
37.222330
37.076331
37.085812
37.091798
36.989034
36.793248
36.610761
36.572780
36.773864
37.231167
37.885258
38.614896
39.264469
39.689465
39.829138
39.747242
39.563763
39.375501
39.255293
39.281503
39.549231
40.147477
41.089795
42.272496
43.544306
44.791602
45.951638
46.993811
47.899980
48.655919
49.257019
49.709165
50.010710
50.141732
50.090880
49.885532
49.586393
49.259496
48.931228
48.556955
48.039775
47.265193
46.130764
44.568417
42.560143
40.155186
37.483066
34.740431
32.113616
29.701953
27.515382
25.516201
23.692767
22.107552
20.853600
19.985787
19.481369
19.236377
19.123643
19.066225
19.085067
19.299398
19.833304
20.720226
21.898318
23.258795
24.726456
26.302503
27.995682
29.747187
31.446664
32.977001
34.233764
35.126713
35.578393
35.537415
35.015596
34.102094
32.898931
31.456079
29.784102
27.890007
25.790637
23.511693
21.086491
18.566345
16.046529
13.671566
11.573082
9.803027
8.327284
7.051918
5.871687
4.714086
3.556270
2.425153
1.375505
0.462400
-0.281004
-0.852817
-1.263636
-1.513781
-1.587756
-1.460697
-1.116340
-0.561890
0.174868
1.055942
2.043726
3.104205
4.196798
5.271385
6.295876
7.286995
8.311704
9.464894
10.819424
12.386553
14.127589
15.980110
17.873630
19.739160
21.519534
23.179588
24.705930
26.091986
27.303103
28.261593
28.900808
29.225306
29.308205
29.246269
29.084762
28.779685
28.276596
27.602720
26.868452
26.210544
25.693480
25.248133
24.740604
24.075336
23.251639
22.366174
21.533695
20.807825
20.174651
19.580153
18.967529
18.298464
17.538666
16.647614
15.608590
14.459958
13.281309
12.156983
11.132736
10.189493
9.267042
8.305343
7.286227
6.266162
5.376205
4.784760
4.595837
4.759505
5.090496
5.349377
5.370710
5.154205
4.818866
4.513141
4.345312
4.350882
4.521037
4.836797
5.269855
5.774905
6.302346
6.827036
7.384474
8.081947
9.036996
10.302579
11.838964
13.531853
15.275640
17.045388
18.878081
20.817552
22.863964
24.957890
27.036625
29.092915
31.168661
33.315990
35.548844
37.819698
40.060360
42.228029
44.303323
46.267942
48.087153
49.711575
51.113009
52.312603
53.358846
54.295778
55.157833
55.977971
56.795580
57.654183
58.578290
59.550443
60.510382
61.366015
62.014573
62.365677
62.361206
61.987596
61.272456
60.281880
59.123865
57.933325
56.807310
55.751034
54.709284
53.631766
52.526330
51.463469
50.484297
49.521391
48.442333
47.123814
45.481241
43.478737
41.143287
38.574715
35.920101
33.321814
