EVENT_NAME: None
EVENT_ID: INT-20230206_0000222
EVENT_DATE_YYYYMMDD: 20230206
EVENT_TIME_HHMMSS: 102449
EVENT_LATITUDE_DEGREE: 38.1100
EVENT_LONGITUDE_DEGREE: 37.2400
EVENT_DEPTH_KM: 10.0
HYPOCENTER_REFERENCE: EMSC-CSEM
MAGNITUDE_W: 7.5
MAGNITUDE_W_REFERENCE: EMSC-CSEM
MAGNITUDE_L: 
MAGNITUDE_L_REFERENCE: 
FOCAL_MECHANISM: Strike-slip faulting
NETWORK: TK
STATION_CODE: 4611
STATION_NAME: None
STATION_LATITUDE_DEGREE: 37.747200
STATION_LONGITUDE_DEGREE: 37.284260
STATION_ELEVATION_M: 1097
LOCATION: 
SENSOR_DEPTH_M: 0.0
VS30_M/S: 
SITE_CLASSIFICATION_EC8: B (inferred from topography)
MORPHOLOGIC_CLASSIFICATION: 
EPICENTRAL_DISTANCE_KM: 40.5
EARTHQUAKE_BACKAZIMUTH_DEGREE: 354.5
DATE_TIME_FIRST_SAMPLE_YYYYMMDD_HHMMSS: 20230206_102423.694
DATE_TIME_FIRST_SAMPLE_PRECISION: milliseconds
SAMPLING_INTERVAL_S: 0.005000
NDATA: 21000
DURATION_S: 105.000
STREAM: HNE
UNITS: cm/s^2
INSTRUMENT: HN
INSTRUMENT_ANALOG/DIGITAL: D
INSTRUMENTAL_FREQUENCY_HZ: 
INSTRUMENTAL_DAMPING: 
FULL_SCALE_G: 
N_BIT_DIGITAL_CONVERTER: 
PGA_CM/S^2: -136.184126
TIME_PGA_S: 46.590000
BASELINE_CORRECTION: BASELINE REMOVED
FILTER_TYPE: BUTTERWORTH
FILTER_ORDER: 2
LOW_CUT_FREQUENCY_HZ: 0.030
HIGH_CUT_FREQUENCY_HZ: 40.000
LATE/NORMAL_TRIGGERED: NT
DATABASE_VERSION: 0.5
HEADER_FORMAT: DYNA 1.2
DATA_TYPE: ACCELERATION
PROCESSING: manual (Paolucci et al., 2011)
DATA_TIMESTAMP_YYYYMMDD_HHMMSS: 20251106_221422.046
DATA_LICENSE: D (network default license)
DATA_CITATION: Luzi L., Lanzano G., Felicetta C., D Amico M. C., Russo E., Sgobba S., Pacor, F., & ORFEUS Working Group 5 (2020). Engineering Strong Motion Database (ESM) (Version 2.0). Istituto Nazionale di Geofisica e Vulcanologia (INGV). https://doi.org/10.13127/ESM.2
DATA_CREATOR: ESM working group
ORIGINAL_DATA_MEDIATOR_CITATION: afad
ORIGINAL_DATA_MEDIATOR: afad
ORIGINAL_DATA_CREATOR_CITATION: Disaster And Emergency Management Authority. (1973). Turkish National Strong Motion Network. Department of Earthquake, Disaster and Emergency Management Authority. https://doi.org/10.7914/SN/TK http://www.fdsn.org/networks/detail/TK/
ORIGINAL_DATA_CREATOR: network: TK (Turkish National Strong Motion Network (TNSMN)); owner: Disaster and Emergency Management Authority (AFAD)
USER1: 
USER2: 
USER3: 
USER4: 
USER5: 
[...]
-84.133472
-93.165238
-99.944642
-103.512375
-103.328487
-99.678937
-93.882749
-87.873088
-83.518972
-81.922623
-83.001721
-85.829108
-89.180135
-91.931798
-93.308427
-92.933126
-90.817734
-87.301384
-82.956234
-78.441546
-74.383329
-71.364018
-69.923828
-70.457910
-73.031270
-77.153928
-81.712097
-85.373201
-87.118352
-86.616326
-84.389755
-81.562585
-79.421834
-78.874202
-80.040410
-82.353189
-84.915594
-87.047749
-88.698843
-90.321164
-92.502069
-95.509971
-99.016613
-102.338451
-104.841721
-106.269810
-106.910147
-107.425698
-108.551549
-110.745354
-113.945269
-117.641713
-121.044636
-123.249852
-123.432214
-121.124097
-116.428072
-109.921502
-102.425768
-94.730115
-87.394482
-80.772012
-75.087281
-70.459587
-66.885413
-64.210066
-62.139708
-60.371903
-58.768044
-57.472022
-56.883708
-57.317244
-58.654371
-60.325107
-61.490911
-61.399322
-59.656656
-56.168591
-51.006583
-44.381060
-36.632323
-28.127515
-19.154832
-9.942741
-0.748276
8.025199
15.772471
21.822431
25.635823
26.991098
26.143157
23.871891
21.355758
19.689515
19.425114
20.537048
22.578682
24.925318
27.003939
28.451845
29.199419
29.386568
29.210881
28.760339
27.920412
26.487102
24.332643
21.495456
18.174295
14.579766
10.814295
6.952297
3.175696
-0.171924
-2.622950
-3.759373
-3.382552
-1.546734
1.476546
5.281866
9.410810
13.412439
16.911504
19.697434
21.770250
23.249586
24.271866
24.999427
25.687289
26.740592
28.670073
31.818505
36.102191
41.047352
45.986993
50.369351
54.007552
57.075837
59.977312
63.106180
66.628001
70.400944
73.997434
76.863463
78.487473
78.487798
76.669333
73.076309
68.027203
62.070427
55.890220
50.146738
45.305064
41.525833
38.662673
36.474536
34.833481
33.739997
33.309359
33.829356
35.722591
39.169446
43.726546
48.321643
51.454423
51.588668
47.596936
39.160249
26.977616
12.461810
-2.739528
-17.166689
-29.767220
-39.751659
-46.546133
-50.219528
-51.784418
-52.652061
-53.908537
-56.013538
-58.741330
-61.297353
-62.513437
-61.211142
-56.628009
-48.775870
-38.569803
-27.403495
-16.632539
-7.342275
-0.289081
4.037782
5.386843
3.830344
-0.183339
-5.959688
-12.671623
-19.304796
-24.699687
-27.992778
-29.015175
-28.127602
-25.841988
-22.509604
-18.208177
-13.019804
-7.362835
-2.075869
1.697809
2.882575
0.840631
-4.477941
-12.488717
-22.035202
-31.570596
-39.571138
-44.898128
-46.807822
-44.877189
-39.089088
-30.037942
-19.126336
-8.463368
-0.033251
5.137789
7.085927
6.708161
5.453099
4.955191
6.526062
10.725117
17.346889
25.608250
34.485313
43.052393
50.714577
57.325843
63.085493
68.377558
73.612404
79.028983
84.438342
89.132258
92.280520
93.348753
92.115725
88.601365
83.139222
76.385163
68.991586
61.323889
53.638898
46.361709
40.078351
35.298000
32.023492
29.529725
26.833460
23.276126
18.722862
13.571092
8.645451
4.997857
3.493943
4.419371
7.410709
11.612483
16.107938
20.325508
24.095475
27.454172
30.205797
31.684143
31.218716
28.698756
24.650405
20.018688
15.722966
12.272584
9.698484
7.621293
5.420414
2.466585
-1.562549
-6.468249
-11.698305
-16.645403
-20.898033
-24.361612
-27.136001
-29.382833
-31.348664
-33.380955
-35.743451
-38.383724
-40.856258
-42.437693
-42.549721
-41.124409
-38.523094
-35.294830
-31.971212
-28.954411
-26.539134
-24.921135
-24.107075
-23.891316
-24.099996
-24.828199
-26.367148
-29.009453
-32.879542
-37.858552
-43.695966
-50.155636
-57.069496
-64.303952
-71.610165
-78.492529
-84.238508
-88.028961
-89.130658
-87.138334
-82.230655
-75.265948
-67.411670
-59.663085
-52.559725
-46.119680
-40.108603
-34.316653
-28.606761
-22.936970
-17.535235
-13.049603
-10.396312
-10.443602
-13.613955
-19.629062
-27.710057
-36.930566
-46.493610
-55.806125
-64.197507
-70.722258
-74.480270
-75.000626
-72.256439
-66.550737
-58.471092
-48.875548
-38.836151
-29.583385
-22.472949
-18.870430
-19.786529
-25.490481
-35.367000
-47.972579
-61.404625
-73.754041
-83.485479
-89.661178
-91.815206
-89.728745
-83.314404
-72.706706
-58.674428
-42.869471
-27.353667
-13.995286
-4.240428
0.955355
1.210973
-3.177847
-11.232177
-21.415405
-32.008441
-41.493481
-48.740166
-53.126218
-54.650792
-53.969356
-52.151677
-50.333893
-49.395397
-49.779568
-51.641510
-55.034088
-59.890609
-65.913356
-72.455314
-78.453183
-82.533899
-83.284415
-79.782213
-72.076779
-61.214049
-48.948227
-37.104221
-27.041491
-19.642274
-15.399773
-14.306127
-15.771733
-18.905016
-22.866071
-26.975914
-30.613682
-32.946438
-32.925721
-30.034864
-24.967159
-19.306480
-14.798255
-12.602438
-12.777246
-14.350984
-15.708109
-15.300257
-12.305263
-6.811872
0.335427
8.091096
15.647923
22.279213
27.085843
29.140834
27.868441
23.513492
17.402052
11.541021
7.944829
7.910001
11.523360
17.825487
25.209057
31.865754
36.181494
37.035859
34.069828
27.866864
19.963743
12.406902
7.138813
5.402089
7.346191
12.177486
18.532324
24.938929
30.167732
33.265978
33.525215
30.578230
24.588980
16.432141
7.651295
-0.134771
-5.862094
-9.181672
-10.365768
-10.035992
-8.912677
-7.690862
-6.926071
-6.858323
-7.302604
-7.833499
-8.086524
-8.019299
-7.980481
-8.343609
-9.103059
-9.825273
-9.838999
-8.656189
-6.321622
-3.344216
-0.392795
2.183568
4.693227
7.882117
12.466538
18.615286
25.682833
32.607961
38.443603
42.594234
44.858172
45.292932
44.058499
41.314907
37.170482
31.709422
25.039796
17.333157
8.851536
-0.048425
-8.926505
-17.277348
-24.513681
-29.928461
-32.821958
-33.018950
-31.265953
-28.916314
-27.441880
-28.176029
-32.130192
-39.720656
-50.548377
-63.509111
-77.055752
-89.507290
-99.243814
-104.661325
-104.220154
-96.970197
-83.163714
-64.481430
-43.843893
-24.551281
-9.431185
-0.530626
1.112375
-4.061113
-13.859472
-25.027045
-34.278318
-39.232645
-39.005602
-34.029725
-25.620354
-15.475193
-5.154861
4.363934
12.752070
19.521354
23.365364
22.781552
17.120359
7.244109
-4.508392
-15.594866
-24.485168
-30.574711
-33.601926
-33.222627
-29.027713
-21.303616
-11.663856
-2.589364
3.488875
5.139875
2.549040
-2.777689
-8.754199
-13.732911
-17.214760
-19.496655
-20.953696
-21.442823
-20.078761
-15.799088
-8.119788
2.414561
14.201899
25.322798
34.372451
40.787420
44.796094
46.936724
47.621156
47.131779
45.722790
43.571079
40.694995
37.009133
32.434800
26.984103
20.790020
14.062165
7.083187
0.330126
-5.479249
-9.655824
-11.830334
-11.983721
-10.395606
-7.643340
-4.595059
-2.257717
-1.529779
-2.879214
-6.102738
-10.404844
-14.638877
-17.665250
-18.644142
-17.093588
-12.912833
-6.492164
1.238101
9.055446
15.768630
20.436585
22.507409
21.859308
18.787362
13.923152
8.186142
2.806801
-0.775884
-1.404676
1.312934
6.953564
14.408192
22.093783
28.229467
31.271458
30.322025
25.273447
16.803018
6.173775
-5.083275
-15.624126
-24.636097
-31.733318
-36.692940
-39.246763
-39.049461
-36.002957
-30.611291
-24.018637
-17.776899
-13.271431
-11.249358
-11.918259
-15.216542
-20.947799
-28.764556
-37.999418
-47.575282
-56.235545
-62.829202
-66.455634
-66.607146
-63.421388
-57.823645
-51.201702
-44.935630
-40.035260
-36.944836
-35.666832
-35.992930
-37.698991
-40.570155
-44.105997
-47.332673
-49.182376
-48.960094
-46.459605
-41.938167
-36.043232
-29.598009
-23.077349
-16.263022
-8.666357
-0.050542
9.532947
19.848769
30.435820
40.587554
49.595804
56.985000
62.441239
65.682516
66.507011
64.916429
61.216517
56.077090
50.469173
45.440605
41.667683
39.232005
38.106563
38.549841
40.633668
43.742728
46.915702
49.392666
50.709364
50.461099
47.850476
41.497155
30.101888
13.311867
-7.794174
-30.618686
-51.668875
-67.461328
-75.567562
-75.500935
-68.877981
-58.929261
-49.003725
-41.218454
-36.407461
-34.510547
-34.865537
-36.433418
-38.139791
-39.222838
-39.361474
-38.598047
-37.008470
-34.530218
-31.329275
-28.073091
-25.441176
-23.536518
-21.884683
-19.726811
-16.443925
-11.943059
-6.849778
-2.495085
-0.486013
-2.169300
-8.117687
-17.573527
-28.049156
-35.694858
-37.436812
-32.908782
-24.030165
-13.734443
-4.854986
0.651242
1.920707
-1.042692
-8.182361
-19.803409
-35.563825
-53.537289
-70.895307
-85.003328
-93.869768
-96.238031
-91.571322
-80.059355
-62.645344
-41.082567
-17.926079
3.775286
21.422867
33.628335
39.943530
40.501585
36.343162
29.678769
23.183447
19.125381
19.050622
23.597782
32.176949
42.985094
54.078124
64.376139
73.471229
81.181269
87.583780
93.018892
97.479403
100.140037
99.899665
96.023551
88.142330
76.347098
61.984650
47.905214
36.624752
28.543806
22.598302
17.901457
15.048732
16.158154
22.520017
32.674284
43.705540
53.107000
58.967335
59.798085
55.245628
46.597935
35.677818
23.679346
11.475163
0.147646
-9.400528
-16.877550
-22.111746
-24.531810
-23.583036
-19.307804
-12.331148
-3.661473
5.336636
12.980889
17.648926
18.280677
14.734725
7.822284
-1.299454
-11.703117
-22.605029
-33.093618
-42.100327
-48.565765
-51.700843
-51.025598
-45.975964
-35.886262
-21.182457
-4.304785
11.351351
22.989319
29.137450
29.745102
25.641791
17.969863
7.980062
-3.002987
-13.598348
-22.520311
-28.966708
-32.870781
-34.559695
-34.291483
-32.101877
-27.875887
-21.631144
-13.753953
-4.939123
4.002297
12.364121
19.661399
25.517510
29.594117
31.798217
32.445015
32.019295
30.877693
29.232748
27.264825
25.220154
23.406565
22.037754
21.189175
21.137042
22.653610
26.749163
34.179905
44.966389
58.132722
71.986522
84.554786
93.914069
98.347957
96.311030
86.596103
69.103702
45.489099
18.759447
-7.609469
-30.655276
-48.503886
-59.937275
-63.869643
-59.549084
-47.079478
-27.844248
-4.519545
19.769186
42.306568
60.907772
73.798916
79.678497
77.941953
68.998413
54.467159
36.915423
19.326512
4.333833
-6.373062
-11.987359
-12.334354
-7.729074
1.093118
13.037663
26.696575
40.364307
52.132574
60.277504
63.781576
62.812976
58.882173
54.161983
50.621872
49.479947
50.919245
54.209539
58.064093
61.259394
63.092099
63.191908
61.214255
56.875527
50.190315
41.746788
32.751289
24.487913
17.723998
12.614189
8.964068
6.820912
6.828384
9.704328
15.532203
23.506758
32.078101
39.621153
45.116079
48.364896
49.882675
50.393511
50.325428
49.656920
47.996787
44.916373
40.248882
34.100612
26.745615
18.508372
9.700324
0.686708
-7.985637
-15.487093
-20.789264
-23.154483
-22.552678
-19.509677
-14.837677
-9.602153
-5.117752
-2.683311
-3.205945
-6.891745
-13.133466
-20.854736
-28.965852
-36.673748
-43.627712
-49.754158
-54.932611
-58.586773
-59.497344
-56.308530
-48.239049
-35.580507
-19.834953
-3.149407
12.359531
24.950952
33.427494
37.228724
36.564137
32.559111
27.201949
22.705774
20.730547
21.873987
25.485325
30.109126
34.164440
36.632225
37.451325
37.155122
36.323379
35.281747
34.044814
32.549600
30.829657
28.821720
26.110814
21.960503
15.585395
6.672336
-4.283014
-16.334834
-28.590007
-40.408781
-51.444039
-61.525565
-70.334662
-76.786697
-78.821577
-74.546747
-63.539813
-47.113585
-27.927841
-9.006622
7.174652
18.985517
25.651805
27.103055
23.835081
16.862113
7.695159
-1.790472
-9.708089
-14.884700
-17.382161
-18.110031
-18.229370
-18.836966
-20.688431
-23.741275
-26.900787
-28.592452
-27.539945
-23.228932
-16.092999
-7.297914
1.631181
9.282157
14.741167
17.654874
18.153144
16.697892
13.959108
10.761952
8.004377
6.445321
6.510548
8.297424
11.660271
16.273603
21.594019
26.714685
30.453963
32.056823
31.735845
30.176914
27.817918
24.656257
20.433233
15.125397
9.291868
3.823491
-0.479373
-3.160133
-4.157508
-3.553830
-1.294560
2.879155
9.327378
18.202610
29.188626
41.556650
54.358910
66.644348
77.570166
86.309523
92.035698
94.262629
93.175924
89.535756
84.398588
78.793685
73.425979
68.485901
63.621835
58.284844
52.154665
45.397388
38.734081
33.176970
29.686504
28.887874
30.834235
34.875319
39.697604
43.779414
45.946412
45.731585
43.457661
39.798731
35.287213
30.167725
24.463352
18.198391
11.539737
4.663000
-2.374590
-9.500142
-16.482321
-23.037197
-28.964996
-34.088788
-38.130993
-40.656243
-41.058592
-38.619848
-32.674728
-22.960787
-9.861731
5.800997
23.047302
40.771456
57.709379
72.514813
83.848945
90.433044
91.248500
86.112944
76.125320
63.335100
50.146638
38.794646
30.946458
27.527999
28.720719
34.225386
43.482468
55.577011
69.122869
82.455140
93.973238
102.490409
107.411700
108.538474
105.921492
100.092796
92.190356
83.408581
74.376136
65.111073
55.300209
44.777196
33.882588
23.360270
14.038412
6.423370
0.459168
-4.232858
-8.003471
-10.986701
-13.022297
-13.702947
-12.512480
-9.127502
-3.713222
2.989101
9.732466
15.072978
17.736787
16.915124
12.429804
4.601618
-5.996432
-18.813323
-33.507454
-49.845647
-67.417442
-85.224691
-101.531847
-114.435690
-122.400645
-124.124457
-118.461820
-105.168739
-85.675310
-62.897556
-40.504606
-21.837922
-9.110296
-3.541135
-5.688568
-15.421065
-31.730220
-52.678696
-75.594429
-97.672433
-116.485478
-129.938139
-136.184126
-134.025108
-123.451103
-105.883489
-84.022375
-61.017495
-39.669425
-22.296742
-10.793554
-6.456390
-9.623070
-19.260975
-32.856452
-47.131173
-58.894962
-65.516130
-65.276429
-57.799332
-44.335185
-27.379089
-9.920866
5.549195
17.744806
26.343868
31.536181
33.859739
34.119412
33.160037
31.681286
30.339060
29.832453
30.671695
32.917450
36.223309
40.028585
43.818546
47.349454
50.722268
54.327412
58.583740
63.678864
69.493096
75.593950
81.279962
85.726108
88.342426
89.045989
88.096374
85.844546
82.674797
79.002523
75.181594
71.395566
67.647778
63.811505
59.732147
55.326337
50.643937
45.921928
41.617038
38.357995
36.699608
36.870970
38.719263
41.763405
45.332695
48.686861
51.056093
51.693959
50.038132
45.875340
39.388017
31.139132
22.005061
13.090281
5.565882
0.389546
-2.137998
-2.629363
-2.199156
-1.917040
-2.583759
-4.728371
-8.776934
-15.147726
-24.043667
-35.167022
-47.585164
-59.792791
-70.095805
-76.963201
-79.063962
-75.314224
-65.289385
-49.719469
-30.651736
-11.176969
5.557896
17.168553
21.870733
18.286678
6.081409
-13.389410
-37.434765
-62.813473
-86.540918
-106.445277
-121.153138
-129.906562
-132.424767
-128.838664
-119.725472
-106.202068
-90.026716
-73.520863
-59.019356
-48.294149
-42.350717
-41.339910
-44.440184
-49.849170
-55.231365
-58.358220
-57.769208
-53.248184
-45.740006
-36.965133
-28.747768
-22.427676
-18.716697
-17.713173
-18.937172
-21.386842
-23.768679
-24.882779
-24.162977
-22.009508
-19.391581
-17.239468
-16.012343
-15.483304
-14.908428
-13.368972
-10.234679
-5.512969
0.221949
6.064434
11.032767
14.218652
14.754028
11.880441
5.420298
-3.765558
-13.887955
-22.734393
-28.587688
-30.980551
-30.606967
-28.851885
-27.116983
-26.233179
-26.245753
-26.442132
-25.735839
-23.154996
-18.280397
-11.504618
-3.825184
3.560421
9.763527
14.633068
18.803706
23.399819
29.238310
36.182284
43.367574
49.708658
54.273054
56.504748
56.251154
53.674832
49.013605
42.396233
33.972982
24.197122
14.083061
5.162874
-1.241498
-4.687612
-5.455720
-4.120214
-1.288562
2.460299
6.435887
9.785979
11.829876
12.463025
12.263373
12.272610
13.295826
15.316917
17.699824
19.708153
21.002581
21.838821
22.619953
23.416568
24.002472
24.089094
23.503183
22.242208
20.350465
17.796363
14.504131
10.444687
5.708100
0.527642
-4.799569
-10.036111
-15.135778
-20.313518
-25.929584
-32.296971
-39.479778
-47.172812
-54.811726
-61.773217
-67.586317
-72.068456
-75.246422
-77.177306
-77.726069
-76.433865
-72.689617
-66.044535
-56.576278
-45.102726
-32.946965
-21.559228
-12.183180
-5.616410
-2.157548
-1.653403
-3.627573
-7.320836
-11.496001
-14.323362
-13.777515
-8.262117
2.767684
18.479902
37.115876
56.644591
75.191563
91.189355
103.140732
109.462054
108.900291
101.168337
87.419258
70.263926
52.798532
37.550572
26.125832
19.147825
16.305248
16.555364
18.745639
22.196898
26.705808
32.255389
38.598586
45.032162
50.691593
54.887430
57.081578
56.788157
53.670498
47.678389
39.027851
28.102629
15.369569
1.398774
-12.917150
-26.212487
-36.909090
-43.649774
-45.726818
-43.324712
-37.277409
-28.658742
-18.421926
-7.239171
4.221056
14.949930
23.574856
28.672676
29.520157
26.605970
21.115076
14.172867
6.544621
-1.279114
-8.636891
-14.481333
-17.998485
-19.301829
-19.365586
-19.446331
-20.178327
-21.205758
-22.284386
-24.258990
-28.299000
-34.726357
-42.762821
-50.987910
-58.408707
-65.137047
-71.637551
-77.772062
-82.777074
-85.733408
-86.196922
-84.553641
-81.646893
-78.283235
-75.098840
-72.597910
-71.189446
-71.124638
-72.274081
-73.963115
-75.146763
-74.741072
-71.985824
-66.649710
-58.793373
-48.392501
-35.118040
-18.468908
1.468562
23.463460
45.679746
66.417066
84.309334
98.366182
108.157071
113.833377
115.589821
113.310090
107.160731
98.118723
87.459736
76.254126
65.840228
58.177617
54.875861
56.150819
61.085372
68.398992
77.049891
86.428009
95.862133
104.143090
109.684609
110.888175
106.462458
95.841532
79.824956
60.820274
41.780083
24.975991
11.653995
2.107488
-4.104530
-7.960384
-10.770013
-13.912752
-18.425626
-24.551807
-31.474862
-37.430001
-40.605374
-40.027622
-35.636528
-28.029876
-18.162383
-7.101739
4.125089
14.597830
23.412836
29.619622
32.384037
31.239091
26.317206
18.500360
9.283124
0.349766
-7.222309
-13.455671
-18.854102
-23.649222
-27.786919
-31.183678
-33.851928
-35.917442
-37.584361
-39.062986
-40.444465
-41.668246
-42.711125
-43.638103
-44.150462
-43.234163
-39.627313
-32.538762
-22.113276
-9.568852
3.217115
14.224849
21.638373
24.104205
20.925675
12.147295
-1.632168
-19.458147
-39.991604
-61.401107
-81.398586
-97.550064
-108.094572
-112.666574
-112.178959
-108.261360
-102.425189
-95.477262
-87.779908
-79.760539
-72.201836
-66.204564
-62.639937
-61.666121
-62.847852
-65.428348
-68.433604
-70.783248
-71.630316
-70.647625
-67.907049
-63.669639
-58.346169
-52.510724
-46.836428
-42.011465
-38.699587
-37.490213
-38.762541
-42.537930
-48.410969
-55.544741
-62.742655
-68.497943
-71.040777
-68.622550
-60.327584
-46.671736
-29.111982
-9.327797
11.009832
30.246718
46.800112
59.322854
66.994621
69.771208
68.365551
64.051940
58.245680
52.071372
46.162744
40.723260
36.002630
32.684054
31.601743
33.159320
36.771941
40.731374
43.029231
42.162117
37.076913
27.023334
12.039157
-6.503892
-26.059517
-43.500799
-56.020560
-61.772703
-59.725584
-49.545356
-32.152127
-10.095458
13.336035
35.291682
53.826598
67.728643
75.695670
75.997923
67.789857
52.413207
