EVENT_NAME: None
EVENT_ID: INT-20230206_0000222
EVENT_DATE_YYYYMMDD: 20230206
EVENT_TIME_HHMMSS: 102449
EVENT_LATITUDE_DEGREE: 38.1100
EVENT_LONGITUDE_DEGREE: 37.2400
EVENT_DEPTH_KM: 10.0
HYPOCENTER_REFERENCE: EMSC-CSEM
MAGNITUDE_W: 7.5
MAGNITUDE_W_REFERENCE: EMSC-CSEM
MAGNITUDE_L: 
MAGNITUDE_L_REFERENCE: 
FOCAL_MECHANISM: Strike-slip faulting
NETWORK: TK
STATION_CODE: 4617
STATION_NAME: None
STATION_LATITUDE_DEGREE: 37.585510
STATION_LONGITUDE_DEGREE: 36.830300
STATION_ELEVATION_M: 544
LOCATION: 
SENSOR_DEPTH_M: 0.0
VS30_M/S: 
SITE_CLASSIFICATION_EC8: B (inferred from topography)
MORPHOLOGIC_CLASSIFICATION: 
EPICENTRAL_DISTANCE_KM: 68.5
EARTHQUAKE_BACKAZIMUTH_DEGREE: 31.6
DATE_TIME_FIRST_SAMPLE_YYYYMMDD_HHMMSS: 20230206_102433.522
DATE_TIME_FIRST_SAMPLE_PRECISION: milliseconds
SAMPLING_INTERVAL_S: 0.005000
NDATA: 21000
DURATION_S: 105.000
STREAM: HNZ
UNITS: cm/s^2
INSTRUMENT: HN
INSTRUMENT_ANALOG/DIGITAL: D
INSTRUMENTAL_FREQUENCY_HZ: 
INSTRUMENTAL_DAMPING: 
FULL_SCALE_G: 
N_BIT_DIGITAL_CONVERTER: 
PGA_CM/S^2: -54.477787
TIME_PGA_S: 52.400000
BASELINE_CORRECTION: BASELINE REMOVED
FILTER_TYPE: BUTTERWORTH
FILTER_ORDER: 2
LOW_CUT_FREQUENCY_HZ: 0.020
HIGH_CUT_FREQUENCY_HZ: 40.000
LATE/NORMAL_TRIGGERED: NT
DATABASE_VERSION: 0.5
HEADER_FORMAT: DYNA 1.2
DATA_TYPE: ACCELERATION
PROCESSING: manual (Paolucci et al., 2011)
DATA_TIMESTAMP_YYYYMMDD_HHMMSS: 20251106_221423.362
DATA_LICENSE: D (network default license)
DATA_CITATION: Luzi L., Lanzano G., Felicetta C., D Amico M. C., Russo E., Sgobba S., Pacor, F., & ORFEUS Working Group 5 (2020). Engineering Strong Motion Database (ESM) (Version 2.0). Istituto Nazionale di Geofisica e Vulcanologia (INGV). https://doi.org/10.13127/ESM.2
DATA_CREATOR: ESM working group
ORIGINAL_DATA_MEDIATOR_CITATION: afad
ORIGINAL_DATA_MEDIATOR: afad
ORIGINAL_DATA_CREATOR_CITATION: Disaster And Emergency Management Authority. (1973). Turkish National Strong Motion Network. Department of Earthquake, Disaster and Emergency Management Authority. https://doi.org/10.7914/SN/TK http://www.fdsn.org/networks/detail/TK/
ORIGINAL_DATA_CREATOR: network: TK (Turkish National Strong Motion Network (TNSMN)); owner: Disaster and Emergency Management Authority (AFAD)
USER1: 
USER2: 
USER3: 
USER4: 
USER5: 
[...]
-17.934952
-18.026944
-17.063775
-15.557731
-14.252737
-13.787710
-14.427583
-16.109966
-18.609443
-21.683229
-25.114469
-28.574228
-31.528018
-33.435304
-34.036401
-33.519148
-32.507173
-31.726005
-31.652584
-32.422302
-33.867957
-35.647027
-37.375425
-38.732589
-39.530384
-39.703090
-39.264924
-38.253218
-36.691867
-34.614673
-32.102526
-29.303449
-26.445932
-23.837268
-21.815599
-20.596112
-20.128515
-20.109617
-20.085715
-19.639425
-18.567705
-16.953181
-15.148392
-13.612932
-12.708606
-12.538880
-12.895062
-13.436028
-13.897355
-14.153387
-14.191428
-14.022774
-13.616380
-12.926403
-11.941190
-10.698728
-9.287019
-7.845153
-6.558972
-5.627818
-5.214793
-5.385982
-6.063542
-7.037076
-8.015120
-8.725373
-9.002460
-8.801247
-8.186947
-7.332812
-6.518548
-6.082006
-6.301427
-7.179813
-8.318524
-9.144768
-9.251719
-8.636354
-7.740900
-7.114044
-7.047502
-7.508537
-8.226410
-8.864661
-9.157224
-8.919564
-8.034350
-6.481849
-4.378033
-1.961983
0.450956
2.554287
4.138784
5.152807
5.731410
6.149867
6.726786
7.673960
8.988743
10.514831
12.058497
13.470804
14.658290
15.483722
15.715302
15.192226
14.011559
12.517902
11.159921
10.236228
9.722819
9.403945
9.082168
8.678894
8.216203
7.652933
6.776845
5.368407
3.431381
1.277911
-0.558198
-1.660972
-2.007845
-1.845459
-1.444914
-0.967220
-0.461442
-0.031853
0.039620
-0.573920
-2.052397
-4.352715
-7.218176
-10.279191
-13.168527
-15.610303
-17.483254
-18.831186
-19.834792
-20.713029
-21.603707
-22.473030
-23.094809
-23.190346
-22.599542
-21.359942
-19.683709
-17.785313
-15.744832
-13.590103
-11.424346
-9.433494
-7.807759
-6.606050
-5.688498
-4.861164
-4.048293
-3.316392
-2.809550
-2.624429
-2.719081
-2.955440
-3.193386
-3.383000
-3.611617
-4.040869
-4.810719
-5.960988
-7.387031
-8.866480
-10.114210
-10.863229
-10.961216
-10.465257
-9.669001
-8.943021
-8.538873
-8.501385
-8.688746
-8.948334
-9.278553
-9.814134
-10.740610
-12.198451
-14.203891
-16.610383
-19.109190
-21.318135
-22.909740
-23.745659
-23.948963
-23.796939
-23.556039
-23.353664
-23.136923
-22.807509
-22.373852
-21.967652
-21.761338
-21.797286
-21.888335
-21.775635
-21.339917
-20.677118
-20.057254
-19.738386
-19.793706
-20.104158
-20.435731
-20.579240
-20.484182
-20.308205
-20.367900
-20.909987
-21.883936
-22.919864
-23.454393
-23.027899
-21.543587
-19.259902
-16.648625
-14.169761
-12.099790
-10.548993
-9.532093
-8.995927
-8.804040
-8.704863
-8.370698
-7.607801
-6.534125
-5.479351
-4.767242
-4.502810
-4.481276
-4.380884
-3.995007
-3.296678
-2.408332
-1.505505
-0.722093
-0.104284
0.389398
0.810336
1.134823
1.243233
0.958144
0.166313
-1.071371
-2.524382
-3.853050
-4.708652
-4.833618
-4.131824
-2.704098
-0.810916
1.188403
2.908844
4.029408
4.409150
4.167638
3.615078
3.099083
2.798266
2.591592
2.183477
1.315421
-0.060515
-1.711498
-3.275655
-4.468576
-5.206851
-5.613844
-5.821469
-5.775302
-5.254491
-4.013789
-2.002471
0.493679
2.979512
4.972545
6.201740
6.715482
6.782695
6.723813
6.751391
6.876844
6.970433
6.862809
6.423595
5.618802
4.541770
3.417877
2.535245
2.127144
2.217727
2.533785
2.644421
2.185035
1.055616
-0.495888
-2.057141
-3.291104
-4.058680
-4.428548
-4.531509
-4.419798
-4.069535
-3.438327
-2.516935
-1.355043
-0.046232
1.292510
2.533058
3.563213
4.356779
5.027923
5.784453
6.829331
8.242043
9.912190
11.621412
13.153340
14.337375
15.057803
15.257874
14.962996
14.324104
13.615365
13.102716
12.921105
13.106871
13.682327
14.700096
16.225237
18.229052
20.513486
22.794903
24.827288
26.460628
27.646058
28.381225
28.654273
28.434404
27.694175
26.461848
24.857839
23.062091
21.256989
19.582053
18.121874
16.955511
16.196463
15.949189
16.239367
16.969549
17.910783
18.766767
19.269880
19.285242
18.869684
18.199525
17.458681
16.760902
16.135620
15.618498
15.313656
15.303151
15.554294
15.979428
16.536473
17.243352
18.099888
18.920258
19.282869
18.847494
17.688052
16.261074
15.169515
14.816229
15.197023
16.110000
17.423429
19.094666
21.076347
23.231654
25.325160
27.146561
28.614372
29.711468
30.385340
30.537818
30.068594
28.950146
27.288300
25.319200
23.366058
21.746977
20.684399
20.264457
20.429080
21.010131
21.773141
22.466120
22.884469
22.960158
22.811062
22.651467
22.666713
22.937591
23.418397
23.988843
24.499098
24.750750
24.487250
23.482019
21.652283
19.117507
16.189456
13.250310
10.637171
8.629922
7.449759
7.185255
7.717617
8.758572
9.972881
11.173070
12.424806
13.860728
15.450039
16.959220
18.040383
18.428542
18.095150
17.205136
16.010701
14.765781
13.666314
12.821134
12.247151
11.909203
11.758454
11.729413
11.728800
11.653821
11.433869
11.081377
10.697584
10.363179
10.036623
9.595892
8.943231
8.107805
7.282049
6.702312
6.507686
6.697913
7.160566
7.768852
8.469109
9.281302
10.255124
11.403462
12.664912
13.945124
15.155411
16.170486
16.769152
16.648038
15.522854
13.352176
10.495392
7.564043
5.164901
3.686336
3.205157
3.625968
4.829182
6.639408
8.740639
10.676780
11.949419
12.247122
11.634610
10.494230
9.348544
8.620266
8.444444
8.672324
8.972203
9.012535
8.629815
7.875412
6.969142
6.127482
5.409933
4.731952
3.955557
3.001901
1.905743
0.730058
-0.514906
-1.813999
-3.061076
-4.061679
-4.598423
-4.543921
-3.933964
-2.909211
-1.642839
-0.350591
0.686112
1.171311
0.891417
-0.165349
-1.732488
-3.339405
-4.463103
-4.738825
-4.136225
-2.962828
-1.739730
-0.911831
-0.594873
-0.592228
-0.554111
-0.231001
0.341846
0.914412
1.183027
0.947006
0.214710
-0.810710
-1.815128
-2.541875
-2.955148
-3.282565
-3.936378
-5.239979
-7.174352
-9.379516
-11.293705
-12.395660
-12.409551
-11.336894
-9.416861
-7.041092
-4.641942
-2.542561
-0.849047
0.492711
1.580253
2.451073
3.038936
3.252663
3.063038
2.503425
1.643570
0.582086
-0.561156
-1.681620
-2.722704
-3.660900
-4.473242
-5.115577
-5.528360
-5.687967
-5.637824
-5.430409
-5.064168
-4.501164
-3.716422
-2.736480
-1.650969
-0.574723
0.396159
1.200077
1.810525
2.230778
2.496475
2.693825
2.967505
3.475728
4.315082
5.435353
6.603888
7.508171
7.881033
7.555337
6.486135
4.766701
2.643730
0.497091
-1.236843
-2.245943
-2.498954
-2.218623
-1.763455
-1.453654
-1.428359
-1.631117
-1.862324
-1.888495
-1.536322
-0.709205
0.618854
2.393508
4.458658
6.551630
8.347206
9.603777
10.296191
10.600064
10.802163
11.162702
11.790279
12.597679
13.329914
13.714094
13.621398
13.130214
12.496681
11.997253
11.802394
12.022776
12.761967
14.018595
15.568059
16.996693
17.856448
17.934672
17.425929
16.749201
16.291132
16.302486
16.881364
17.995033
19.488899
21.083457
22.421838
23.247086
23.554849
23.536545
23.439190
23.425478
23.485623
23.470153
23.169475
22.415379
21.173077
19.577931
17.906859
16.428097
15.252576
14.317185
13.446969
12.483359
11.384630
10.199371
8.990043
7.758056
6.412548
4.842270
3.011469
1.008675
-0.965832
-2.714833
-4.152752
-5.301568
-6.239195
-7.043155
-7.760220
-8.424202
-9.063451
-9.651163
-10.070860
-10.192694
-9.990023
-9.618694
-9.405607
-9.648380
-10.407939
-11.479935
-12.476691
-13.007411
-12.828595
-11.848681
-10.093592
-7.700038
-4.906573
-1.985410
0.844327
3.470034
5.884239
8.081318
9.959191
11.334769
12.011134
11.861825
10.895325
9.258114
7.204553
5.027031
2.976360
1.194332
-0.324362
-1.690926
-3.041098
-4.430135
-5.765553
-6.867853
-7.580658
-7.868896
-7.844926
-7.635702
-7.246655
-6.581263
-5.545077
-4.185625
-2.761859
-1.606470
-0.939422
-0.767676
-0.874609
-0.949884
-0.741908
-0.142073
0.793158
1.912623
3.053535
4.082220
4.909596
5.492643
5.847304
6.076538
6.357643
6.812711
7.382250
7.846217
7.935769
7.509885
6.664236
5.613222
4.521865
3.435252
2.284496
0.978971
-0.495053
-2.033127
-3.420999
-4.427029
-4.922497
-4.979068
-4.887515
-4.990846
-5.491126
-6.379192
-7.459415
-8.489519
-9.314271
-9.889058
-10.256466
-10.505538
-10.731260
-10.992726
-11.274756
-11.477126
-11.442021
-11.056120
-10.350780
-9.514931
-8.852535
-8.676612
-9.197218
-10.445304
-12.226013
-14.140456
-15.672541
-16.387225
-16.115350
-14.974984
-13.290477
-11.413629
-9.581289
-7.938910
-6.601731
-5.653677
-5.118449
-4.952371
-5.074919
-5.448674
-6.121921
-7.137150
-8.434572
-9.878069
-11.321887
-12.645302
-13.752034
-14.539305
-14.896533
-14.789868
-14.329486
-13.705204
-13.092265
-12.610464
-12.302465
-12.104159
-11.832223
-11.254529
-10.207256
-8.725672
-7.095700
-5.686784
-4.750151
-4.350616
-4.392888
-4.745013
-5.350777
-6.231396
-7.428283
-8.909394
-10.507643
-11.969394
-13.035762
-13.503282
-13.257664
-12.275838
-10.638447
-8.573340
-6.461878
-4.702799
-3.537051
-2.937029
-2.590751
-2.074907
-1.069430
0.506591
2.454206
4.424754
6.084276
7.218920
7.792334
7.934809
7.898615
7.966068
8.347437
9.104690
10.121650
11.174179
12.016531
12.428052
12.252964
11.460638
10.187938
8.689363
7.239573
6.015915
5.030953
4.206491
3.469834
2.766647
2.021688
1.080844
-0.287196
-2.235793
-4.686463
-7.352999
-9.873221
-12.014060
-13.797626
-15.367242
-16.798042
-18.024379
-18.855301
-19.079926
-18.567041
-17.288717
-15.321882
-12.856723
-10.186910
-7.627354
-5.414921
-3.646864
-2.261301
-1.099192
-0.000541
1.087295
2.037239
2.594696
2.502441
1.680893
0.342864
-1.121481
-2.333393
-3.076688
-3.375314
-3.432338
-3.538511
-4.000187
-5.054116
-6.733725
-8.778847
-10.740923
-12.172723
-12.825052
-12.750396
-12.168137
-11.280576
-10.194370
-8.929583
-7.528692
-6.153173
-5.058163
-4.504423
-4.634879
-5.384274
-6.507480
-7.659879
-8.505581
-8.810996
-8.485374
-7.600218
-6.381618
-5.163106
-4.247421
-3.759381
-3.594492
-3.470904
-3.141745
-2.574985
-1.892723
-1.220788
-0.564527
0.229178
1.342174
2.844812
4.680533
6.702856
8.727110
10.593724
12.252521
13.806063
15.411004
17.140269
18.906375
20.478119
21.657535
22.436310
22.941647
23.298565
23.510998
23.431629
22.916370
21.989775
20.849638
19.771133
18.934368
18.307320
17.733418
17.076676
16.313527
15.565948
15.039829
14.923607
15.269461
15.918247
16.569747
16.919187
16.811319
16.321200
15.638836
14.923783
14.264791
13.687098
13.166093
12.636811
12.014762
11.234060
10.305001
9.341713
8.488863
7.826697
7.326628
6.853060
6.234423
5.349211
4.186589
2.869801
1.603799
0.602490
0.035057
0.003703
0.576294
1.817989
3.766014
6.374556
9.454817
12.655798
15.562967
17.837725
19.337329
20.171478
20.606365
20.919141
21.272031
21.647038
21.912951
21.921848
21.571252
20.850055
19.872322
18.873999
18.105236
17.698315
17.601189
17.606881
17.548564
17.466543
17.540937
17.942069
18.710307
19.694993
20.603124
21.090459
20.873281
19.821007
17.970240
15.480248
12.519133
9.186361
5.585352
1.918988
-1.512045
-4.365227
-6.347652
-7.304157
-7.267433
-6.467876
-5.250376
-3.939915
-2.680708
-1.352734
0.280200
2.372159
4.904141
7.691296
10.513409
13.227750
15.737711
17.921625
19.615773
20.650344
20.945052
20.583953
19.774934
18.755053
17.678288
16.548518
15.283120
13.814821
12.161370
10.442932
8.807150
7.348160
6.091933
5.011297
4.050504
3.149137
2.268802
1.421998
0.696555
0.264087
0.336802
1.091466
2.560161
4.542483
6.628429
8.300568
9.132713
8.959628
7.878590
6.183596
4.273157
2.551517
1.310619
0.615649
0.262654
-0.159523
-1.008845
-2.347854
-3.956478
-5.467901
-6.561578
-7.105156
-7.136407
-6.796148
-6.270401
-5.736959
-5.307167
-5.000224
-4.814385
-4.806712
-5.092365
-5.797236
-6.981394
-8.586228
-10.462904
-12.423205
-14.277368
-15.868230
-17.112862
-18.031293
-18.723248
-19.325299
-19.962508
-20.700430
-21.508939
-22.257584
-22.786057
-22.981451
-22.800043
-22.261134
-21.435270
-20.455216
-19.556951
-19.067172
-19.232369
-20.055811
-21.326459
-22.729521
-23.962488
-24.799493
-25.052382
-24.539085
-23.159474
-20.988524
-18.288860
-15.472840
-13.009958
-11.313924
-10.625018
-10.930577
-12.003346
-13.487008
-14.999705
-16.223411
-16.947100
-17.083889
-16.649251
-15.717178
-14.360512
-12.625737
-10.604368
-8.501960
-6.597554
-5.153561
-4.316591
-4.050024
-4.158172
-4.356187
-4.382749
-4.110212
-3.598088
-3.084681
-2.859627
-3.112910
-3.845241
-4.850984
-5.841686
-6.614252
-7.186091
-7.832974
-8.902126
-10.581910
-12.787369
-15.157407
-17.223316
-18.599804
-19.086254
-18.705448
-17.662460
-16.272935
-14.867401
-13.707303
-12.951681
-12.644500
-12.719651
-13.024616
-13.385666
-13.674157
-13.832524
-13.877941
-13.888122
-13.988669
-14.341330
-15.107015
-16.349979
-17.961105
-19.702290
-21.302265
-22.560172
-23.412625
-23.909455
-24.168261
-24.346712
-24.612283
-25.079082
-25.746942
-26.498093
-27.138449
-27.496623
-27.513568
-27.257745
-26.914093
-26.760241
-27.112239
-28.188737
-29.971181
-32.169704
-34.297918
-35.921883
-36.892179
-37.352305
-37.627891
-38.032004
-38.707630
-39.633002
-40.701538
-41.836299
-43.065562
-44.476864
-46.133158
-48.010437
-49.975489
-51.831395
-53.361599
-54.326952
-54.477787
-53.658300
-51.924474
-49.575201
-47.099692
-44.991312
-43.552088
-42.808182
-42.513699
-42.285041
-41.760006
-40.706791
-39.077768
-36.974303
-34.603878
-32.270420
-30.339993
-29.101432
-28.620100
-28.711638
-29.015295
-29.192712
-29.090664
-28.704514
-28.091374
-27.348911
-26.629972
-26.141070
-26.088201
-26.532136
-27.282868
-27.995645
-28.335731
-28.106505
-27.298625
-25.993015
-24.255433
-22.140868
-19.745328
-17.248696
-14.909732
-12.970150
-11.572732
-10.795754
-10.708436
-11.349965
-12.658585
-14.387681
-16.098479
-17.351017
-17.904258
-17.739212
-16.998830
-15.896728
-14.645863
-13.434210
-12.399841
-11.584208
-10.925924
-10.376661
-10.001309
-9.906886
-10.114314
-10.479935
-10.700898
-10.471643
-9.648033
-8.285237
-6.601856
-4.874215
-3.322485
-2.036058
-0.952658
0.058969
1.107851
2.260959
3.555384
5.012302
6.632674
8.360918
10.057768
11.529233
12.573170
13.020337
12.774881
11.856031
10.415787
8.680067
6.864226
5.104238
3.428074
1.814754
0.271309
-1.134714
-2.292715
-3.136094
-3.705085
-4.080431
-4.277794
-4.190706
-3.611139
-2.383301
-0.541722
1.717417
4.124278
6.411736
8.370699
9.883002
10.944140
11.658739
12.205655
12.747975
13.349277
13.963923
14.463065
14.687961
14.511780
13.902461
12.962871
11.899693
10.961252
10.357352
10.186536
10.411816
10.891855
11.508379
12.280431
13.338866
14.826016
16.764662
19.003933
21.365298
23.784639
26.251465
28.688404
30.912144
32.682206
33.854042
34.484697
34.733930
34.735554
34.596414
34.447736
34.471340
34.873130
35.771666
37.101896
38.646935
40.128942
41.322729
42.140342
42.621095
42.874368
42.991345
42.985250
42.830404
42.530576
42.160171
41.863105
41.774535
41.931467
42.237962
42.488514
42.490586
42.196721
41.750478
41.446023
41.549917
42.125288
43.006862
43.877420
44.449986
44.618691
44.436867
44.030085
43.517753
42.985324
42.541005
42.344090
42.494764
42.921233
43.421559
43.786234
43.942648
44.016756
44.178994
44.468132
44.774248
44.908959
44.722990
44.188892
43.365063
42.320350
41.074520
39.577649
37.764296
35.618365
33.197231
30.629787
28.089442
25.764329
23.827943
22.397052
21.470501
20.904983
20.514890
20.200274
20.007508
20.112629
20.677532
21.702443
23.001268
24.266757
25.238795
25.848137
26.194048
26.437183
26.652731
26.751492
26.595922
26.143998
25.463956
24.662835
23.754752
22.590421
20.991061
18.926778
16.591119
14.374945
12.692621
11.799601
11.724355
12.277466
13.157301
14.077992
14.873043
15.551107
16.241470
17.100025
18.217846
19.571456
21.067747
22.598096
24.034466
25.211322
25.944740
26.080186
25.560425
24.465066
22.958199
21.215422
19.382854
17.552864
15.750649
13.937947
12.061958
10.111406
8.142106
6.275807
4.661269
3.434240
2.698310
2.500900
2.783848
3.353960
3.947230
4.332199
4.415750
4.311201
4.292700
4.685367
5.692654
7.248214
9.012976
10.475647
11.186398
10.974548
9.987797
8.621690
7.332574
6.458589
6.158400
6.414274
7.085050
7.943836
8.665130
8.837689
8.103590
6.329035
3.693298
0.661861
-2.252323
-4.728118
-6.669497
-8.132967
-9.197073
-9.870226
-10.126907
-9.979183
-9.516065
-8.910297
-8.373970
-8.086150
-8.100234
-8.290404
-8.428917
-8.306566
-7.828747
-7.053796
-6.111931
-5.102266
-4.045265
-2.879830
-1.523525
0.045224
1.713206
3.211076
4.227225
4.552475
4.160688
3.212693
1.934744
0.497913
-0.988161
-2.435589
-3.745131
-4.806114
-5.552222
-6.006296
-6.242615
-6.322001
-6.246197
-5.943580
-5.313040
-4.282211
-2.853300
-1.135078
0.660238
2.258600
3.434308
4.109664
4.349714
4.299543
4.083553
3.736931
3.243143
2.589479
1.770350
0.771574
-0.426421
-1.824879
-3.364448
-4.902463
-6.261431
-7.299775
-7.970767
-8.362492
-8.688816
-9.234303
-10.218635
-11.663535
-13.367398
-14.972286
-16.157772
-16.808075
-16.986309
-16.827462
-16.425630
-15.786748
-14.928128
-13.985113
-13.189148
-12.778948
-12.886219
-13.467600
-14.368825
-15.419677
-16.482626
-17.464620
-18.294688
-18.909968
-19.280409
-19.429931
-19.404805
-19.222924
-18.841998
-18.169424
-17.157386
-15.902486
-14.656839
-13.762996
-13.487938
-13.881492
-14.797380
-15.983372
-17.186738
-18.222802
-18.960010
-19.303185
-19.235083
-18.848792
-18.289371
-17.678960
-17.096942
-16.587880
-16.172237
-15.837765
-15.504347
-15.023296
-14.283463
-13.311323
-12.246238
-11.276758
-10.604156
-10.425216
-10.911475
-12.165441
-14.145000
-16.626769
-19.304373
-21.909049
-24.251049
-26.214073
-27.718212
-28.692250
-29.085728
-28.890405
-28.150117
-26.968356
-25.516064
-24.017800
-22.676354
-21.590763
-20.733129
-19.980501
-19.224565
-18.466360
-17.796082
-17.323946
-17.104358
-17.094068
-17.190786
-17.283780
-17.265109
-17.028060
-16.485005
-15.605146
-14.468327
-13.292631
-12.367621
-11.948128
-12.148790
-12.889996
-13.977976
-15.220670
-16.502097
-17.799877
-19.110784
-20.379906
-21.522983
-22.486652
-23.303287
-24.113175
-25.109967
-26.458762
-28.213886
-30.259608
-32.323392
-34.042140
-35.101375
-35.362228
-34.880682
-33.868310
-32.602630
-31.343280
-30.291369
-29.556033
-29.112558
-28.789874
-28.359955
-27.654962
-26.640335
-25.422903
-24.142690
-22.864704
-21.577172
-20.232789
-18.787316
-17.214726
-15.486676
-13.562870
-11.437809
-9.192277
-6.989633
-5.035440
-3.500122
-2.448561
-1.826546
-1.487063
-1.264803
-1.041980
-0.747966
-0.330562
0.268862
1.102246
2.129584
3.161453
3.951717
4.337813
4.330356
4.114280
3.889490
3.717489
3.540021
3.276397
2.936571
2.680457
2.736915
3.284940
4.372610
5.884674
7.594719
