EVENT_NAME: None
EVENT_ID: INT-20230206_0000222
EVENT_DATE_YYYYMMDD: 20230206
EVENT_TIME_HHMMSS: 102449
EVENT_LATITUDE_DEGREE: 38.1100
EVENT_LONGITUDE_DEGREE: 37.2400
EVENT_DEPTH_KM: 10.0
HYPOCENTER_REFERENCE: EMSC-CSEM
MAGNITUDE_W: 7.5
MAGNITUDE_W_REFERENCE: EMSC-CSEM
MAGNITUDE_L: 
MAGNITUDE_L_REFERENCE: 
FOCAL_MECHANISM: Strike-slip faulting
NETWORK: TK
STATION_CODE: 4620
STATION_NAME: None
STATION_LATITUDE_DEGREE: 37.585680
STATION_LONGITUDE_DEGREE: 36.898450
STATION_ELEVATION_M: 698
LOCATION: 
SENSOR_DEPTH_M: 0.0
VS30_M/S: 
SITE_CLASSIFICATION_EC8: B (inferred from topography)
MORPHOLOGIC_CLASSIFICATION: 
EPICENTRAL_DISTANCE_KM: 65.5
EARTHQUAKE_BACKAZIMUTH_DEGREE: 27.2
DATE_TIME_FIRST_SAMPLE_YYYYMMDD_HHMMSS: 20230206_102433.001
DATE_TIME_FIRST_SAMPLE_PRECISION: milliseconds
SAMPLING_INTERVAL_S: 0.005000
NDATA: 21000
DURATION_S: 105.000
STREAM: HNZ
UNITS: cm/s^2
INSTRUMENT: HN
INSTRUMENT_ANALOG/DIGITAL: D
INSTRUMENTAL_FREQUENCY_HZ: 
INSTRUMENTAL_DAMPING: 
FULL_SCALE_G: 
N_BIT_DIGITAL_CONVERTER: 
PGA_CM/S^2: 56.915390
TIME_PGA_S: 50.665000
BASELINE_CORRECTION: BASELINE REMOVED
FILTER_TYPE: BUTTERWORTH
FILTER_ORDER: 2
LOW_CUT_FREQUENCY_HZ: 0.030
HIGH_CUT_FREQUENCY_HZ: 40.000
LATE/NORMAL_TRIGGERED: NT
DATABASE_VERSION: 0.5
HEADER_FORMAT: DYNA 1.2
DATA_TYPE: ACCELERATION
PROCESSING: manual (Paolucci et al., 2011)
DATA_TIMESTAMP_YYYYMMDD_HHMMSS: 20251106_221423.861
DATA_LICENSE: D (network default license)
DATA_CITATION: Luzi L., Lanzano G., Felicetta C., D Amico M. C., Russo E., Sgobba S., Pacor, F., & ORFEUS Working Group 5 (2020). Engineering Strong Motion Database (ESM) (Version 2.0). Istituto Nazionale di Geofisica e Vulcanologia (INGV). https://doi.org/10.13127/ESM.2
DATA_CREATOR: ESM working group
ORIGINAL_DATA_MEDIATOR_CITATION: afad
ORIGINAL_DATA_MEDIATOR: afad
ORIGINAL_DATA_CREATOR_CITATION: Disaster And Emergency Management Authority. (1973). Turkish National Strong Motion Network. Department of Earthquake, Disaster and Emergency Management Authority. https://doi.org/10.7914/SN/TK http://www.fdsn.org/networks/detail/TK/
ORIGINAL_DATA_CREATOR: network: TK (Turkish National Strong Motion Network (TNSMN)); owner: Disaster and Emergency Management Authority (AFAD)
USER1: 
USER2: 
USER3: 
USER4: 
USER5: 
[...]
-3.379184
-6.559999
-9.542244
-12.435928
-15.336098
-18.149845
-20.571787
-22.254100
-22.977496
-22.666605
-21.338986
-19.047598
-15.853798
-11.868133
-7.312811
-2.562670
1.869769
5.469683
7.862406
8.864731
8.503953
7.031909
4.908102
2.661791
0.686967
-0.965570
-2.643009
-4.751676
-7.386257
-10.281391
-12.946589
-14.926664
-16.006779
-16.202815
-15.698870
-14.820450
-13.975889
-13.466051
-13.320695
-13.364690
-13.377891
-13.241975
-12.988924
-12.645328
-12.081827
-11.075971
-9.463373
-7.279620
-4.828913
-2.580878
-1.009230
-0.442534
-0.976035
-2.522062
-4.892940
-7.833300
-10.995177
-13.855770
-15.701647
-15.851956
-13.950706
-10.164918
-5.229386
-0.171096
4.052361
6.836692
8.094101
8.159476
7.578142
6.812594
6.016405
5.075580
3.786803
2.121848
0.402937
-0.836573
-1.110862
-0.234442
1.531967
3.604732
5.300357
6.073793
5.694398
4.254877
2.111399
-0.228742
-2.240241
-3.538019
-4.017108
-3.876825
-3.529361
-3.328592
-3.342538
-3.421763
-3.384166
-3.178840
-2.929917
-2.747709
-2.569985
-2.290673
-1.951612
-1.767278
-2.013415
-2.786678
-3.848286
-4.794211
-5.304117
-5.260979
-4.760167
-3.990214
-3.115480
-2.258547
-1.517238
-0.968767
-0.660608
-0.593291
-0.700921
-0.847211
-0.865287
-0.686032
-0.441449
-0.389673
-0.743248
-1.461271
-2.161945
-2.364624
-1.769573
-0.314090
1.878752
4.583234
7.525359
10.394936
12.899098
14.917370
16.571133
17.972296
18.948476
19.078812
17.933133
15.468991
12.291587
9.395696
7.712755
7.671534
8.924666
10.512150
11.243475
10.252454
7.453024
3.536222
-0.304108
-2.929292
-3.766008
-2.918143
-1.035031
1.087101
2.897838
4.226285
5.223752
6.074964
6.752191
7.085545
6.958281
6.471951
5.965370
5.731463
5.734672
5.641243
5.016508
3.621062
1.635414
-0.396840
-1.776687
-1.979626
-0.921969
1.065920
3.421596
5.641678
7.487618
8.901137
9.866907
10.407934
10.626365
10.687393
10.754821
10.899424
11.061584
11.157816
11.173819
11.095653
10.826591
10.244395
9.309237
8.122959
6.906316
5.846712
4.984529
4.310063
3.894341
3.874164
4.341920
5.185876
6.026313
6.434181
6.196925
5.411231
4.444542
3.748810
3.689103
4.511576
6.334812
9.070305
12.342759
15.535205
17.933654
18.990209
18.539312
16.767019
14.071485
10.884872
7.549309
4.332466
1.456159
-0.967569
-3.026329
-5.019842
-7.364115
-10.314965
-13.731660
-17.133917
-19.881228
-21.378145
-21.227379
-19.280312
-15.704751
-11.130382
-6.686845
-3.627052
-2.815494
-4.335061
-7.341101
-10.462027
-12.355038
-12.161343
-9.791796
-5.851830
-1.385975
2.554450
5.306750
6.722413
7.123300
7.063228
7.092634
7.661864
9.049004
11.225114
13.741068
15.822045
16.635663
15.759057
13.502072
10.640115
7.951837
5.865138
4.328302
3.086605
1.965431
0.833003
-0.508899
-2.268396
-4.531004
-7.159955
-9.779246
-11.909650
-13.104374
-12.977614
-11.255956
-7.989221
-3.742811
0.493686
3.590670
4.761491
3.961387
1.835355
-0.592798
-2.456353
-3.473096
-3.878988
-4.146195
-4.632648
-5.362800
-6.158427
-6.834713
-7.250321
-7.295748
-6.896121
-6.021413
-4.673753
-2.872771
-0.677114
1.759769
4.122603
5.963537
6.968528
7.191139
6.939768
6.516689
5.966937
4.987328
3.208773
0.532265
-2.775356
-6.166929
-9.100121
-11.283066
-12.637467
-13.129810
-12.595796
-10.741246
-7.541008
-3.595826
0.059459
2.412368
2.986382
2.094469
0.426605
-1.443819
-3.143227
-4.412046
-5.058203
-5.004391
-4.438263
-3.890928
-4.034018
-5.409500
-8.259778
-12.423543
-17.324576
-22.070314
-25.785088
-27.959709
-28.583979
-28.111286
-27.191313
-26.378925
-25.970156
-25.912368
-25.821922
-25.111029
-23.320483
-20.431615
-16.885960
-13.425128
-10.759466
-9.288334
-9.084640
-9.960018
-11.509361
-13.170567
-14.392623
-14.829975
-14.452255
-13.534944
-12.432818
-11.358994
-10.377902
-9.476320
-8.613532
-7.734098
-6.750863
-5.559598
-4.146696
-2.687708
-1.511435
-0.993885
-1.403834
-2.764821
-4.816959
-7.066346
-8.978105
-10.177765
-10.531569
-10.140170
-9.229618
-8.047674
-6.838945
-5.820774
-5.086024
-4.508898
-3.774249
-2.501649
-0.486601
2.085735
4.637522
6.336517
6.411808
4.471993
0.650818
-4.391823
-9.697913
-14.281745
-17.329054
-18.353582
-17.306339
-14.629846
-11.141626
-7.797846
-5.323820
-3.931679
-3.415968
-3.399635
-3.585274
-3.883381
-4.264783
-4.588696
-4.630767
-4.208921
-3.323248
-2.217586
-1.243515
-0.681321
-0.640302
-1.028141
-1.620670
-2.166595
-2.505741
-2.665812
-2.861127
-3.394209
-4.397053
-5.592623
-6.313456
-5.714786
-3.226158
1.063648
6.457786
11.943563
16.662395
20.254567
22.732484
24.199430
24.645670
23.905184
21.885724
18.782584
15.008434
11.036304
7.307535
4.182211
1.889625
0.457946
-0.339722
-0.920087
-1.564822
-2.166000
-2.421398
-2.157522
-1.481092
-0.723348
-0.107430
0.483356
1.253642
2.174744
2.995471
3.427084
3.365511
2.973257
2.431357
1.696958
0.592546
-0.994441
-2.997799
-5.170675
-7.239544
-9.043528
-10.503252
-11.532650
-11.991052
-11.697860
-10.549756
-8.642397
-6.287954
-3.939465
-1.986900
-0.582131
0.337031
0.943122
1.415547
1.894490
2.531267
3.492669
4.779065
6.057910
6.765049
6.343813
4.530394
1.507470
-2.303798
-6.512101
-10.841910
-15.130967
-19.296681
-23.290137
-27.001909
-30.151521
-32.238815
-32.636735
-30.967600
-27.428465
-22.678860
-17.544220
-12.703874
-8.511218
-5.120399
-2.662412
-1.263155
-0.968298
-1.625593
-2.823079
-4.016048
-4.742507
-4.863974
-4.703707
-4.872684
-5.973936
-8.289465
-11.554350
-15.007814
-17.629623
-18.607008
-17.749766
-15.512675
-12.776998
-10.400993
-8.857540
-8.267894
-8.527057
-9.305861
-10.032817
-10.032575
-8.769113
-6.144906
-2.672702
0.755666
3.225416
4.095285
3.192997
0.805015
-2.452841
-5.907800
-9.075210
-11.700724
-13.712035
-15.136699
-16.054729
-16.613946
-16.992738
-17.199071
-16.921894
-15.713567
-13.288660
-9.747802
-5.630136
-1.624803
1.746090
4.205487
5.687443
6.268315
6.121937
5.519241
4.817842
4.371587
4.395843
4.828615
5.276675
5.217698
4.305900
2.640704
0.824888
-0.471839
-0.991543
-0.959148
-0.886057
-1.142337
-1.646279
-2.041236
-2.014195
-1.490010
-0.678388
0.093922
0.576172
0.662174
0.364315
-0.312746
-1.464875
-3.205664
-5.520076
-8.158622
-10.641070
-12.488756
-13.472039
-13.662229
-13.358036
-12.892839
-12.468044
-12.149839
-11.934787
-11.819532
-11.810006
-11.810736
-11.546340
-10.701707
-9.152844
-7.163947
-5.426552
-4.722940
-5.520435
-7.772233
-10.908063
-14.116783
-16.686067
-18.222719
-18.730706
-18.433101
-17.541696
-16.132469
-14.137588
-11.509563
-8.367021
-4.941793
-1.459527
1.937827
5.206937
8.319390
11.169323
13.547489
15.157150
15.682625
14.884681
12.719756
9.429122
5.502093
1.561966
-1.833425
-4.375261
-6.047182
-7.063247
-7.674024
-8.006741
-8.106364
-8.034147
-7.895308
-7.782003
-7.623929
-7.120470
-5.951437
-4.004504
-1.357712
1.843526
5.492527
9.526878
13.749965
17.695964
20.784825
22.556795
22.802606
21.592936
19.177637
15.879476
12.070918
8.178011
4.654925
1.922772
0.263848
-0.264192
0.192001
1.357130
2.932860
4.659364
6.256039
7.365645
7.641453
6.907970
5.321501
3.408955
1.789061
0.832167
0.507795
0.428929
0.191583
-0.312242
-0.925880
-1.407152
-1.622171
-1.637210
-1.588392
-1.545792
-1.554730
-1.710879
-2.119101
-2.792741
-3.570102
-4.130006
-4.222545
-3.890213
-3.443980
-3.330374
-3.962960
-5.582712
-8.198638
-11.565107
-15.218231
-18.578022
-21.163200
-22.762887
-23.378800
-23.096136
-22.004826
-20.186611
-17.785094
-15.053713
-12.280003
-9.684282
-7.375043
-5.328353
-3.380421
-1.259696
1.272719
4.269165
7.540184
10.697661
13.348947
15.278410
16.458857
16.996477
17.066737
16.856562
16.504178
16.042134
15.376888
14.320251
12.712263
10.518983
7.785292
4.565044
0.948621
-2.856296
-6.451520
-9.268564
-10.810117
-10.901652
-9.732664
-7.768427
-5.534869
-3.407712
-1.524060
0.212158
1.984119
3.888716
5.834057
7.537127
8.701354
9.187670
9.005490
8.241998
7.021094
5.498780
3.878524
2.382122
1.116188
-0.021790
-1.225822
-2.614493
-4.165030
-5.732672
-7.165841
-8.403873
-9.457500
-10.360160
-11.156956
-11.906166
-12.657467
-13.416529
-14.112730
-14.590424
-14.658543
-14.151496
-12.964908
-11.075031
-8.550747
-5.578563
-2.499971
0.201591
2.070449
2.885283
2.774409
2.207302
1.757296
1.846148
2.653802
4.116940
5.993106
7.932108
9.547653
10.505254
10.639531
10.033731
8.947391
7.677725
6.404073
5.086237
3.522117
1.470226
-1.209982
-4.460605
-8.045047
-11.600654
-14.686743
-16.847007
-17.733144
-17.237081
-15.550237
-13.130259
-10.491826
-7.981172
-5.691091
-3.485868
-1.175131
1.301314
3.812798
6.096967
7.984628
9.571839
11.091481
12.676688
14.192380
15.242764
15.509303
15.042476
14.111980
12.907218
11.351650
9.120739
6.001710
2.212261
-1.711204
-5.182991
-7.790313
-9.395082
-10.024398
-9.741123
-8.632545
-6.828365
-4.472157
-1.698601
1.314631
4.295392
6.929916
8.985917
10.473785
11.707972
13.076055
14.761614
16.660923
18.453780
19.850613
20.797779
21.420489
21.867707
22.175221
22.206555
21.752430
20.660962
18.908106
16.629248
14.111112
11.761212
10.027445
9.288842
9.725541
11.224459
13.414194
15.759696
17.703486
18.809936
18.876737
17.999278
16.515864
14.888883
13.529574
12.657328
12.294258
12.295018
12.366430
12.123815
11.278879
9.846468
8.212976
7.039626
6.890962
7.900970
9.808869
12.148662
14.457236
16.400028
17.717374
18.148156
17.462179
15.551810
12.540086
8.839238
5.050305
1.779043
-0.595410
-2.066139
-2.872064
-3.294004
-3.510238
-3.522528
-3.190336
-2.298954
-0.649247
1.833085
4.975634
8.310905
11.251886
13.324016
14.317108
14.350807
13.794500
13.139618
12.853897
13.238066
14.318464
15.813027
17.281696
18.332239
18.783061
18.739948
18.490104
18.346767
18.521966
19.032367
19.668085
20.018256
19.627715
18.218543
15.914974
13.326412
11.238610
10.213052
10.358811
11.300998
12.464601
13.373635
13.725554
13.381872
12.370680
10.895250
9.288891
7.922600
7.054237
6.701079
6.635470
6.433541
5.573811
3.585008
0.277975
-4.067778
-8.768889
-12.957880
-15.950415
-17.539363
-17.946604
-17.618571
-16.948014
-16.065711
-14.861014
-13.089628
-10.506237
-6.977383
-2.551418
2.481165
7.556086
11.887871
14.741046
15.745282
15.060083
13.345766
11.382718
9.673509
8.339712
7.186416
5.897143
4.200966
1.907263
-1.065085
-4.571673
-8.168211
-11.275864
-13.436509
-14.523556
-14.813163
-14.752344
-14.688834
-14.782847
-15.013798
-15.234034
-15.208473
-14.631853
-13.190905
-10.751801
-7.524762
-4.005232
-0.785383
1.727599
3.508314
4.799640
5.888076
6.900367
7.698363
7.988673
7.487837
6.045778
3.729052
0.836059
-2.150269
-4.736749
-6.619840
-7.803656
-8.603999
-9.436886
-10.593050
-12.177335
-14.131778
-16.301348
-18.480797
-20.410381
-21.781841
-22.322146
-21.894682
-20.557208
-18.582874
-16.417953
-14.602877
-13.633024
-13.797432
-15.031808
-16.836831
-18.401669
-18.853952
-17.639645
-14.836460
-11.125625
-7.557250
-5.099671
-4.232803
-4.867369
-6.454804
-8.296011
-9.848359
-10.858558
-11.371338
-11.575076
-11.632130
-11.606795
-11.461326
-11.127715
-10.578326
-9.833266
-8.934715
-7.906196
-6.734089
-5.414167
-4.010783
-2.674872
-1.617805
-1.021007
-0.959429
-1.415938
-2.317073
-3.534674
-4.873771
-6.090932
-6.965253
-7.452868
-7.797162
-8.417592
-9.699964
-11.771967
-14.380240
-17.044360
-19.292824
-20.842428
-21.682066
-21.975629
-21.919231
-21.636411
-21.119829
-20.257091
-18.899317
-16.970428
-14.555627
-11.887109
-9.271475
-6.970115
-5.111457
-3.724740
-2.809491
-2.369433
-2.394761
-2.767687
-3.188132
-3.243177
-2.558838
-1.006256
1.158042
3.398173
5.125398
5.986632
6.061344
5.752212
5.552893
5.796266
6.495116
7.423081
8.263140
8.719659
8.593660
7.818050
6.473092
4.764261
2.980054
1.431312
0.403925
0.148755
0.853913
2.545920
5.006697
7.817677
10.453019
12.382429
13.172496
12.596591
10.745582
8.083167
5.392176
3.479705
2.865151
3.668959
5.621540
8.201103
10.812857
12.983151
14.510349
15.455785
16.025248
16.337089
16.272562
15.637309
14.386301
12.684544
10.837212
9.084876
7.442236
5.768439
3.925527
1.927761
0.021585
-1.396799
-1.923714
-1.299169
0.483369
3.181833
6.361211
9.501234
12.134699
14.008073
15.175512
15.871415
16.301517
16.464769
16.099351
14.905066
12.796967
9.962913
6.791143
3.675712
0.850896
-1.600677
-3.667230
-5.312563
-6.420327
-6.840174
-6.467004
-5.309931
-3.530251
-1.407740
0.725389
2.576699
3.981798
4.948762
5.653989
6.339898
7.187069
8.223070
9.294212
10.173159
10.704521
10.913115
11.044025
11.452734
12.443029
14.114521
16.274470
18.523020
20.418592
21.680736
22.324520
22.577890
22.723685
22.956144
23.300015
23.658991
23.889146
23.839344
23.396682
22.577715
21.593320
20.775798
20.451156
20.818250
21.887140
23.546853
25.640848
27.955600
30.199829
32.063737
33.311068
33.862694
33.854481
33.630773
33.694659
34.575716
36.650704
39.945867
44.036450
48.240705
51.901649
54.597559
56.233242
56.915390
56.806071
56.094339
54.997314
53.696493
52.239829
50.476762
48.097054
44.887811
40.969722
36.742928
32.690505
29.138180
26.133433
23.634280
21.725398
20.597766
20.410199
21.125778
22.437820
23.928496
25.277504
26.371645
27.326357
28.369844
29.670576
31.154587
32.416790
32.911513
32.243715
30.414813
27.899098
25.338226
23.185159
21.590459
20.445668
19.564346
18.830382
18.173440
17.503910
16.715190
15.722972
14.512702
13.176124
11.907810
10.958077
10.507968
10.550106
10.879250
11.162951
11.113954
10.654237
9.950948
9.362878
9.261223
9.821699
10.886013
11.957224
12.479981
12.146848
10.981411
9.270251
7.351553
5.455524
3.766932
2.506300
1.842310
1.761019
2.046838
2.374726
2.540898
2.635375
2.931634
3.687559
5.009539
6.810049
8.911497
11.151435
13.372598
15.381452
16.959540
17.921349
18.213560
17.979752
17.490565
17.024143
16.751340
16.660556
16.580293
16.245463
15.398454
13.887535
11.726591
9.118141
6.396556
3.926292
1.959466
0.527652
-0.518078
-1.384322
-2.156379
-2.688244
-2.722776
-2.074473
-0.730583
1.156539
3.439690
6.109676
9.180467
12.497491
15.636478
17.945184
18.836137
18.071278
15.776180
12.316187
8.099386
3.439318
-1.392001
-6.066336
-10.177543
-13.289548
-15.069476
-15.412127
-14.456479
-12.533053
-10.031099
-7.264089
-4.404165
-1.470712
1.591463
4.798431
8.014087
10.903107
13.066850
14.233747
14.393585
13.825733
12.917159
11.960210
11.095269
10.333401
9.630696
8.947641
8.248372
7.490729
6.650288
5.755450
4.900008
4.224550
3.835122
3.705106
3.613020
3.151532
1.897528
-0.382943
-3.619478
-7.441349
-11.402338
-15.227461
-18.884664
-22.509726
-26.148102
-29.546110
-32.248097
-33.822412
-34.100500
-33.315368
-31.977183
-30.659081
-29.782410
-29.445827
-29.390624
-29.099397
-28.125774
-26.410639
-24.305548
-22.404387
-21.183652
-20.712113
-20.710789
-20.747941
-20.443494
-19.607507
-18.233650
-16.446908
-14.452774
-12.502665
-10.868301
-9.788172
-9.351513
-9.412334
-9.668705
-9.821878
-9.748986
-9.571146
-9.460221
-9.433148
-9.375994
-9.175891
-8.855840
-8.600838
-8.546932
-8.584882
-8.445356
-7.905842
-6.993149
-6.067821
-5.630434
-6.075801
-7.579387
-10.084391
-13.398119
-17.282516
-21.460080
-25.609870
-29.426985
-32.699621
-35.340908
-37.366526
-38.790808
-39.543885
-39.518681
-38.655188
-36.983382
-34.621507
-31.715456
-28.381899
-24.711499
-20.797105
-16.769448
-12.832095
-9.285244
-6.520649
-4.933374
-4.794140
-6.112557
-8.556852
-11.556072
-14.494567
-16.960035
-18.915068
-20.603901
-22.348364
-24.318975
-26.392545
-28.243717
-29.501049
-29.861685
-29.167382
-27.440142
-24.900058
-21.937151
-19.033308
-16.598953
-14.830053
-13.712347
-13.093555
-12.793967
-12.708510
-12.858265
-13.397642
-14.534071
-16.410266
-18.987138
-21.999160
-25.090117
-27.960902
-30.380202
-32.148360
-33.102392
-33.172922
-32.480795
-31.351938
-30.104000
-28.845142
-27.538152
-26.157262
-24.782956
-23.588290
-22.660371
-21.867029
-20.986570
-19.897048
-18.641885
-17.408449
-16.428944
-15.888729
-15.901344
-16.501369
-17.625275
-19.101663
-20.690762
-22.134106
-23.179765
-23.593339
-23.171084
-21.777744
-19.430602
-16.358769
-12.936137
-9.557033
-6.507109
-3.906355
-1.826748
-0.418611
0.116927
-0.367055
-1.833774
-3.985926
-6.343363
-8.376109
-9.645114
-9.925045
-9.256740
-7.910564
-6.179347
-4.179504
-1.852427
0.926603
4.175828
7.690725
11.109290
14.013556
15.972688
16.590637
15.637689
13.175992
9.549470
5.288647
0.936066
-3.097833
-6.541188
-9.233130
-11.134103
-12.345491
-13.089257
-13.661144
-14.349400
-15.334554
-16.585515
-17.809638
-18.571351
-18.478700
-17.370234
-15.422258
-13.045415
-10.715451
-8.823010
-7.564607
-6.918159
-6.671330
-6.522036
-6.175044
-5.374997
-3.929383
-1.771890
0.962463
3.911177
6.538032
8.339559
9.039845
8.609129
7.219317
5.204963
3.028474
1.199041
0.137292
-0.024002
0.432915
0.962975
1.018721
0.308159
-1.043339
-2.587788
-3.768105
-4.196497
-3.851345
-2.999542
-2.015002
-1.197823
-0.678583
-0.500181
-0.695721
-1.209531
-1.803533
-2.118009
-1.818596
-0.772171
0.865492
2.804742
4.817512
6.793165
8.696494
10.440229
11.795013
12.468481
12.246425
11.112334
9.290465
7.121735
4.909307
2.844452
0.994147
-0.639845
-2.058822
-3.249682
-4.187114
-4.840406
-5.177006
-5.164298
-4.777712
-4.022589
-2.948428
-1.619248
-0.055185
1.831389
4.231334
7.256391
10.748816
14.275415
17.252660
19.212600
20.025466
19.881205
19.173047
18.348174
17.770171
17.624291
17.872498
18.318779
18.710118
18.825206
18.521008
17.698562
16.275592
14.239002
11.696735
8.834556
5.835579
2.818018
-0.176754
-3.098970
-5.808890
-8.095741
-9.732609
-10.521771
-10.326353
-9.096037
-6.903814
-3.990336
-0.759574
2.367837
5.124723
7.461795
9.505491
11.360714
12.939926
14.012776
14.352203
13.893687
12.817759
11.444412
10.095847
9.046132
8.508756
8.610438
9.334690
10.446611
11.487570
11.975362
11.637227
10.499901
8.853795
7.051774
5.332965
3.848218
2.743351
2.176631
2.271782
3.011173
4.173980
5.440127
6.528452
7.256174
7.544947
7.383099
6.797128
5.865694
4.728573
3.540147
2.414421
1.409701
0.533222
-0.238839
-0.928259
-1.501532
-1.834842
-1.766804
-1.207746
-0.278843
0.640265
1.129902
0.990289
0.324093
-0.520953
-1.175012
-1.446559
-1.326831
-0.920920
-0.379229
0.150524
0.543014
0.700128
0.533793
-0.054824
-1.179379
-2.947616
-5.387107
-8.357370
-11.502262
-14.279008
-16.156089
-16.837881
-16.370859
-15.126811
-13.587827
-12.126454
-10.949826
-10.118309
