EVENT_NAME: None
EVENT_ID: INT-20230206_0000222
EVENT_DATE_YYYYMMDD: 20230206
EVENT_TIME_HHMMSS: 102449
EVENT_LATITUDE_DEGREE: 38.1100
EVENT_LONGITUDE_DEGREE: 37.2400
EVENT_DEPTH_KM: 10.0
HYPOCENTER_REFERENCE: EMSC-CSEM
MAGNITUDE_W: 7.5
MAGNITUDE_W_REFERENCE: EMSC-CSEM
MAGNITUDE_L: 
MAGNITUDE_L_REFERENCE: 
FOCAL_MECHANISM: Strike-slip faulting
NETWORK: TK
STATION_CODE: 4409
STATION_NAME: None
STATION_LATITUDE_DEGREE: 38.560630
STATION_LONGITUDE_DEGREE: 37.490760
STATION_ELEVATION_M: 1055
LOCATION: 
SENSOR_DEPTH_M: 0.0
VS30_M/S: 
SITE_CLASSIFICATION_EC8: B (inferred from topography)
MORPHOLOGIC_CLASSIFICATION: 
EPICENTRAL_DISTANCE_KM: 54.6
EARTHQUAKE_BACKAZIMUTH_DEGREE: 203.7
DATE_TIME_FIRST_SAMPLE_YYYYMMDD_HHMMSS: 
DATE_TIME_FIRST_SAMPLE_PRECISION: 
SAMPLING_INTERVAL_S: 
NDATA: 105
DURATION_S: 
STREAM: HNZ
UNITS: cm/s^2
INSTRUMENT: HN
INSTRUMENT_ANALOG/DIGITAL: D
INSTRUMENTAL_FREQUENCY_HZ: 
INSTRUMENTAL_DAMPING: 
FULL_SCALE_G: 
N_BIT_DIGITAL_CONVERTER: 
PGA_CM/S^2: -83.156151
TIME_PGA_S: 
BASELINE_CORRECTION: BASELINE REMOVED
FILTER_TYPE: BUTTERWORTH
FILTER_ORDER: 2
LOW_CUT_FREQUENCY_HZ: 0.030
HIGH_CUT_FREQUENCY_HZ: 40.000
LATE/NORMAL_TRIGGERED: NT
DATABASE_VERSION: 0.5
HEADER_FORMAT: DYNA 1.2
DATA_TYPE: ACCELERATION RESPONSE SPECTRUM
PROCESSING: manual (Paolucci et al., 2011)
DATA_TIMESTAMP_YYYYMMDD_HHMMSS: 20251106_223020.597
DATA_LICENSE: D (network default license)
DATA_CITATION: Luzi L., Lanzano G., Felicetta C., D Amico M. C., Russo E., Sgobba S., Pacor, F., & ORFEUS Working Group 5 (2020). Engineering Strong Motion Database (ESM) (Version 2.0). Istituto Nazionale di Geofisica e Vulcanologia (INGV). https://doi.org/10.13127/ESM.2
DATA_CREATOR: ESM working group
ORIGINAL_DATA_MEDIATOR_CITATION: afad
ORIGINAL_DATA_MEDIATOR: afad
ORIGINAL_DATA_CREATOR_CITATION: Disaster And Emergency Management Authority. (1973). Turkish National Strong Motion Network. Department of Earthquake, Disaster and Emergency Management Authority. https://doi.org/10.7914/SN/TK http://www.fdsn.org/networks/detail/TK/
ORIGINAL_DATA_CREATOR: network: TK (Turkish National Strong Motion Network (TNSMN)); owner: Disaster and Emergency Management Authority (AFAD)
USER1: 
USER2: 
USER3: 
USER4: 
USER5: 
    0.010000    83.498344
    0.020000   114.836861
    0.022000   131.086105
    0.025000   184.222137
    0.029000   315.112366
    0.030000   353.256714
    0.032000   376.698639
    0.035000   280.795410
    0.036000   269.574127
    0.040000   260.472229
    0.042000   252.102249
    0.044000   210.029526
    0.045000   203.536301
    0.046000   202.514771
    0.048000   247.718445
    0.050000   277.592285
    0.055000   246.473923
    0.060000   165.010361
    0.065000   149.561539
    0.067000   146.857010
    0.070000   128.434784
    0.075000   117.162582
    0.080000   107.603767
    0.085000   123.479439
    0.090000   149.510666
    0.095000   140.442932
    0.100000   145.364639
    0.110000   145.888092
    0.120000   136.089691
    0.130000   152.816025
    0.133000   148.836227
    0.140000   139.733307
    0.150000   114.568985
    0.160000   110.335785
    0.170000   135.054932
    0.180000   146.275558
    0.190000   132.636978
    0.200000   129.074280
    0.220000   107.388649
    0.240000   116.428902
    0.250000   128.249374
    0.260000   113.975174
    0.280000   140.119263
    0.290000   139.865524
    0.300000   144.948959
    0.320000   126.016228
    0.340000   103.575638
    0.350000   101.261307
    0.360000    91.979378
    0.380000   102.262573
    0.400000    76.679649
    0.420000    74.711533
    0.440000    72.387650
    0.450000    69.761002
    0.460000    66.562134
    0.480000    55.138977
    0.500000    67.150681
    0.550000    68.526917
    0.600000    72.340797
    0.650000    62.410023
    0.667000    63.047462
    0.700000    60.798950
    0.750000    56.388058
    0.800000    53.938801
    0.850000    62.500526
    0.900000    55.765030
    0.950000    68.043358
    1.000000    71.493866
    1.100000    60.085907
    1.200000    58.336319
    1.300000    57.845722
    1.400000    62.786343
    1.500000    71.907166
    1.600000    63.797440
    1.700000    64.448288
    1.800000    61.938469
    1.900000    45.468571
    2.000000    49.766354
    2.200000    31.810314
    2.400000    25.889650
    2.500000    29.156519
    2.600000    28.391188
    2.800000    23.819933
    3.000000    22.101017
    3.200000    24.447062
    3.400000    28.107525
    3.500000    24.105642
    3.600000    18.789400
    3.800000    13.212388
    4.000000    12.644413
    4.200000    12.583226
    4.400000    12.540773
    4.600000    12.305383
    4.800000    12.871056
    5.000000    11.454235
    5.500000     9.902644
    6.000000    11.001616
    6.500000     9.254188
    7.000000     7.761591
    7.500000     7.139281
    8.000000     6.607052
    8.500000     7.397152
    9.000000     6.245168
    9.500000     4.362548
   10.000000     3.673486
