EVENT_NAME: None
EVENT_ID: INT-20230206_0000222
EVENT_DATE_YYYYMMDD: 20230206
EVENT_TIME_HHMMSS: 102449
EVENT_LATITUDE_DEGREE: 38.1100
EVENT_LONGITUDE_DEGREE: 37.2400
EVENT_DEPTH_KM: 10.0
HYPOCENTER_REFERENCE: EMSC-CSEM
MAGNITUDE_W: 7.5
MAGNITUDE_W_REFERENCE: EMSC-CSEM
MAGNITUDE_L: 
MAGNITUDE_L_REFERENCE: 
FOCAL_MECHANISM: Strike-slip faulting
NETWORK: TK
STATION_CODE: 4409
STATION_NAME: None
STATION_LATITUDE_DEGREE: 38.560630
STATION_LONGITUDE_DEGREE: 37.490760
STATION_ELEVATION_M: 1055
LOCATION: 
SENSOR_DEPTH_M: 0.0
VS30_M/S: 
SITE_CLASSIFICATION_EC8: B (inferred from topography)
MORPHOLOGIC_CLASSIFICATION: 
EPICENTRAL_DISTANCE_KM: 54.6
EARTHQUAKE_BACKAZIMUTH_DEGREE: 203.7
DATE_TIME_FIRST_SAMPLE_YYYYMMDD_HHMMSS: 20230206_102431.871
DATE_TIME_FIRST_SAMPLE_PRECISION: milliseconds
SAMPLING_INTERVAL_S: 0.005000
NDATA: 21000
DURATION_S: 105.000
STREAM: HNZ
UNITS: cm/s^2
INSTRUMENT: HN
INSTRUMENT_ANALOG/DIGITAL: D
INSTRUMENTAL_FREQUENCY_HZ: 
INSTRUMENTAL_DAMPING: 
FULL_SCALE_G: 
N_BIT_DIGITAL_CONVERTER: 
PGA_CM/S^2: -83.156151
TIME_PGA_S: 48.370000
BASELINE_CORRECTION: BASELINE REMOVED
FILTER_TYPE: BUTTERWORTH
FILTER_ORDER: 2
LOW_CUT_FREQUENCY_HZ: 0.030
HIGH_CUT_FREQUENCY_HZ: 40.000
LATE/NORMAL_TRIGGERED: NT
DATABASE_VERSION: 0.5
HEADER_FORMAT: DYNA 1.2
DATA_TYPE: ACCELERATION
PROCESSING: manual (Paolucci et al., 2011)
DATA_TIMESTAMP_YYYYMMDD_HHMMSS: 20251106_223019.992
DATA_LICENSE: D (network default license)
DATA_CITATION: Luzi L., Lanzano G., Felicetta C., D Amico M. C., Russo E., Sgobba S., Pacor, F., & ORFEUS Working Group 5 (2020). Engineering Strong Motion Database (ESM) (Version 2.0). Istituto Nazionale di Geofisica e Vulcanologia (INGV). https://doi.org/10.13127/ESM.2
DATA_CREATOR: ESM working group
ORIGINAL_DATA_MEDIATOR_CITATION: afad
ORIGINAL_DATA_MEDIATOR: afad
ORIGINAL_DATA_CREATOR_CITATION: Disaster And Emergency Management Authority. (1973). Turkish National Strong Motion Network. Department of Earthquake, Disaster and Emergency Management Authority. https://doi.org/10.7914/SN/TK http://www.fdsn.org/networks/detail/TK/
ORIGINAL_DATA_CREATOR: network: TK (Turkish National Strong Motion Network (TNSMN)); owner: Disaster and Emergency Management Authority (AFAD)
USER1: 
USER2: 
USER3: 
USER4: 
USER5: 
[...]
-25.067878
-24.714540
-23.904551
-22.561304
-20.653586
-18.419095
-16.358663
-14.863514
-13.907123
-13.225388
-12.612976
-12.000468
-11.378512
-10.638732
-9.532343
-7.934527
-6.059086
-4.242103
-2.623264
-1.066111
0.692322
2.647975
4.318100
5.191723
5.264035
5.072419
5.417466
6.857257
9.368024
12.577316
16.095990
19.580078
22.716850
25.319372
27.411387
29.102564
30.369040
30.906738
30.252795
28.403065
26.202364
24.657592
24.032512
23.626340
22.199845
19.172665
15.444665
12.555797
11.441101
11.900923
12.736502
12.712177
11.417164
9.194372
6.765536
4.947982
4.391801
5.188059
6.574177
7.201591
5.779213
2.018438
-2.820397
-6.740644
-8.197702
-6.852491
-3.761951
-0.611713
1.198265
1.018757
-0.879496
-3.492100
-5.459142
-5.707613
-4.048225
-1.282769
1.115412
1.939904
1.088956
-0.523443
-1.574477
-1.285392
-0.043477
1.126093
1.439346
0.929627
0.502832
1.077044
2.740708
4.843043
6.531812
7.406978
7.841947
8.471510
9.604367
11.228375
13.256980
15.691237
18.559983
21.547820
23.815774
24.584775
23.803983
22.161402
20.630601
19.627632
18.497172
16.184370
12.194750
7.026432
2.032769
-1.524949
-3.320303
-3.793762
-3.587743
-3.052565
-2.113226
-0.815717
0.197226
0.054070
-1.668935
-4.485894
-7.039145
-8.100794
-7.549347
-6.290207
-5.616879
-6.297627
-8.033649
-10.018432
-11.696888
-12.958828
-13.973074
-14.810551
-15.267148
-15.251987
-15.138295
-15.453950
-16.382077
-17.560582
-18.241254
-17.947754
-16.970549
-15.984710
-15.431062
-15.230515
-14.851021
-13.830222
-12.202908
-10.301830
-8.390210
-6.508890
-4.496746
-2.161288
0.597018
3.845633
7.655957
11.913800
16.141486
19.645190
21.842380
22.654204
22.687937
22.812052
23.584273
24.945190
26.230914
26.707754
26.120510
24.770499
23.309738
22.305346
21.910485
21.972535
22.255330
22.524312
22.519650
21.863670
20.067789
16.824991
12.314468
7.207538
2.471336
-1.051770
-3.046136
-3.832046
-4.229719
-5.048585
-6.557220
-8.324176
-9.411179
-9.085487
-7.449894
-5.336267
-3.849383
-3.770031
-5.155084
-7.509231
-10.099212
-12.148956
-13.005731
-12.381713
-10.528236
-8.075907
-5.723112
-3.905179
-2.641298
-1.794672
-1.308582
-1.034458
-0.538263
0.685430
2.846167
5.638830
8.335948
10.418945
12.050779
13.652907
15.316094
16.755463
17.626300
18.029468
18.678430
20.147036
22.136716
23.739508
24.096213
22.950412
20.828966
18.507993
16.473302
14.959277
14.087342
13.685519
13.102935
11.495622
8.387111
4.251838
0.572941
-1.393004
-1.844569
-2.232176
-4.255560
-8.464969
-13.529980
-17.474939
-19.259024
-19.221590
-18.673293
-18.652054
-19.004929
-18.956691
-18.051067
-16.505640
-15.041021
-14.159910
-13.637693
-12.974016
-12.030423
-11.117445
-10.682020
-10.703912
-10.400718
-8.933411
-6.264759
-3.307269
-1.501597
-1.777196
-3.773623
-6.302257
-8.221576
-9.079004
-9.287739
-9.476689
-9.818989
-10.053670
-9.798666
-8.864039
-7.406510
-5.782556
-4.380935
-3.609647
-3.832947
-5.039047
-6.568365
-7.380419
-6.616130
-4.258194
-1.398599
0.580709
1.001218
0.172378
-0.906135
-1.491378
-1.795789
-2.494919
-3.917669
-5.708231
-7.014714
-7.362952
-7.304170
-7.864247
-9.662596
-12.495397
-15.467325
-17.877814
-19.903558
-22.092466
-24.550184
-26.657207
-27.346434
-26.076910
-23.527091
-20.943881
-19.148672
-18.113454
-17.124738
-15.686693
-14.201579
-13.458187
-13.844389
-15.125115
-16.681196
-18.163329
-19.874465
-22.170884
-24.751266
-26.706887
-27.017357
-25.280440
-22.131383
-18.706329
-15.890834
-13.966966
-12.600274
-11.248243
-9.598942
-7.719474
-5.980155
-4.690152
-3.740150
-2.579542
-0.479621
2.860196
6.897082
10.654450
13.361711
14.796468
15.247731
14.950909
13.698878
11.325449
8.290024
5.550177
4.013975
3.813928
3.987323
3.291329
1.162860
-2.102665
-5.647676
-8.698547
-11.062966
-13.000510
-14.883715
-16.922861
-19.023559
-20.880527
-22.162478
-22.700070
-22.535422
-21.670220
-19.878478
-16.978551
-13.212485
-9.321092
-6.261146
-4.451129
-3.302431
-1.907854
0.073688
2.264434
3.915455
4.622975
4.727396
4.714356
4.595547
4.187210
3.600765
3.253104
3.568301
4.589646
5.941355
7.564081
10.208510
14.583159
20.310581
25.939860
29.695394
30.793168
30.203257
29.572136
29.853025
31.042225
32.560827
33.968760
35.351469
36.785423
37.790107
37.633375
35.891912
32.695957
28.672828
24.547380
20.804551
17.740783
15.548111
14.136644
12.986650
11.426504
9.071558
6.143831
3.490440
1.990924
1.959883
3.138252
4.963324
6.932504
8.842344
10.698638
12.563915
14.516607
16.619459
18.796617
20.764060
22.226461
23.140786
23.802357
24.678564
25.857937
26.675209
26.197615
23.985172
20.564825
17.385491
15.812409
16.142649
17.647365
19.155605
19.907544
20.068456
20.212664
20.581480
20.817862
20.145386
18.094826
15.107562
12.290879
10.788678
11.081791
12.642083
14.508635
16.051812
17.274617
18.671628
20.526223
22.357678
23.261259
22.540773
20.126893
16.625872
12.751431
8.802289
4.804761
0.860362
-2.716571
-5.507705
-7.391079
-8.802223
-10.384537
-12.506842
-15.082999
-17.629599
-19.572898
-20.506758
-20.169357
-18.403088
-15.328709
-11.517911
-7.844368
-5.118846
-3.582528
-2.649586
-1.428737
0.594119
3.290443
6.021096
8.276794
10.187849
12.246361
14.783879
17.661048
20.253454
21.894997
22.302559
21.557553
19.935816
17.791310
15.488254
13.335592
11.509581
10.000274
8.639699
7.296288
6.020895
4.921582
4.009796
3.253369
2.703906
2.531696
2.901708
3.617168
3.907342
2.839526
-0.089542
-4.602517
-9.642595
-14.018551
-17.114391
-19.108547
-20.799885
-22.926858
-25.525961
-27.914975
-29.100165
-28.596819
-27.014317
-25.624195
-25.552211
-27.085963
-29.435413
-31.450428
-32.422301
-32.210241
-31.048568
-29.280350
-27.230163
-25.329338
-24.131024
-23.869876
-24.084636
-23.934990
-22.791147
-20.709032
-18.517889
-17.108262
-16.705893
-16.889156
-16.951857
-16.351358
-14.972851
-12.963842
-10.546972
-8.120034
-6.347667
-5.864174
-6.818307
-8.557999
-9.708159
-9.088822
-6.649428
-3.510047
-1.393794
-1.475573
-3.528171
-6.365082
-8.720418
-9.923405
-10.120594
-9.704490
-8.759437
-7.235570
-5.323822
-3.528989
-2.482983
-2.540056
-3.553664
-5.242574
-7.566790
-10.558329
-14.011223
-17.444074
-20.280853
-22.196697
-23.284879
-23.704184
-23.379039
-22.307110
-20.928297
-19.946270
-19.865071
-20.527882
-21.070576
-20.805371
-20.009266
-19.524398
-19.931704
-20.973309
-21.505812
-20.414914
-17.507915
-13.447618
-9.294031
-6.012737
-4.115585
-3.570663
-3.844310
-4.138159
-3.751073
-2.515344
-0.960675
0.295170
1.227941
2.437348
4.748556
8.477711
12.966661
17.070742
19.855898
20.900159
20.330275
18.648021
16.565780
14.908323
14.398393
15.149142
16.331116
16.668084
15.212736
11.913434
7.729169
3.862361
0.955332
-0.974626
-2.254869
-3.187561
-3.842962
-4.226595
-4.456532
-4.652785
-4.797130
-4.839672
-4.879599
-5.212312
-6.216991
-8.026555
-10.286463
-12.362834
-13.701138
-14.106373
-13.869508
-13.579603
-13.819373
-14.848720
-16.403381
-17.837807
-18.444834
-17.873878
-16.374417
-14.499989
-12.686685
-11.060442
-9.469634
-7.803819
-6.250737
-5.157511
-4.788943
-5.221739
-6.330347
-7.829894
-9.308932
-10.245410
-10.083064
-8.475205
-5.516815
-1.748407
1.967836
4.716680
5.863879
5.399396
4.108741
3.197991
3.670603
5.687838
8.317736
10.288948
10.896520
10.271203
9.181416
8.369522
8.047585
8.131788
8.604889
9.486866
10.662073
11.847440
12.726243
13.244803
13.747120
14.583914
15.708530
16.784713
17.504390
17.855824
18.190363
18.884808
19.975390
21.109726
21.675142
21.079989
19.069960
15.965736
12.682359
10.207624
8.954252
8.429778
7.376924
4.777409
0.829841
-3.083014
-5.074572
-4.008845
-0.426737
3.939464
7.224784
8.501890
8.302959
7.810941
7.785826
8.141331
8.122162
7.221520
5.905261
5.179991
5.780344
7.634360
9.821754
11.372175
12.015641
12.041901
11.838076
11.562798
11.091953
10.360538
9.601307
9.015860
8.405310
7.328243
5.513094
3.259233
1.519121
1.236558
2.636293
5.153978
7.742614
9.461678
9.943030
9.337291
8.087162
6.728448
5.740614
5.430956
5.833319
6.679169
7.471189
7.762822
7.437221
6.748515
6.192175
6.181659
6.775362
7.722175
8.658320
9.359825
9.883187
10.407380
11.045902
11.864532
12.980588
14.588404
16.824287
19.395150
21.387201
21.794968
20.224853
17.207656
14.028927
11.815184
10.771681
10.497625
10.628222
11.154022
12.334669
14.111063
15.759835
16.537495
16.380345
15.715229
14.920722
13.963962
12.465142
10.435183
8.717063
8.106895
8.361991
8.380577
7.019636
4.118884
0.925244
-1.055387
-1.338099
-0.503352
0.386133
0.600609
0.244353
-0.135736
-0.177547
-0.044972
-0.409797
-1.855087
-4.243306
-6.648771
-7.828858
-7.355772
-6.321220
-6.314272
-8.012068
-10.667580
-12.470615
-11.996607
-9.291848
-5.181030
-0.322253
4.670217
8.829397
11.108240
11.140338
10.072855
10.423075
13.637941
17.992456
19.896124
16.653944
8.944076
1.296593
-1.872350
-0.379006
1.917804
-0.087451
-8.293151
-18.927165
-26.376302
-28.160158
-26.197134
-25.059784
-27.238347
-30.172033
-30.039891
-26.477753
-22.538142
-21.855241
-24.669802
-26.359438
-22.513453
-13.993830
-5.415610
-1.123427
-2.147741
-5.530973
-7.745765
-7.868876
-6.680900
-4.900723
-3.296231
-3.261227
-6.139739
-12.030465
-19.174419
-24.479789
-25.974874
-24.637217
-22.863933
-22.312024
-23.466185
-25.922017
-28.557996
-29.700356
-27.843980
-22.704641
-16.061545
-11.403717
-11.011351
-13.607986
-16.025050
-15.910337
-12.873494
-8.336115
-4.111939
-1.308277
-0.671692
-2.698059
-6.161413
-7.424179
-3.459467
4.761626
12.463962
13.935393
7.733828
-0.387370
-2.561533
4.310663
15.873550
22.073721
15.311350
-2.338309
-20.890269
-28.943048
-22.337651
-8.739791
-0.185503
-3.038525
-14.019138
-22.349025
-19.939040
-9.388160
0.762245
4.391590
1.849262
-0.824150
1.141343
5.892653
8.735098
7.762268
4.689201
2.794393
3.521270
4.697254
3.325202
-1.128959
-6.661602
-10.178198
-9.386938
-4.336012
2.323270
6.327797
4.860230
-0.723740
-5.559281
-4.202942
4.620237
15.422503
20.581183
16.538282
6.201524
-2.495447
-3.257021
2.979792
10.160835
12.276649
7.973736
2.008669
0.001832
2.689738
5.696820
2.802341
-8.166981
-21.493963
-27.541051
-19.647362
0.074696
19.373391
24.641664
11.483269
-11.477033
-26.228371
-20.067872
2.307693
24.528977
31.395078
20.252595
4.079014
-2.690116
1.993962
10.987651
16.990337
17.863871
16.709775
15.449738
10.916441
1.478608
-7.016487
-7.457771
0.229514
9.368793
11.928942
5.923237
-1.830014
-4.746051
-4.953372
-8.863627
-18.944238
-30.413305
-33.210666
-20.898944
1.490139
19.707981
18.651831
-4.961202
-35.051647
-47.080488
-26.228456
17.733567
50.127899
42.289748
0.560325
-42.373867
-53.641573
-27.614455
5.566836
14.648891
0.808142
-13.439299
-10.831951
4.948623
11.448049
-4.345946
-25.857867
-29.115736
-11.238515
10.217236
13.909151
-4.088687
-22.574256
-20.540299
-1.975651
13.047858
9.191384
-11.214773
-28.743344
-28.316548
-16.540841
-10.019485
-16.395875
-28.467492
-29.950103
-13.058708
10.254259
22.352006
18.036734
6.353606
1.921514
9.884153
18.291357
12.812016
-6.582140
-26.798006
-31.957197
-16.287838
9.756583
30.653932
38.779131
35.459655
26.533379
17.237553
9.827046
6.354544
10.740518
24.723825
43.176852
55.410420
50.703569
27.112195
-3.473728
-23.484297
-21.997526
-2.806863
16.059847
18.888625
7.677886
-2.016323
5.234197
29.394830
50.014732
46.634975
20.063049
-10.312436
-21.614434
-6.389741
19.231286
34.787155
35.988054
31.413203
29.107045
25.770374
7.333333
-29.882822
-63.753258
-65.388370
-26.406134
32.434264
71.977853
69.624352
43.134613
25.005605
27.279855
35.147495
22.406239
-15.571271
-45.730651
-34.987586
9.434584
49.252091
47.896537
4.055216
-39.396118
-41.301513
-6.318836
29.296396
33.477278
3.998368
-28.149954
-33.159714
-13.053565
10.834785
22.371969
19.938175
13.290821
10.046582
7.009155
-0.415993
-7.993459
-8.020368
1.228089
13.733304
19.758127
14.252531
1.881421
-9.363241
-15.985368
-18.986046
-20.003563
-17.338079
-5.756152
15.824450
37.903935
45.790036
30.149738
-3.711561
-34.939339
-44.473606
-31.502596
-9.193303
8.188394
16.483284
23.373407
32.549773
32.572510
12.728554
-18.461781
-38.303214
-27.797053
8.210052
36.652215
29.411382
-5.599463
-36.634845
-36.566197
-4.244861
31.864255
42.170885
22.996889
-9.336225
-35.326823
-42.813683
-30.868401
-6.696398
18.663477
34.126610
33.151116
19.198432
6.005666
4.482156
11.659875
17.990481
18.748192
16.024116
14.247187
12.419881
2.373711
-18.139692
-35.873260
-35.458643
-16.054856
8.978084
22.051361
15.254379
-3.046823
-20.677742
-34.144352
-44.059126
-47.657912
-41.960675
-29.848835
-19.498473
-18.278562
-23.359911
-20.142632
-0.537114
22.666266
30.916221
21.158123
8.803765
15.300545
42.101457
58.775022
36.454182
-16.372031
-61.048379
-58.797280
-7.146127
46.776546
52.205237
4.350018
-57.959363
-83.156151
-50.666364
6.291566
37.757949
23.331225
-18.877801
-48.819708
-41.852879
-13.605024
2.734180
-9.654835
-38.740247
-51.926340
-29.317031
11.410144
34.135813
16.898389
-29.531902
-64.472409
-54.922648
-8.630023
38.077420
50.328182
20.826777
-22.342449
-45.292757
-39.288462
-19.379275
-7.903819
-15.221185
-30.494665
-36.484768
-27.194859
-9.626771
3.275788
3.976100
-2.684940
-6.011757
0.668537
15.320274
28.245425
31.111364
24.731388
16.256019
12.217565
12.719591
10.395496
-1.176155
-19.547445
-36.055825
-42.838726
-39.094226
-32.910770
-33.564393
-42.779433
-53.204740
-52.299895
-32.224387
1.806375
33.760044
45.618192
31.250369
4.567306
-12.120925
-5.368767
19.545638
40.191510
37.820926
15.555021
-8.711283
-18.546888
-10.832066
2.651209
11.088415
17.519442
29.065713
43.026501
47.474609
31.159233
-2.484376
-30.949665
-33.752719
-13.423022
10.092666
16.533501
1.431966
-19.047190
-27.017630
-21.643830
-14.921402
-18.727607
-34.979034
-53.336187
-61.885546
-57.649851
-45.164003
-30.888390
-19.411457
-11.858598
-6.863669
-2.309522
2.749392
6.781399
6.761564
0.986306
-6.804422
-6.768771
7.960141
32.092169
50.149017
45.723333
15.804155
-21.856730
-43.558369
-38.697811
-15.753329
3.475041
3.641494
-9.350305
-18.665003
-13.807332
1.245966
10.495852
2.667195
-15.576644
-28.093095
-23.798140
-3.712966
19.918592
34.693115
37.579984
32.241264
23.005517
12.547812
1.942962
-8.280392
-17.331390
-23.964256
-26.317263
-22.089052
-10.431326
3.473910
7.329566
-7.889651
-36.919583
-61.505599
-60.880987
-30.289275
8.891232
27.835902
14.718264
-17.610109
-39.622131
-32.286743
-7.165620
8.946254
-0.553494
-29.303063
-51.111577
-46.086649
-22.006662
-2.437373
-4.261074
-24.455392
-40.861517
-34.846239
-11.048962
10.757443
13.859314
-2.016457
-18.373861
-15.799012
7.933108
38.697540
56.655294
51.287932
30.694967
13.145625
13.073239
31.058333
51.785571
57.415038
42.543301
17.327221
1.185123
6.049554
24.169853
37.174084
31.702197
9.051024
-14.622926
-23.691706
-17.163670
-5.186274
0.768219
-4.615764
-17.663748
-30.453633
-36.397415
-32.114732
-18.361904
-1.296507
9.052883
7.643556
1.370155
2.720573
18.576491
42.579203
56.522709
48.441074
27.206021
11.894584
13.766637
27.523214
34.322627
21.452594
-2.494698
-18.818939
-16.657147
0.012158
15.461088
16.777820
5.296501
-9.230381
-18.828931
-21.115494
-18.341160
-12.917849
-4.776967
5.112350
11.474371
8.385000
-4.998685
-22.152559
-31.694155
-27.211566
-14.739272
-6.755113
-11.576037
-26.317398
-37.386776
-34.384700
-21.779162
-11.929478
-12.074704
-17.168122
-12.189277
10.812232
39.961908
55.516604
48.132270
25.793755
8.833959
9.971330
19.974407
20.765528
4.847100
-18.738411
-30.409481
-18.937573
5.493135
23.779490
25.998664
16.857633
10.858236
17.374910
30.410351
37.959634
35.127722
26.513838
21.467989
24.631775
30.551912
31.233630
24.988527
15.782802
8.524339
5.060917
3.373789
2.163827
4.134562
11.573245
21.329869
26.743817
22.777651
10.743628
-0.816525
-3.585723
3.179426
13.834377
21.203575
21.483185
16.416419
9.705224
3.182617
-2.490446
-5.764267
-4.000058
4.812558
18.610567
29.838550
30.798151
20.158219
4.599920
-4.220834
1.111284
16.519045
30.492209
32.657318
21.515903
6.857750
0.436862
5.663755
16.616674
22.811215
18.081271
6.264783
-4.230344
-8.298496
-6.858513
-5.250799
-7.161014
-10.291381
-9.956783
-4.327561
4.377955
11.566852
14.136358
12.906151
10.160272
6.811603
3.178648
0.570645
0.728252
4.112806
8.503732
9.540402
5.073693
-1.684018
-5.735020
-5.202491
-2.279664
-1.260481
-4.211597
-8.541001
-10.825355
-10.997652
-11.248390
-13.066189
-15.659840
-16.350648
-13.589206
-9.071996
-5.456910
-3.490434
-2.164434
-0.201625
2.626464
5.091918
5.811936
4.661366
2.843078
2.211135
3.976873
7.357215
9.115815
4.820021
-6.783345
-20.557409
-28.361138
-25.021616
-13.028445
-2.574861
-2.046485
-9.351401
-15.196739
-11.383117
1.737864
13.629054
14.196164
4.122928
-7.622265
-11.622512
-5.211754
5.104012
11.015614
10.035742
4.748568
-1.059549
-5.183771
-7.812548
-9.700590
-10.628888
-10.372327
-9.623118
-8.498156
-5.230709
1.897566
11.823813
20.064386
20.467482
10.270323
-6.189062
-20.577256
-25.933072
-20.573292
-9.190178
1.331431
6.756375
7.025266
5.456539
5.544759
8.109630
11.437522
12.975168
11.797743
9.931377
10.240484
13.619110
18.131361
20.112109
17.769610
13.788653
12.937952
18.075177
27.636174
35.795951
37.355182
32.241494
24.367895
18.056373
14.553587
10.987605
4.596712
-3.121419
-7.714760
-5.457180
3.205896
12.737695
17.127597
14.781709
8.595777
3.490850
2.716207
5.420650
8.199056
7.768938
2.778905
-5.406195
-13.581856
-18.291061
-17.811397
-13.516325
-8.995431
-8.057054
-12.201651
-19.162471
-24.714865
-25.393348
-20.282817
-11.593180
-3.138087
1.627398
0.940142
-4.484853
-11.641202
-16.197501
-14.745931
-6.924338
4.372572
14.222944
18.659325
17.160226
12.165597
7.323255
5.438290
7.126101
11.264472
15.890114
18.797177
18.157992
13.565353
6.775973
0.864369
-1.492199
-0.021363
2.392373
2.367950
-0.922620
-5.367829
-7.427208
-5.294510
-0.828804
2.927948
4.981722
6.840701
10.949233
17.546913
23.059233
23.534629
18.763407
12.617254
10.632376
15.138300
22.145085
24.935375
19.473869
7.284086
-4.902584
-10.604996
-8.777970
-3.383755
-0.222797
-2.738983
-9.526931
-16.629859
-20.881003
-21.306421
-19.012326
-15.561728
-11.599439
-7.170874
-2.481429
1.911188
5.248869
6.897055
6.715474
5.386639
4.412879
5.164661
