EVENT_NAME: None
EVENT_ID: INT-20230206_0000222
EVENT_DATE_YYYYMMDD: 20230206
EVENT_TIME_HHMMSS: 102449
EVENT_LATITUDE_DEGREE: 38.1100
EVENT_LONGITUDE_DEGREE: 37.2400
EVENT_DEPTH_KM: 10.0
HYPOCENTER_REFERENCE: EMSC-CSEM
MAGNITUDE_W: 7.5
MAGNITUDE_W_REFERENCE: EMSC-CSEM
MAGNITUDE_L: 
MAGNITUDE_L_REFERENCE: 
FOCAL_MECHANISM: Strike-slip faulting
NETWORK: TK
STATION_CODE: 4611
STATION_NAME: None
STATION_LATITUDE_DEGREE: 37.747200
STATION_LONGITUDE_DEGREE: 37.284260
STATION_ELEVATION_M: 1097
LOCATION: 
SENSOR_DEPTH_M: 0.0
VS30_M/S: 
SITE_CLASSIFICATION_EC8: B (inferred from topography)
MORPHOLOGIC_CLASSIFICATION: 
EPICENTRAL_DISTANCE_KM: 40.5
EARTHQUAKE_BACKAZIMUTH_DEGREE: 354.5
DATE_TIME_FIRST_SAMPLE_YYYYMMDD_HHMMSS: 
DATE_TIME_FIRST_SAMPLE_PRECISION: 
SAMPLING_INTERVAL_S: 
NDATA: 105
DURATION_S: 
STREAM: HNN
UNITS: cm/s^2
INSTRUMENT: HN
INSTRUMENT_ANALOG/DIGITAL: D
INSTRUMENTAL_FREQUENCY_HZ: 
INSTRUMENTAL_DAMPING: 
FULL_SCALE_G: 
N_BIT_DIGITAL_CONVERTER: 
PGA_CM/S^2: -193.871014
TIME_PGA_S: 
BASELINE_CORRECTION: BASELINE REMOVED
FILTER_TYPE: BUTTERWORTH
FILTER_ORDER: 2
LOW_CUT_FREQUENCY_HZ: 0.030
HIGH_CUT_FREQUENCY_HZ: 40.000
LATE/NORMAL_TRIGGERED: NT
DATABASE_VERSION: 0.5
HEADER_FORMAT: DYNA 1.2
DATA_TYPE: ACCELERATION RESPONSE SPECTRUM
PROCESSING: manual (Paolucci et al., 2011)
DATA_TIMESTAMP_YYYYMMDD_HHMMSS: 20251106_223021.550
DATA_LICENSE: D (network default license)
DATA_CITATION: Luzi L., Lanzano G., Felicetta C., D Amico M. C., Russo E., Sgobba S., Pacor, F., & ORFEUS Working Group 5 (2020). Engineering Strong Motion Database (ESM) (Version 2.0). Istituto Nazionale di Geofisica e Vulcanologia (INGV). https://doi.org/10.13127/ESM.2
DATA_CREATOR: ESM working group
ORIGINAL_DATA_MEDIATOR_CITATION: afad
ORIGINAL_DATA_MEDIATOR: afad
ORIGINAL_DATA_CREATOR_CITATION: Disaster And Emergency Management Authority. (1973). Turkish National Strong Motion Network. Department of Earthquake, Disaster and Emergency Management Authority. https://doi.org/10.7914/SN/TK http://www.fdsn.org/networks/detail/TK/
ORIGINAL_DATA_CREATOR: network: TK (Turkish National Strong Motion Network (TNSMN)); owner: Disaster and Emergency Management Authority (AFAD)
USER1: 
USER2: 
USER3: 
USER4: 
USER5: 
    0.010000   194.271957
    0.020000   196.229996
    0.022000   196.189438
    0.025000   196.558563
    0.029000   197.028625
    0.030000   197.077271
    0.032000   197.698166
    0.035000   198.827042
    0.036000   200.162033
    0.040000   205.560181
    0.042000   207.135910
    0.044000   208.906235
    0.045000   211.637299
    0.046000   213.704803
    0.048000   217.229141
    0.050000   222.356216
    0.055000   234.525070
    0.060000   240.322067
    0.065000   275.905609
    0.067000   276.621124
    0.070000   292.696838
    0.075000   298.835083
    0.080000   350.955139
    0.085000   377.061554
    0.090000   376.977905
    0.095000   364.973389
    0.100000   355.285339
    0.110000   343.271912
    0.120000   340.750305
    0.130000   353.882812
    0.133000   335.523529
    0.140000   362.602448
    0.150000   349.906311
    0.160000   283.935516
    0.170000   407.292114
    0.180000   405.602051
    0.190000   435.844330
    0.200000   465.074310
    0.220000   404.569427
    0.240000   321.276306
    0.250000   343.174622
    0.260000   362.448639
    0.280000   350.221588
    0.290000   333.308594
    0.300000   351.050385
    0.320000   252.762589
    0.340000   230.507385
    0.350000   242.741226
    0.360000   257.924591
    0.380000   264.093475
    0.400000   244.021042
    0.420000   285.088776
    0.440000   332.356323
    0.450000   326.319183
    0.460000   313.368591
    0.480000   306.046356
    0.500000   313.288239
    0.550000   319.624756
    0.600000   367.174164
    0.650000   350.232483
    0.667000   334.407318
    0.700000   321.690735
    0.750000   290.905670
    0.800000   221.139267
    0.850000   197.530991
    0.900000   196.243256
    0.950000   166.058929
    1.000000   119.309059
    1.100000   124.982773
    1.200000   131.305405
    1.300000    94.287804
    1.400000    89.558960
    1.500000    88.451820
    1.600000    69.867905
    1.700000    71.081192
    1.800000    66.334450
    1.900000    69.300461
    2.000000    67.725113
    2.200000    46.414532
    2.400000    42.577492
    2.500000    40.083794
    2.600000    39.511139
    2.800000    41.572575
    3.000000    48.078609
    3.200000    49.209892
    3.400000    40.906624
    3.500000    37.094833
    3.600000    34.510132
    3.800000    27.373304
    4.000000    23.224537
    4.200000    22.372801
    4.400000    21.706890
    4.600000    21.390020
    4.800000    21.243855
    5.000000    20.970232
    5.500000    22.819153
    6.000000    24.356134
    6.500000    25.771536
    7.000000    22.338037
    7.500000    20.776054
    8.000000    19.308310
    8.500000    17.004940
    9.000000    14.744331
    9.500000    13.546631
   10.000000    12.080097
