EVENT_NAME: None
EVENT_ID: INT-20230206_0000222
EVENT_DATE_YYYYMMDD: 20230206
EVENT_TIME_HHMMSS: 102449
EVENT_LATITUDE_DEGREE: 38.1100
EVENT_LONGITUDE_DEGREE: 37.2400
EVENT_DEPTH_KM: 10.0
HYPOCENTER_REFERENCE: EMSC-CSEM
MAGNITUDE_W: 7.5
MAGNITUDE_W_REFERENCE: EMSC-CSEM
MAGNITUDE_L: 
MAGNITUDE_L_REFERENCE: 
FOCAL_MECHANISM: Strike-slip faulting
NETWORK: TK
STATION_CODE: 4620
STATION_NAME: None
STATION_LATITUDE_DEGREE: 37.585680
STATION_LONGITUDE_DEGREE: 36.898450
STATION_ELEVATION_M: 698
LOCATION: 
SENSOR_DEPTH_M: 0.0
VS30_M/S: 
SITE_CLASSIFICATION_EC8: B (inferred from topography)
MORPHOLOGIC_CLASSIFICATION: 
EPICENTRAL_DISTANCE_KM: 65.5
EARTHQUAKE_BACKAZIMUTH_DEGREE: 27.2
DATE_TIME_FIRST_SAMPLE_YYYYMMDD_HHMMSS: 
DATE_TIME_FIRST_SAMPLE_PRECISION: 
SAMPLING_INTERVAL_S: 
NDATA: 105
DURATION_S: 
STREAM: HNE
UNITS: cm/s^2
INSTRUMENT: HN
INSTRUMENT_ANALOG/DIGITAL: D
INSTRUMENTAL_FREQUENCY_HZ: 
INSTRUMENTAL_DAMPING: 
FULL_SCALE_G: 
N_BIT_DIGITAL_CONVERTER: 
PGA_CM/S^2: -80.990852
TIME_PGA_S: 
BASELINE_CORRECTION: BASELINE REMOVED
FILTER_TYPE: BUTTERWORTH
FILTER_ORDER: 2
LOW_CUT_FREQUENCY_HZ: 0.030
HIGH_CUT_FREQUENCY_HZ: 40.000
LATE/NORMAL_TRIGGERED: NT
DATABASE_VERSION: 0.5
HEADER_FORMAT: DYNA 1.2
DATA_TYPE: ACCELERATION RESPONSE SPECTRUM
PROCESSING: manual (Paolucci et al., 2011)
DATA_TIMESTAMP_YYYYMMDD_HHMMSS: 20251106_223024.619
DATA_LICENSE: D (network default license)
DATA_CITATION: Luzi L., Lanzano G., Felicetta C., D Amico M. C., Russo E., Sgobba S., Pacor, F., & ORFEUS Working Group 5 (2020). Engineering Strong Motion Database (ESM) (Version 2.0). Istituto Nazionale di Geofisica e Vulcanologia (INGV). https://doi.org/10.13127/ESM.2
DATA_CREATOR: ESM working group
ORIGINAL_DATA_MEDIATOR_CITATION: afad
ORIGINAL_DATA_MEDIATOR: afad
ORIGINAL_DATA_CREATOR_CITATION: Disaster And Emergency Management Authority. (1973). Turkish National Strong Motion Network. Department of Earthquake, Disaster and Emergency Management Authority. https://doi.org/10.7914/SN/TK http://www.fdsn.org/networks/detail/TK/
ORIGINAL_DATA_CREATOR: network: TK (Turkish National Strong Motion Network (TNSMN)); owner: Disaster and Emergency Management Authority (AFAD)
USER1: 
USER2: 
USER3: 
USER4: 
USER5: 
    0.010000    81.072357
    0.020000    81.458801
    0.022000    81.555267
    0.025000    81.698471
    0.029000    81.960190
    0.030000    82.053123
    0.032000    81.959312
    0.035000    82.875481
    0.036000    83.288918
    0.040000    83.481964
    0.042000    84.072319
    0.044000    83.948456
    0.045000    84.296310
    0.046000    84.949028
    0.048000    86.457466
    0.050000    87.665703
    0.055000    82.702400
    0.060000    94.253754
    0.065000    98.333061
    0.067000    95.377098
    0.070000    95.362259
    0.075000   100.909058
    0.080000   100.177231
    0.085000    98.155373
    0.090000    92.159851
    0.095000    92.492264
    0.100000   105.380196
    0.110000   148.184326
    0.120000   135.725983
    0.130000   115.926979
    0.133000   117.535416
    0.140000   113.424629
    0.150000   120.784859
    0.160000   143.655777
    0.170000   145.960587
    0.180000   131.795914
    0.190000   140.691986
    0.200000   143.544983
    0.220000   138.141632
    0.240000   162.399292
    0.250000   150.167236
    0.260000   154.955490
    0.280000   153.409088
    0.290000   142.738297
    0.300000   122.655533
    0.320000   134.956940
    0.340000   135.331390
    0.350000   126.802940
    0.360000   121.463318
    0.380000   109.818596
    0.400000    99.079918
    0.420000   109.277924
    0.440000   140.913818
    0.450000   149.118149
    0.460000   148.834961
    0.480000   138.685349
    0.500000   142.545639
    0.550000   160.298599
    0.600000   118.666008
    0.650000   115.959274
    0.667000   113.155594
    0.700000   112.250847
    0.750000   119.860229
    0.800000    99.552544
    0.850000    95.907982
    0.900000    95.022079
    0.950000    91.497765
    1.000000    98.607101
    1.100000   142.574326
    1.200000   145.593430
    1.300000   170.626724
    1.400000   196.753632
    1.500000   198.467422
    1.600000   184.573441
    1.700000   166.329620
    1.800000   152.904434
    1.900000   130.138718
    2.000000   106.147209
    2.200000    71.445129
    2.400000    59.639874
    2.500000    59.205811
    2.600000    60.116390
    2.800000    76.602165
    3.000000   101.635155
    3.200000   126.070801
    3.400000   132.602631
    3.500000   127.110886
    3.600000   116.503548
    3.800000   100.453148
    4.000000    83.671638
    4.200000    70.306023
    4.400000    70.951172
    4.600000    79.294273
    4.800000    84.478119
    5.000000    82.791374
    5.500000    54.258518
    6.000000    41.490330
    6.500000    39.860497
    7.000000    40.365444
    7.500000    37.779343
    8.000000    36.740837
    8.500000    31.034426
    9.000000    28.620152
    9.500000    26.063612
   10.000000    23.760561
