EVENT_NAME: None
EVENT_ID: INT-20230206_0000222
EVENT_DATE_YYYYMMDD: 20230206
EVENT_TIME_HHMMSS: 102449
EVENT_LATITUDE_DEGREE: 38.1100
EVENT_LONGITUDE_DEGREE: 37.2400
EVENT_DEPTH_KM: 10.0
HYPOCENTER_REFERENCE: EMSC-CSEM
MAGNITUDE_W: 7.5
MAGNITUDE_W_REFERENCE: EMSC-CSEM
MAGNITUDE_L: 
MAGNITUDE_L_REFERENCE: 
FOCAL_MECHANISM: Strike-slip faulting
NETWORK: TK
STATION_CODE: 4611
STATION_NAME: None
STATION_LATITUDE_DEGREE: 37.747200
STATION_LONGITUDE_DEGREE: 37.284260
STATION_ELEVATION_M: 1097
LOCATION: 
SENSOR_DEPTH_M: 0.0
VS30_M/S: 
SITE_CLASSIFICATION_EC8: B (inferred from topography)
MORPHOLOGIC_CLASSIFICATION: 
EPICENTRAL_DISTANCE_KM: 40.5
EARTHQUAKE_BACKAZIMUTH_DEGREE: 354.5
DATE_TIME_FIRST_SAMPLE_YYYYMMDD_HHMMSS: 
DATE_TIME_FIRST_SAMPLE_PRECISION: 
SAMPLING_INTERVAL_S: 
NDATA: 105
DURATION_S: 
STREAM: HNZ
UNITS: cm/s^2
INSTRUMENT: HN
INSTRUMENT_ANALOG/DIGITAL: D
INSTRUMENTAL_FREQUENCY_HZ: 
INSTRUMENTAL_DAMPING: 
FULL_SCALE_G: 
N_BIT_DIGITAL_CONVERTER: 
PGA_CM/S^2: 73.136179
TIME_PGA_S: 
BASELINE_CORRECTION: BASELINE REMOVED
FILTER_TYPE: BUTTERWORTH
FILTER_ORDER: 2
LOW_CUT_FREQUENCY_HZ: 0.030
HIGH_CUT_FREQUENCY_HZ: 40.000
LATE/NORMAL_TRIGGERED: NT
DATABASE_VERSION: 0.5
HEADER_FORMAT: DYNA 1.2
DATA_TYPE: ACCELERATION RESPONSE SPECTRUM
PROCESSING: manual (Paolucci et al., 2011)
DATA_TIMESTAMP_YYYYMMDD_HHMMSS: 20251106_223021.737
DATA_LICENSE: D (network default license)
DATA_CITATION: Luzi L., Lanzano G., Felicetta C., D Amico M. C., Russo E., Sgobba S., Pacor, F., & ORFEUS Working Group 5 (2020). Engineering Strong Motion Database (ESM) (Version 2.0). Istituto Nazionale di Geofisica e Vulcanologia (INGV). https://doi.org/10.13127/ESM.2
DATA_CREATOR: ESM working group
ORIGINAL_DATA_MEDIATOR_CITATION: afad
ORIGINAL_DATA_MEDIATOR: afad
ORIGINAL_DATA_CREATOR_CITATION: Disaster And Emergency Management Authority. (1973). Turkish National Strong Motion Network. Department of Earthquake, Disaster and Emergency Management Authority. https://doi.org/10.7914/SN/TK http://www.fdsn.org/networks/detail/TK/
ORIGINAL_DATA_CREATOR: network: TK (Turkish National Strong Motion Network (TNSMN)); owner: Disaster and Emergency Management Authority (AFAD)
USER1: 
USER2: 
USER3: 
USER4: 
USER5: 
    0.010000    73.251289
    0.020000    73.468979
    0.022000    73.726143
    0.025000    74.958664
    0.029000    77.990234
    0.030000    78.041435
    0.032000    79.393867
    0.035000    80.980766
    0.036000    77.160385
    0.040000    82.598999
    0.042000    86.828133
    0.044000    94.567848
    0.045000    98.949852
    0.046000   103.305550
    0.048000   113.512199
    0.050000   118.259865
    0.055000   119.883339
    0.060000   130.379776
    0.065000   123.510643
    0.067000   136.711731
    0.070000   136.142014
    0.075000   123.667519
    0.080000   119.338539
    0.085000   109.654755
    0.090000   123.343536
    0.095000   130.276123
    0.100000   131.732834
    0.110000   118.543472
    0.120000   124.588333
    0.130000   136.632904
    0.133000   134.081253
    0.140000   132.336212
    0.150000   139.140915
    0.160000   124.270538
    0.170000   100.743919
    0.180000   120.803986
    0.190000   110.996048
    0.200000   105.220604
    0.220000   129.669373
    0.240000   158.819046
    0.250000   142.536804
    0.260000   134.826965
    0.280000   124.054214
    0.290000   142.033325
    0.300000   161.193481
    0.320000   161.147644
    0.340000   170.232178
    0.350000   172.847717
    0.360000   167.776215
    0.380000   197.581787
    0.400000   194.646027
    0.420000   166.915146
    0.440000   179.431870
    0.450000   188.461121
    0.460000   190.179810
    0.480000   230.548462
    0.500000   219.028748
    0.550000   191.521240
    0.600000   136.818741
    0.650000   144.523773
    0.667000   156.011978
    0.700000   174.444611
    0.750000   154.347931
    0.800000   134.315704
    0.850000   119.028915
    0.900000   107.846176
    0.950000    93.521454
    1.000000    89.725410
    1.100000    78.502106
    1.200000    60.003746
    1.300000    66.239044
    1.400000    67.669090
    1.500000    59.897663
    1.600000    58.354469
    1.700000    48.264168
    1.800000    50.686886
    1.900000    47.210579
    2.000000    36.966560
    2.200000    31.262390
    2.400000    27.692507
    2.500000    29.143518
    2.600000    30.832483
    2.800000    37.270378
    3.000000    37.612206
    3.200000    34.935017
    3.400000    33.206070
    3.500000    32.537846
    3.600000    31.729757
    3.800000    29.783533
    4.000000    27.414463
    4.200000    24.586321
    4.400000    21.667837
    4.600000    19.259579
    4.800000    17.539742
    5.000000    15.902036
    5.500000    16.173218
    6.000000    12.284081
    6.500000    11.380166
    7.000000    11.040644
    7.500000    10.340355
    8.000000     9.835758
    8.500000     9.768377
    9.000000     9.382834
    9.500000     8.780396
   10.000000     8.159668
