EVENT_NAME: None
EVENT_ID: INT-20230206_0000222
EVENT_DATE_YYYYMMDD: 20230206
EVENT_TIME_HHMMSS: 102449
EVENT_LATITUDE_DEGREE: 38.1100
EVENT_LONGITUDE_DEGREE: 37.2400
EVENT_DEPTH_KM: 10.0
HYPOCENTER_REFERENCE: EMSC-CSEM
MAGNITUDE_W: 7.5
MAGNITUDE_W_REFERENCE: EMSC-CSEM
MAGNITUDE_L: 
MAGNITUDE_L_REFERENCE: 
FOCAL_MECHANISM: Strike-slip faulting
NETWORK: TK
STATION_CODE: 4612
STATION_NAME: Goksun Kahramanmaras
STATION_LATITUDE_DEGREE: 38.023950
STATION_LONGITUDE_DEGREE: 36.481870
STATION_ELEVATION_M: 1340
LOCATION: 
SENSOR_DEPTH_M: 0.0
VS30_M/S: 
SITE_CLASSIFICATION_EC8: C (inferred from topography)
MORPHOLOGIC_CLASSIFICATION: 
EPICENTRAL_DISTANCE_KM: 67.2
EARTHQUAKE_BACKAZIMUTH_DEGREE: 81.6
DATE_TIME_FIRST_SAMPLE_YYYYMMDD_HHMMSS: 
DATE_TIME_FIRST_SAMPLE_PRECISION: 
SAMPLING_INTERVAL_S: 
NDATA: 105
DURATION_S: 
STREAM: HNN
UNITS: cm/s^2
INSTRUMENT: HN
INSTRUMENT_ANALOG/DIGITAL: D
INSTRUMENTAL_FREQUENCY_HZ: 
INSTRUMENTAL_DAMPING: 
FULL_SCALE_G: 
N_BIT_DIGITAL_CONVERTER: 
PGA_CM/S^2: 630.534052
TIME_PGA_S: 
BASELINE_CORRECTION: BASELINE REMOVED
FILTER_TYPE: BUTTERWORTH
FILTER_ORDER: 2
LOW_CUT_FREQUENCY_HZ: 0.020
HIGH_CUT_FREQUENCY_HZ: 40.000
LATE/NORMAL_TRIGGERED: NT
DATABASE_VERSION: 0.5
HEADER_FORMAT: DYNA 1.2
DATA_TYPE: ACCELERATION RESPONSE SPECTRUM
PROCESSING: manual (Paolucci et al., 2011)
DATA_TIMESTAMP_YYYYMMDD_HHMMSS: 20251106_223022.633
DATA_LICENSE: D (network default license)
DATA_CITATION: Luzi L., Lanzano G., Felicetta C., D Amico M. C., Russo E., Sgobba S., Pacor, F., & ORFEUS Working Group 5 (2020). Engineering Strong Motion Database (ESM) (Version 2.0). Istituto Nazionale di Geofisica e Vulcanologia (INGV). https://doi.org/10.13127/ESM.2
DATA_CREATOR: ESM working group
ORIGINAL_DATA_MEDIATOR_CITATION: afad
ORIGINAL_DATA_MEDIATOR: afad
ORIGINAL_DATA_CREATOR_CITATION: Disaster And Emergency Management Authority. (1973). Turkish National Strong Motion Network. Department of Earthquake, Disaster and Emergency Management Authority. https://doi.org/10.7914/SN/TK http://www.fdsn.org/networks/detail/TK/
ORIGINAL_DATA_CREATOR: network: TK (Turkish National Strong Motion Network (TNSMN)); owner: Disaster and Emergency Management Authority (AFAD)
USER1: 
USER2: 
USER3: 
USER4: 
USER5: 
    0.010000   631.219421
    0.020000   636.191772
    0.022000   637.544373
    0.025000   641.821106
    0.029000   637.410217
    0.030000   637.868713
    0.032000   636.195251
    0.035000   636.392273
    0.036000   634.510681
    0.040000   659.018860
    0.042000   664.125061
    0.044000   663.833374
    0.045000   661.898254
    0.046000   659.590210
    0.048000   675.759949
    0.050000   703.534973
    0.055000   735.802734
    0.060000   753.960083
    0.065000   787.138855
    0.067000   794.068176
    0.070000   814.602905
    0.075000   814.513733
    0.080000   797.896057
    0.085000   809.181763
    0.090000   850.972412
    0.095000   879.529480
    0.100000   864.725830
    0.110000   925.092651
    0.120000   790.184937
    0.130000   817.173157
    0.133000   803.165222
    0.140000   861.851440
    0.150000   915.418762
    0.160000   990.927429
    0.170000   960.003540
    0.180000   865.414124
    0.190000   780.804321
    0.200000   875.142700
    0.220000   820.524963
    0.240000   827.648743
    0.250000   848.664917
    0.260000   850.705017
    0.280000   934.968018
    0.290000   927.728821
    0.300000   956.893555
    0.320000   921.917603
    0.340000   774.475159
    0.350000   875.967224
    0.360000   856.988770
    0.380000   928.930908
    0.400000  1124.379028
    0.420000  1164.924805
    0.440000  1041.414429
    0.450000   941.672668
    0.460000   910.830017
    0.480000   919.125610
    0.500000   888.943848
    0.550000  1282.588867
    0.600000  1360.033936
    0.650000  1088.272827
    0.667000  1013.611023
    0.700000   944.666809
    0.750000   902.527344
    0.800000   873.421082
    0.850000   801.199524
    0.900000   708.621094
    0.950000   659.643127
    1.000000   705.415833
    1.100000   943.319397
    1.200000  1026.296875
    1.300000  1160.563965
    1.400000  1306.934204
    1.500000  1307.164673
    1.600000  1172.986084
    1.700000   993.692200
    1.800000   842.421692
    1.900000   743.618225
    2.000000   679.177307
    2.200000   578.012695
    2.400000   511.923370
    2.500000   485.819122
    2.600000   460.969482
    2.800000   412.682404
    3.000000   365.563965
    3.200000   322.255219
    3.400000   283.775452
    3.500000   266.047363
    3.600000   249.290955
    3.800000   229.720581
    4.000000   231.698822
    4.200000   233.358566
    4.400000   234.858627
    4.600000   233.528519
    4.800000   228.922836
    5.000000   220.942581
    5.500000   189.438782
    6.000000   153.701767
    6.500000   127.325455
    7.000000   116.547134
    7.500000   105.566414
    8.000000    92.474571
    8.500000    78.656738
    9.000000    65.638069
    9.500000    60.048576
   10.000000    54.925648
