EVENT_NAME: None
EVENT_ID: INT-20230206_0000222
EVENT_DATE_YYYYMMDD: 20230206
EVENT_TIME_HHMMSS: 102449
EVENT_LATITUDE_DEGREE: 38.1100
EVENT_LONGITUDE_DEGREE: 37.2400
EVENT_DEPTH_KM: 10.0
HYPOCENTER_REFERENCE: EMSC-CSEM
MAGNITUDE_W: 7.5
MAGNITUDE_W_REFERENCE: EMSC-CSEM
MAGNITUDE_L: 
MAGNITUDE_L_REFERENCE: 
FOCAL_MECHANISM: Strike-slip faulting
NETWORK: TK
STATION_CODE: 4620
STATION_NAME: None
STATION_LATITUDE_DEGREE: 37.585680
STATION_LONGITUDE_DEGREE: 36.898450
STATION_ELEVATION_M: 698
LOCATION: 
SENSOR_DEPTH_M: 0.0
VS30_M/S: 
SITE_CLASSIFICATION_EC8: B (inferred from topography)
MORPHOLOGIC_CLASSIFICATION: 
EPICENTRAL_DISTANCE_KM: 65.5
EARTHQUAKE_BACKAZIMUTH_DEGREE: 27.2
DATE_TIME_FIRST_SAMPLE_YYYYMMDD_HHMMSS: 
DATE_TIME_FIRST_SAMPLE_PRECISION: 
SAMPLING_INTERVAL_S: 
NDATA: 105
DURATION_S: 
STREAM: HNN
UNITS: cm/s^2
INSTRUMENT: HN
INSTRUMENT_ANALOG/DIGITAL: D
INSTRUMENTAL_FREQUENCY_HZ: 
INSTRUMENTAL_DAMPING: 
FULL_SCALE_G: 
N_BIT_DIGITAL_CONVERTER: 
PGA_CM/S^2: 66.769856
TIME_PGA_S: 
BASELINE_CORRECTION: BASELINE REMOVED
FILTER_TYPE: BUTTERWORTH
FILTER_ORDER: 2
LOW_CUT_FREQUENCY_HZ: 0.030
HIGH_CUT_FREQUENCY_HZ: 40.000
LATE/NORMAL_TRIGGERED: NT
DATABASE_VERSION: 0.5
HEADER_FORMAT: DYNA 1.2
DATA_TYPE: ACCELERATION RESPONSE SPECTRUM
PROCESSING: manual (Paolucci et al., 2011)
DATA_TIMESTAMP_YYYYMMDD_HHMMSS: 20251106_223024.803
DATA_LICENSE: D (network default license)
DATA_CITATION: Luzi L., Lanzano G., Felicetta C., D Amico M. C., Russo E., Sgobba S., Pacor, F., & ORFEUS Working Group 5 (2020). Engineering Strong Motion Database (ESM) (Version 2.0). Istituto Nazionale di Geofisica e Vulcanologia (INGV). https://doi.org/10.13127/ESM.2
DATA_CREATOR: ESM working group
ORIGINAL_DATA_MEDIATOR_CITATION: afad
ORIGINAL_DATA_MEDIATOR: afad
ORIGINAL_DATA_CREATOR_CITATION: Disaster And Emergency Management Authority. (1973). Turkish National Strong Motion Network. Department of Earthquake, Disaster and Emergency Management Authority. https://doi.org/10.7914/SN/TK http://www.fdsn.org/networks/detail/TK/
ORIGINAL_DATA_CREATOR: network: TK (Turkish National Strong Motion Network (TNSMN)); owner: Disaster and Emergency Management Authority (AFAD)
USER1: 
USER2: 
USER3: 
USER4: 
USER5: 
    0.010000    66.816490
    0.020000    66.953300
    0.022000    66.981567
    0.025000    67.037071
    0.029000    67.192520
    0.030000    67.227943
    0.032000    67.227829
    0.035000    67.372803
    0.036000    67.478699
    0.040000    68.093506
    0.042000    68.333046
    0.044000    68.547852
    0.045000    68.820122
    0.046000    69.124260
    0.048000    69.472481
    0.050000    69.809799
    0.055000    69.758659
    0.060000    74.518112
    0.065000    77.250916
    0.067000    78.481735
    0.070000    79.443336
    0.075000    80.922089
    0.080000    80.524124
    0.085000   104.949623
    0.090000   104.374367
    0.095000   108.686424
    0.100000    98.384659
    0.110000    82.045486
    0.120000   101.597824
    0.130000   109.923592
    0.133000   112.569138
    0.140000   134.768845
    0.150000   163.011765
    0.160000   164.763733
    0.170000   146.108566
    0.180000   141.785858
    0.190000   127.761894
    0.200000   138.130127
    0.220000   135.543457
    0.240000   128.196259
    0.250000   143.475433
    0.260000   164.100861
    0.280000   149.325439
    0.290000   137.456055
    0.300000   118.105141
    0.320000    94.099152
    0.340000    91.717926
    0.350000    92.801086
    0.360000   100.695976
    0.380000   105.245354
    0.400000   115.030792
    0.420000   122.352379
    0.440000   131.157608
    0.450000   133.973724
    0.460000   146.159149
    0.480000   163.703354
    0.500000   144.201981
    0.550000   117.670059
    0.600000    93.178680
    0.650000   117.737556
    0.667000   113.722694
    0.700000   107.139809
    0.750000   113.475967
    0.800000    99.617516
    0.850000    85.192207
    0.900000    83.292587
    0.950000    82.442795
    1.000000    89.548958
    1.100000    80.834518
    1.200000    91.088661
    1.300000    82.210167
    1.400000    87.407539
    1.500000   111.619934
    1.600000   103.087814
    1.700000    83.800423
    1.800000    90.414307
    1.900000    99.205948
    2.000000   108.762238
    2.200000   122.223389
    2.400000   101.458374
    2.500000    96.602798
    2.600000    90.934616
    2.800000    76.065430
    3.000000    90.303123
    3.200000    93.314888
    3.400000    95.922546
    3.500000   106.689331
    3.600000   112.223511
    3.800000   110.877457
    4.000000   106.402283
    4.200000   105.091957
    4.400000   102.553398
    4.600000    94.878662
    4.800000    83.380211
    5.000000    72.355255
    5.500000    50.591942
    6.000000    51.273731
    6.500000    49.035873
    7.000000    38.619122
    7.500000    30.032673
    8.000000    24.929394
    8.500000    21.987120
    9.000000    21.741907
    9.500000    22.889166
   10.000000    23.934927
