EVENT_NAME: None
EVENT_ID: INT-20230206_0000222
EVENT_DATE_YYYYMMDD: 20230206
EVENT_TIME_HHMMSS: 102449
EVENT_LATITUDE_DEGREE: 38.1100
EVENT_LONGITUDE_DEGREE: 37.2400
EVENT_DEPTH_KM: 10.0
HYPOCENTER_REFERENCE: EMSC-CSEM
MAGNITUDE_W: 7.5
MAGNITUDE_W_REFERENCE: EMSC-CSEM
MAGNITUDE_L: 
MAGNITUDE_L_REFERENCE: 
FOCAL_MECHANISM: Strike-slip faulting
NETWORK: TK
STATION_CODE: 4617
STATION_NAME: None
STATION_LATITUDE_DEGREE: 37.585510
STATION_LONGITUDE_DEGREE: 36.830300
STATION_ELEVATION_M: 544
LOCATION: 
SENSOR_DEPTH_M: 0.0
VS30_M/S: 
SITE_CLASSIFICATION_EC8: B (inferred from topography)
MORPHOLOGIC_CLASSIFICATION: 
EPICENTRAL_DISTANCE_KM: 68.5
EARTHQUAKE_BACKAZIMUTH_DEGREE: 31.6
DATE_TIME_FIRST_SAMPLE_YYYYMMDD_HHMMSS: 
DATE_TIME_FIRST_SAMPLE_PRECISION: 
SAMPLING_INTERVAL_S: 
NDATA: 105
DURATION_S: 
STREAM: HNN
UNITS: cm/s^2
INSTRUMENT: HN
INSTRUMENT_ANALOG/DIGITAL: D
INSTRUMENTAL_FREQUENCY_HZ: 
INSTRUMENTAL_DAMPING: 
FULL_SCALE_G: 
N_BIT_DIGITAL_CONVERTER: 
PGA_CM/S^2: -56.078476
TIME_PGA_S: 
BASELINE_CORRECTION: BASELINE REMOVED
FILTER_TYPE: BUTTERWORTH
FILTER_ORDER: 2
LOW_CUT_FREQUENCY_HZ: 0.020
HIGH_CUT_FREQUENCY_HZ: 40.000
LATE/NORMAL_TRIGGERED: NT
DATABASE_VERSION: 0.5
HEADER_FORMAT: DYNA 1.2
DATA_TYPE: ACCELERATION RESPONSE SPECTRUM
PROCESSING: manual (Paolucci et al., 2011)
DATA_TIMESTAMP_YYYYMMDD_HHMMSS: 20251106_223023.718
DATA_LICENSE: D (network default license)
DATA_CITATION: Luzi L., Lanzano G., Felicetta C., D Amico M. C., Russo E., Sgobba S., Pacor, F., & ORFEUS Working Group 5 (2020). Engineering Strong Motion Database (ESM) (Version 2.0). Istituto Nazionale di Geofisica e Vulcanologia (INGV). https://doi.org/10.13127/ESM.2
DATA_CREATOR: ESM working group
ORIGINAL_DATA_MEDIATOR_CITATION: afad
ORIGINAL_DATA_MEDIATOR: afad
ORIGINAL_DATA_CREATOR_CITATION: Disaster And Emergency Management Authority. (1973). Turkish National Strong Motion Network. Department of Earthquake, Disaster and Emergency Management Authority. https://doi.org/10.7914/SN/TK http://www.fdsn.org/networks/detail/TK/
ORIGINAL_DATA_CREATOR: network: TK (Turkish National Strong Motion Network (TNSMN)); owner: Disaster and Emergency Management Authority (AFAD)
USER1: 
USER2: 
USER3: 
USER4: 
USER5: 
    0.010000    56.078327
    0.020000    56.360302
    0.022000    56.432426
    0.025000    56.506374
    0.029000    57.101948
    0.030000    57.197369
    0.032000    57.536339
    0.035000    57.859653
    0.036000    57.946369
    0.040000    58.002888
    0.042000    57.752602
    0.044000    57.008091
    0.045000    56.855568
    0.046000    56.898335
    0.048000    56.269901
    0.050000    56.575073
    0.055000    58.618744
    0.060000    60.956787
    0.065000    62.399738
    0.067000    63.406460
    0.070000    61.115311
    0.075000    64.698242
    0.080000    70.844093
    0.085000    80.331879
    0.090000    78.131996
    0.095000    84.906891
    0.100000    76.236931
    0.110000    74.321045
    0.120000    77.145119
    0.130000    77.595375
    0.133000    75.330368
    0.140000    74.240242
    0.150000    80.220360
    0.160000    84.729408
    0.170000    88.956413
    0.180000   107.387527
    0.190000   113.238472
    0.200000   103.565765
    0.220000   103.009140
    0.240000   115.926529
    0.250000   111.250504
    0.260000   109.352592
    0.280000   102.108894
    0.290000    93.181137
    0.300000    88.365036
    0.320000   112.072754
    0.340000   129.788208
    0.350000   138.430695
    0.360000   148.705383
    0.380000   156.518906
    0.400000   116.209908
    0.420000   125.181122
    0.440000   115.339363
    0.450000   108.649101
    0.460000   102.865334
    0.480000   112.539406
    0.500000   109.248306
    0.550000   125.863335
    0.600000   125.550102
    0.650000   156.670853
    0.667000   139.114029
    0.700000   135.839584
    0.750000   142.696503
    0.800000   157.290710
    0.850000   156.544250
    0.900000   145.926270
    0.950000   118.133270
    1.000000   108.786285
    1.100000    94.804596
    1.200000   142.218002
    1.300000   142.115891
    1.400000    94.829224
    1.500000   125.398949
    1.600000   146.035934
    1.700000   147.994614
    1.800000   156.209015
    1.900000   156.462769
    2.000000   153.590698
    2.200000   105.612038
    2.400000    71.342506
    2.500000    72.950935
    2.600000    79.550804
    2.800000    90.406113
    3.000000    93.309624
    3.200000    99.042099
    3.400000   100.306374
    3.500000    98.043076
    3.600000    93.376465
    3.800000    82.941803
    4.000000    82.486374
    4.200000    81.684120
    4.400000    81.738190
    4.600000    76.220314
    4.800000    66.289139
    5.000000    58.860527
    5.500000    56.576191
    6.000000    56.426029
    6.500000    47.887005
    7.000000    37.379837
    7.500000    32.265491
    8.000000    28.307793
    8.500000    25.304733
    9.000000    23.410385
    9.500000    22.259970
   10.000000    21.215336
