EVENT_NAME: None
EVENT_ID: INT-20230206_0000222
EVENT_DATE_YYYYMMDD: 20230206
EVENT_TIME_HHMMSS: 102449
EVENT_LATITUDE_DEGREE: 38.1100
EVENT_LONGITUDE_DEGREE: 37.2400
EVENT_DEPTH_KM: 10.0
HYPOCENTER_REFERENCE: EMSC-CSEM
MAGNITUDE_W: 7.5
MAGNITUDE_W_REFERENCE: EMSC-CSEM
MAGNITUDE_L: 
MAGNITUDE_L_REFERENCE: 
FOCAL_MECHANISM: Strike-slip faulting
NETWORK: TK
STATION_CODE: 4612
STATION_NAME: Goksun Kahramanmaras
STATION_LATITUDE_DEGREE: 38.023950
STATION_LONGITUDE_DEGREE: 36.481870
STATION_ELEVATION_M: 1340
LOCATION: 
SENSOR_DEPTH_M: 0.0
VS30_M/S: 
SITE_CLASSIFICATION_EC8: C (inferred from topography)
MORPHOLOGIC_CLASSIFICATION: 
EPICENTRAL_DISTANCE_KM: 67.2
EARTHQUAKE_BACKAZIMUTH_DEGREE: 81.6
DATE_TIME_FIRST_SAMPLE_YYYYMMDD_HHMMSS: 20230206_102433.554
DATE_TIME_FIRST_SAMPLE_PRECISION: milliseconds
SAMPLING_INTERVAL_S: 0.005000
NDATA: 17000
DURATION_S: 85.000
STREAM: HNN
UNITS: cm/s^2
INSTRUMENT: HN
INSTRUMENT_ANALOG/DIGITAL: D
INSTRUMENTAL_FREQUENCY_HZ: 
INSTRUMENTAL_DAMPING: 
FULL_SCALE_G: 
N_BIT_DIGITAL_CONVERTER: 
PGA_CM/S^2: 630.534052
TIME_PGA_S: 34.780000
BASELINE_CORRECTION: BASELINE REMOVED
FILTER_TYPE: BUTTERWORTH
FILTER_ORDER: 2
LOW_CUT_FREQUENCY_HZ: 0.020
HIGH_CUT_FREQUENCY_HZ: 40.000
LATE/NORMAL_TRIGGERED: NT
DATABASE_VERSION: 0.5
HEADER_FORMAT: DYNA 1.2
DATA_TYPE: ACCELERATION
PROCESSING: manual (Paolucci et al., 2011)
DATA_TIMESTAMP_YYYYMMDD_HHMMSS: 20251106_223022.091
DATA_LICENSE: D (network default license)
DATA_CITATION: Luzi L., Lanzano G., Felicetta C., D Amico M. C., Russo E., Sgobba S., Pacor, F., & ORFEUS Working Group 5 (2020). Engineering Strong Motion Database (ESM) (Version 2.0). Istituto Nazionale di Geofisica e Vulcanologia (INGV). https://doi.org/10.13127/ESM.2
DATA_CREATOR: ESM working group
ORIGINAL_DATA_MEDIATOR_CITATION: afad
ORIGINAL_DATA_MEDIATOR: afad
ORIGINAL_DATA_CREATOR_CITATION: Disaster And Emergency Management Authority. (1973). Turkish National Strong Motion Network. Department of Earthquake, Disaster and Emergency Management Authority. https://doi.org/10.7914/SN/TK http://www.fdsn.org/networks/detail/TK/
ORIGINAL_DATA_CREATOR: network: TK (Turkish National Strong Motion Network (TNSMN)); owner: Disaster and Emergency Management Authority (AFAD)
USER1: 
USER2: 
USER3: 
USER4: 
USER5: 
[...]
-2.107289
-0.814536
-0.246616
-0.714235
-1.766897
-2.215235
-0.693659
3.144117
8.112341
13.042296
18.004722
22.968031
26.597850
27.844347
27.513812
26.792858
25.139610
20.151186
8.823518
-10.070593
-34.330891
-59.519261
-81.068062
-95.896862
-103.096234
-103.037599
-96.493967
-84.963592
-71.023601
-57.481766
-46.340053
-38.677355
-34.992350
-35.495938
-39.794755
-45.681039
-48.981241
-46.705188
-39.891070
-32.167298
-26.860842
-25.073587
-25.292218
-25.416020
-24.689098
-23.300261
-21.215374
-17.680422
-11.670044
-3.435458
4.851616
11.301641
15.980684
18.892729
18.324150
13.544464
7.366949
3.690389
4.022928
7.059967
10.068442
11.122566
10.345874
8.401401
4.842072
-1.272613
-10.024497
-20.020080
-28.586447
-33.065151
-32.109023
-25.966048
-16.124979
-4.349405
8.132290
20.549318
32.183888
41.941485
47.976674
47.753462
39.024012
22.358279
2.595199
-14.029207
-23.465354
-24.817156
-19.817409
-11.435480
-2.849761
2.553998
1.522062
-7.221218
-21.701531
-38.421129
-54.348502
-66.749666
-72.764045
-70.692292
-61.544086
-48.830865
-36.958229
-28.362350
-21.983421
-15.904169
-9.941141
-4.277669
2.490412
12.441803
26.312398
42.318915
56.441124
65.089855
67.420186
64.597991
58.243074
49.830442
40.667734
32.015138
25.059747
20.556353
18.333460
17.055120
14.760947
10.779869
6.792755
4.534046
3.331172
0.828675
-4.862133
-13.109957
-20.121801
-21.578846
-15.853415
-5.252386
4.690417
8.779767
5.517221
-2.932523
-12.688501
-21.285451
-29.461866
-38.814604
-48.940656
-57.342732
-60.661232
-56.284951
-43.617868
-24.396386
-2.453143
17.330010
30.381545
33.973433
28.549827
17.834764
7.488721
1.508723
-0.318559
-0.144879
1.134920
4.321238
10.414264
17.925573
21.941585
18.164489
6.929049
-7.840306
-21.465324
-30.637220
-34.581719
-34.821885
-34.118109
-34.486543
-35.862421
-37.282252
-38.629041
-41.172189
-47.052877
-57.453085
-70.830254
-82.965928
-88.798621
-86.442026
-79.470367
-72.960371
-68.975667
-66.867699
-65.430664
-64.418017
-64.934437
-68.180655
-73.925553
-79.890578
-82.234629
-77.873027
-66.672273
-51.352975
-36.003515
-23.625281
-14.769983
-9.256787
-7.498562
-8.559063
-9.033822
-6.859927
-4.325930
-4.301637
-6.259830
-8.586115
-11.825291
-17.511796
-25.820792
-35.373284
-44.068036
-49.930181
-51.884290
-50.393647
-47.261191
-43.620319
-38.638276
-31.499805
-23.276342
-15.402404
-7.871392
-0.300923
6.386774
10.226442
9.783947
6.252318
3.856959
6.005401
11.831720
17.920666
21.443278
21.446485
18.812659
15.153855
11.695216
8.924794
6.963632
6.627125
9.470409
15.286170
20.781775
23.348935
24.525032
27.518804
33.501781
41.181001
48.086643
52.325523
53.747848
53.639677
53.941135
56.409878
61.762457
69.062265
76.147225
82.132985
88.947499
98.595252
110.233298
121.125011
128.804325
132.240335
132.431160
132.562390
137.136757
148.785315
165.599418
182.513693
194.506908
199.811227
200.867317
200.351419
197.790946
191.935583
183.722608
175.018275
166.666162
159.283136
154.282703
152.425979
152.323935
151.703651
149.397484
145.945861
143.025140
141.695662
141.176895
139.933841
137.333117
134.185808
132.052960
131.142940
129.364578
125.105894
119.553448
114.439569
109.476302
103.637350
97.142564
90.990197
85.741903
81.307720
77.229508
72.893487
67.599600
60.556526
50.908697
37.925174
21.337421
1.833623
-18.652902
-37.557042
-52.892087
-64.715188
-75.420798
-87.053722
-98.898934
-108.623659
-114.223546
-114.394505
-108.273043
-95.652873
-77.704282
-57.838014
-41.588402
-33.956494
-36.721820
-48.314378
-64.901092
-82.008808
-95.889489
-104.090054
-105.768905
-101.889870
-95.120284
-88.731139
-84.994569
-83.789040
-82.729616
-80.444417
-78.783050
-79.544131
-80.809510
-78.210465
-68.380338
-51.941911
-33.864992
-18.669956
-6.523451
3.960790
12.138060
16.604877
17.883385
18.837201
23.246126
32.909695
45.932714
59.106774
70.972908
82.326226
94.927315
108.892407
121.394581
129.434379
132.748663
133.044370
131.982805
130.040765
126.406399
120.260008
112.207539
104.618297
100.665369
101.643401
105.547644
110.085113
115.538917
122.945770
131.317394
137.777631
139.579520
136.852439
133.266366
131.563554
129.757566
123.909446
112.247359
95.682636
76.317691
55.381935
32.435501
7.467687
-17.352760
-39.457098
-58.270249
-75.301732
-92.976465
-112.905293
-134.631875
-156.000241
-174.320676
-187.965695
-197.333621
-203.898988
-208.907537
-212.978945
-216.202747
-218.431136
-219.464424
-218.904852
-215.856455
-208.953415
-197.411480
-183.548558
-173.384822
-171.416586
-176.043660
-182.506719
-187.629024
-190.959688
-193.277570
-193.558329
-188.365866
-177.240375
-166.260673
-161.318103
-160.221609
-153.811536
-133.016605
-98.834660
-64.793393
-40.554164
-18.682549
12.722833
53.058851
89.327717
105.631593
95.798946
69.727331
43.136031
25.218594
17.001107
15.289300
18.450295
29.102035
49.177952
74.868617
98.588725
113.420704
116.493007
111.089802
105.973873
111.141464
128.400695
146.630425
153.722027
150.007869
147.287517
159.410043
188.964657
221.803182
242.347093
248.525879
246.264599
239.102962
227.060689
209.761613
188.703788
167.814633
151.835435
143.899408
143.451348
146.587522
151.232037
160.301114
175.852747
193.445712
206.179842
210.998532
209.958461
208.223068
209.955281
215.483757
222.823685
229.927880
234.867956
235.521829
230.557349
220.898156
210.277459
204.261870
206.551858
215.764283
226.469954
232.328854
230.148726
222.577148
216.223669
217.643832
228.683963
244.249853
256.740337
261.691818
259.743296
255.658116
254.111101
256.299943
261.017131
266.491802
270.296891
269.518725
263.514749
255.803316
250.881750
250.378163
252.924025
255.838522
257.208427
257.065736
256.440298
256.104698
256.373487
257.232443
258.198793
258.283569
256.578073
252.699579
246.355444
237.067680
225.177282
212.926385
204.021027
202.025881
207.711243
217.528431
226.031157
229.243125
226.285295
219.181766
210.256928
200.138282
189.091312
178.629428
170.560290
165.512162
163.087301
162.742884
164.470540
168.853122
175.952315
184.107984
190.156705
191.366603
189.346633
191.416797
203.877588
224.953347
245.823265
256.116299
251.586487
238.535266
228.172451
228.222313
237.950590
247.968039
248.238438
236.452404
219.103513
207.641880
210.020321
224.507348
243.066122
257.261354
261.681371
255.925058
245.361595
239.585338
245.722466
262.596959
282.727834
297.536878
302.384471
298.791564
290.728095
280.775438
270.875216
263.605988
260.180011
258.351006
254.280487
245.941691
235.434528
228.650547
229.993429
237.826794
246.603015
251.202267
249.712665
243.796848
235.500862
224.770120
211.531318
198.225357
188.594814
184.912930
185.996021
187.420326
185.781166
182.190052
180.078035
181.634578
186.722420
193.469833
199.963538
205.325320
208.735702
208.324896
202.006778
189.476658
174.209193
162.999433
159.962461
161.587618
160.217366
150.170083
131.425072
109.919046
92.428546
81.395438
74.462234
66.147322
50.619653
24.816812
-9.002733
-43.701122
-74.139457
-102.261999
-131.955573
-163.119049
-193.711740
-223.261133
-251.598969
-276.879583
-297.399336
-314.068096
-329.827916
-347.569951
-367.864244
-387.725561
-402.256431
-407.654164
-404.618639
-399.947782
-402.815340
-419.448926
-449.419907
-484.969354
-516.214757
-536.671095
-544.351982
-541.247951
-532.562216
-524.834880
-521.407014
-519.618046
-515.079278
-506.637510
-496.163221
-486.759338
-482.155546
-485.873246
-498.345194
-515.048517
-529.724274
-538.617162
-541.607753
-540.683924
-536.020992
-524.578582
-505.944881
-486.717819
-474.294350
-469.363267
-466.557346
-458.848784
-442.242754
-418.420761
-392.686462
-370.526313
-354.745028
-343.647732
-331.638989
-311.686343
-280.179306
-240.428593
-200.161561
-167.158522
-145.918363
-135.598760
-130.452527
-122.441126
-106.869721
-86.152674
-66.147352
-51.562040
-45.645141
-50.182347
-62.355806
-73.263945
-74.388664
-64.656545
-50.221340
-40.534353
-42.754799
-57.639300
-80.528946
-104.941876
-127.522331
-150.461431
-176.776539
-205.081270
-230.179001
-246.262737
-250.430330
-244.943559
-236.055173
-230.723707
-231.689400
-235.020514
-235.281033
-231.507152
-227.287562
-227.419723
-232.892923
-238.499919
-237.890346
-229.313429
-215.848938
-203.234359
-197.257428
-201.444840
-215.255428
-233.059294
-245.886631
-245.560200
-231.134944
-211.723652
-198.183278
-194.142904
-196.744874
-201.726902
-208.185597
-219.184571
-234.692993
-247.059599
-249.149354
-242.708562
-234.237476
-227.342081
-220.276931
-207.882057
-187.535411
-163.069595
-140.733327
-124.067976
-113.714954
-108.934899
-107.976706
-107.804984
-104.547378
-95.104569
-80.054812
-64.777940
-54.950029
-51.763185
-52.341124
-52.604527
-50.457731
-47.020166
-43.606894
-39.109342
-32.062308
-23.250269
-14.722721
-7.649110
-1.540207
5.135667
12.928480
20.320281
25.949941
30.906205
37.791986
48.626669
63.434009
79.986167
95.523830
108.716701
120.330762
132.840098
148.587064
167.832414
188.006375
204.108768
211.061706
206.403228
191.592536
171.396019
150.226243
129.631817
110.604408
94.902069
80.560769
59.906270
28.901326
-5.042327
-30.550067
-42.013702
-39.164461
-23.271179
3.253990
34.498170
58.810818
62.266136
43.207176
20.665649
16.819595
36.871666
69.622170
97.737555
109.794810
107.513048
101.338229
102.899256
119.546639
150.867486
188.751744
221.458134
243.751592
262.811516
287.728160
317.008304
338.701733
338.132095
309.857568
264.077879
216.799300
178.569259
154.469562
146.987973
154.473609
169.215117
181.253623
184.555079
181.291487
181.032908
190.302405
204.253958
212.789838
209.882164
196.115591
177.193064
159.988818
148.756317
143.338596
139.470134
132.607236
121.551735
108.155808
95.293030
84.723462
76.472546
71.231283
71.996995
80.970404
95.602748
108.393009
110.296424
98.219543
79.408603
64.363201
58.083165
58.877844
61.441705
62.096460
62.088349
64.813208
71.616465
80.253659
86.136508
86.873102
84.977661
83.723230
83.138151
82.700209
84.639732
91.658351
103.367131
116.196907
125.608333
129.721716
131.485373
135.884622
145.621250
158.301079
166.460538
163.013199
146.847301
123.093216
99.849697
82.031330
67.761530
53.161821
37.878818
24.284819
14.383398
8.077020
3.247237
-1.987248
-7.591814
-12.994186
-18.787528
-26.067282
-34.801075
-42.920205
-47.169769
-46.847088
-46.114213
-50.126001
-60.506313
-75.529710
-92.298098
-108.716220
-124.328732
-139.281131
-153.420411
-167.096166
-181.866039
-199.154478
-218.563800
-237.783327
-253.665872
-264.329271
-270.529672
-274.420684
-277.923319
-282.261845
-287.291706
-289.742469
-283.279112
-264.016523
-235.203148
-204.250355
-177.955210
-160.696024
-153.720026
-154.133613
-155.192007
-150.887601
-140.689556
-129.600658
-125.141041
-131.758080
-147.125275
-165.304762
-181.343502
-192.913216
-200.287870
-205.422267
-210.859564
-218.442928
-228.243756
-238.554773
-246.717652
-250.967810
-251.760151
-250.827124
-249.690595
-249.110706
-249.323787
-250.987852
-255.656941
-264.577534
-277.329838
-291.823677
-304.965617
-313.733069
-316.356435
-313.223536
-306.756805
-299.040055
-289.787578
-277.411938
-260.981749
-241.243036
-220.844596
-203.309156
-190.940982
-181.907858
-169.799477
-149.899094
-124.965309
-102.702560
-90.084363
-88.912600
-94.760696
-102.133011
-109.310221
-116.891483
-124.638720
-130.770747
-133.050584
-130.929562
-126.556430
-122.474717
-119.240279
-116.085960
-112.602432
-109.497090
-108.138887
-108.643947
-108.847140
-106.570835
-101.945912
-96.595102
-91.977218
-88.902599
-87.587075
-87.670145
-88.407222
-89.427941
-91.109473
-93.493622
-95.328051
-94.894576
-91.225167
-84.412261
-75.460476
-65.973169
-57.782873
-52.401336
-50.484516
-51.615346
-54.363139
-56.893586
-57.865746
-57.353669
-57.069483
-58.763252
-62.462988
-66.399428
-68.275099
-67.675691
-66.965110
-67.852087
-68.509411
-66.201225
-60.776945
-54.450444
-49.880156
-48.317256
-48.840129
-49.690487
-49.694984
-48.199068
-44.787930
-39.917159
-35.429311
-33.590320
-35.735007
-41.604201
-49.359037
-56.703479
-62.401499
-67.394560
-74.475715
-85.090491
-97.006842
-106.845094
-113.326572
-117.238552
-119.780326
-120.782522
-118.212950
-110.407579
-98.073995
-83.298611
-68.019080
-54.055829
-43.332668
-36.818042
-33.499304
-31.093456
-27.402837
-21.430164
-13.971232
-7.048236
-2.668752
-1.167046
-0.549808
1.408390
5.151923
10.118209
16.107808
23.186608
30.911362
37.888534
42.231847
43.471820
43.784844
46.139720
51.943520
60.684509
70.806327
81.270528
92.301183
103.964491
115.086705
124.875197
134.544387
146.246950
161.656651
182.471031
211.248293
250.655424
301.808842
362.494755
426.637094
487.009791
538.430424
578.762279
608.159735
626.344026
630.534052
616.994787
584.135830
535.391391
479.826133
427.505605
384.636630
353.183330
332.421067
320.566348
315.295002
312.527714
306.201750
291.882332
270.330368
246.529652
226.407332
212.802215
203.356315
193.585123
180.718560
164.579416
146.921612
130.054048
115.625769
104.127987
94.974870
87.395194
81.141950
76.141998
72.095714
68.875670
66.817980
65.955794
65.361995
63.931608
61.479120
58.893556
57.419652
56.951557
54.893814
47.580766
32.715540
11.495477
-10.873874
-28.316334
-37.333513
-37.799700
-32.534869
-26.144992
-23.231857
-25.627514
-30.774245
-34.206263
-32.852653
-26.303414
-16.668250
-7.034609
0.220158
4.368004
6.459707
7.993305
9.301891
8.943317
4.545251
-4.146193
-13.425000
-18.731836
-18.175146
-12.228183
-2.271298
9.793501
21.632649
31.343199
38.253007
42.507980
44.330940
43.773550
40.873489
36.117177
30.604555
25.368817
20.859143
17.473318
15.873697
15.875296
15.616304
12.974733
7.356044
-0.104074
-7.350174
-12.950831
-17.172587
-21.310758
-26.543667
-33.254445
-40.799975
-47.941508
-53.620813
-57.886514
-62.134909
-67.616975
-74.134347
-80.821144
-87.273340
-93.472248
-99.422147
-105.355708
-111.864761
-119.206267
-126.761298
-133.759208
-140.153315
-146.504416
-153.419420
-161.060429
-169.088402
-177.374581
-186.443984
-196.490096
-206.068906
-211.847214
-209.695644
-197.741964
-178.489745
-156.583602
-135.430295
-115.542723
-94.738804
-70.990906
-45.173316
-21.002440
-3.379579
4.642923
4.662779
3.027394
7.740517
20.988545
35.052912
40.517347
35.237192
22.878113
7.709023
-8.497063
-26.658556
-47.043845
-66.846523
-82.686493
-93.655276
-100.761912
-105.194496
-107.730415
-109.169561
-111.316567
-116.847786
-126.557463
-137.589357
-146.529675
-152.766075
-157.550596
-161.758410
-165.136313
-166.767855
-166.444646
-165.457464
-165.372104
-166.562809
-168.157902
-168.657337
-166.718044
-161.720531
-153.769355
-143.433578
-131.369692
-118.178577
-104.757140
-92.358402
-81.623900
-71.926463
-62.461005
-53.392580
-45.419378
-39.050175
-34.819072
-33.692515
-36.707020
-44.119251
-54.505464
-64.740964
-72.033875
-75.694714
-76.354064
-74.760800
-71.987824
-69.832927
-69.930762
-72.382373
-75.149587
-74.963365
-70.648964
-65.040788
-61.345124
-59.365056
-56.952333
-52.961563
-48.118264
-44.109274
-41.220967
-37.143395
-29.582717
-18.981139
-7.714701
1.873208
8.553654
12.376168
13.845982
13.213911
10.700856
6.847147
2.310914
-2.328406
-6.234822
-8.179534
-7.447800
-4.712487
-1.607026
0.282128
0.381784
-0.571941
-1.717722
-3.250447
-6.163742
-11.431446
-19.339110
-29.271808
-40.332045
-51.996016
-64.023731
-75.872488
-85.930387
-91.597960
-91.371736
-86.453566
-79.177239
-70.764444
-60.797974
-47.881314
-31.365282
-12.919085
3.523916
13.334353
14.696736
10.941103
7.845191
9.515259
16.139758
24.315627
31.211767
37.622627
45.073915
52.243940
55.854188
53.434029
45.514954
36.075973
29.702727
28.649394
32.696795
40.235832
49.526034
59.413712
68.966104
77.067661
82.824207
86.111059
87.540170
88.114336
88.770908
90.096292
92.478964
96.292010
101.777899
108.903204
117.522545
127.719034
140.044582
155.204249
172.645001
189.601331
202.534883
209.322460
210.546271
209.218875
207.830965
205.963668
201.756612
194.217945
183.800354
172.155270
161.825516
155.968985
157.549519
167.822000
184.357346
201.025921
213.064415
221.546062
231.000650
244.664465
261.442397
276.074985
284.593076
288.732362
292.863889
298.996198
305.013760
305.925964
298.421462
284.071792
266.558883
247.959486
228.557128
208.130242
186.893738
165.715634
145.430429
126.200501
107.762647
90.070766
73.946828
61.325943
54.268486
53.244552
55.487137
55.484894
50.141405
42.526256
37.622076
36.839285
37.860031
37.239032
33.683499
29.602633
28.398305
31.290491
37.049783
43.197616
47.712864
50.111215
50.813674
50.088109
47.614801
42.785076
35.869541
28.590646
22.578920
17.852455
13.441040
8.530543
2.756799
-3.720812
-9.836911
-13.659809
-13.874302
-11.074063
-7.029811
-3.364925
-0.905515
0.273985
0.033355
-2.339296
-7.309382
-14.203372
-21.552793
-27.997484
-33.134096
-37.754013
-42.780902
-48.249860
-53.609162
-58.433469
-62.760910
-67.058800
-71.786311
-77.012810
-82.489717
-87.873878
-92.887629
-97.395809
-101.414790
-105.171364
-109.240950
-114.495460
-121.490176
-129.854396
-138.366992
-145.479423
-150.240664
-152.989616
-155.027966
-157.845321
-162.239002
-167.810971
-173.493372
-178.345408
-182.054639
-185.089451
-188.287084
-192.319861
-197.377752
-203.143967
-209.234232
-215.536404
-221.965616
-228.251113
-234.224672
-239.831579
-244.103920
-244.555096
-238.695868
-225.749642
-206.650453
-183.337936
-158.106688
-133.216615
-110.792562
-92.638264
-79.668503
-71.385002
-66.056102
-61.446872
-56.227725
-51.160216
-48.683075
-51.203771
-58.231121
-65.262634
-67.925236
-66.134816
-62.959068
-61.515017
-62.708609
-64.680280
-65.065397
-63.248892
-60.163897
-57.229292
-55.639703
-56.074520
-58.725998
-63.192855
-68.084949
-71.083488
-70.394479
-66.099113
-59.700260
-52.904395
-46.497511
-40.047288
-33.293716
-27.375067
-24.146470
-25.164852
-31.606879
-44.151791
-61.827857
-81.169443
-97.512935
-106.954552
-107.605739
-99.812957
-84.872116
-64.304899
-41.330317
-21.561021
-9.626210
-5.639966
-5.920048
-5.808255
-3.045748
0.446677
0.961901
-3.891344
-14.248277
-28.351246
-43.848940
-58.985082
-72.866951
-85.128674
-95.122698
-101.707454
-104.623223
-105.419708
