EVENT_NAME: None
EVENT_ID: INT-20230206_0000222
EVENT_DATE_YYYYMMDD: 20230206
EVENT_TIME_HHMMSS: 102449
EVENT_LATITUDE_DEGREE: 38.1100
EVENT_LONGITUDE_DEGREE: 37.2400
EVENT_DEPTH_KM: 10.0
HYPOCENTER_REFERENCE: EMSC-CSEM
MAGNITUDE_W: 7.5
MAGNITUDE_W_REFERENCE: EMSC-CSEM
MAGNITUDE_L: 
MAGNITUDE_L_REFERENCE: 
FOCAL_MECHANISM: Strike-slip faulting
NETWORK: TK
STATION_CODE: 4617
STATION_NAME: None
STATION_LATITUDE_DEGREE: 37.585510
STATION_LONGITUDE_DEGREE: 36.830300
STATION_ELEVATION_M: 544
LOCATION: 
SENSOR_DEPTH_M: 0.0
VS30_M/S: 
SITE_CLASSIFICATION_EC8: B (inferred from topography)
MORPHOLOGIC_CLASSIFICATION: 
EPICENTRAL_DISTANCE_KM: 68.5
EARTHQUAKE_BACKAZIMUTH_DEGREE: 31.6
DATE_TIME_FIRST_SAMPLE_YYYYMMDD_HHMMSS: 
DATE_TIME_FIRST_SAMPLE_PRECISION: 
SAMPLING_INTERVAL_S: 
NDATA: 105
DURATION_S: 
STREAM: HNZ
UNITS: cm/s^2
INSTRUMENT: HN
INSTRUMENT_ANALOG/DIGITAL: D
INSTRUMENTAL_FREQUENCY_HZ: 
INSTRUMENTAL_DAMPING: 
FULL_SCALE_G: 
N_BIT_DIGITAL_CONVERTER: 
PGA_CM/S^2: -54.477787
TIME_PGA_S: 
BASELINE_CORRECTION: BASELINE REMOVED
FILTER_TYPE: BUTTERWORTH
FILTER_ORDER: 2
LOW_CUT_FREQUENCY_HZ: 0.020
HIGH_CUT_FREQUENCY_HZ: 40.000
LATE/NORMAL_TRIGGERED: NT
DATABASE_VERSION: 0.5
HEADER_FORMAT: DYNA 1.2
DATA_TYPE: ACCELERATION RESPONSE SPECTRUM
PROCESSING: manual (Paolucci et al., 2011)
DATA_TIMESTAMP_YYYYMMDD_HHMMSS: 20251106_223023.901
DATA_LICENSE: D (network default license)
DATA_CITATION: Luzi L., Lanzano G., Felicetta C., D Amico M. C., Russo E., Sgobba S., Pacor, F., & ORFEUS Working Group 5 (2020). Engineering Strong Motion Database (ESM) (Version 2.0). Istituto Nazionale di Geofisica e Vulcanologia (INGV). https://doi.org/10.13127/ESM.2
DATA_CREATOR: ESM working group
ORIGINAL_DATA_MEDIATOR_CITATION: afad
ORIGINAL_DATA_MEDIATOR: afad
ORIGINAL_DATA_CREATOR_CITATION: Disaster And Emergency Management Authority. (1973). Turkish National Strong Motion Network. Department of Earthquake, Disaster and Emergency Management Authority. https://doi.org/10.7914/SN/TK http://www.fdsn.org/networks/detail/TK/
ORIGINAL_DATA_CREATOR: network: TK (Turkish National Strong Motion Network (TNSMN)); owner: Disaster and Emergency Management Authority (AFAD)
USER1: 
USER2: 
USER3: 
USER4: 
USER5: 
    0.010000    54.555576
    0.020000    54.846588
    0.022000    54.921524
    0.025000    55.011169
    0.029000    55.039726
    0.030000    55.025047
    0.032000    55.212055
    0.035000    56.459431
    0.036000    57.042278
    0.040000    57.931141
    0.042000    58.886452
    0.044000    57.733086
    0.045000    57.269283
    0.046000    57.047638
    0.048000    56.563656
    0.050000    55.789543
    0.055000    61.966022
    0.060000    60.339291
    0.065000    61.603195
    0.067000    65.227150
    0.070000    67.746002
    0.075000    67.326302
    0.080000    57.159927
    0.085000    62.225281
    0.090000    63.880867
    0.095000    58.566170
    0.100000    72.849075
    0.110000    78.058357
    0.120000    99.970169
    0.130000    87.494713
    0.133000    85.258240
    0.140000    88.247551
    0.150000    78.025124
    0.160000    80.609596
    0.170000    75.282455
    0.180000    79.168121
    0.190000    75.848503
    0.200000    75.586937
    0.220000    84.694679
    0.240000    81.164986
    0.250000    84.417999
    0.260000    86.079124
    0.280000    77.965523
    0.290000    73.599609
    0.300000    77.424034
    0.320000    74.018768
    0.340000    79.283066
    0.350000    73.154930
    0.360000    69.472580
    0.380000    72.576851
    0.400000    81.922989
    0.420000   102.828606
    0.440000   110.809715
    0.450000   106.575539
    0.460000    99.531677
    0.480000    83.528137
    0.500000    78.987869
    0.550000   114.343353
    0.600000    89.373032
    0.650000   102.741707
    0.667000   113.505898
    0.700000   105.429497
    0.750000   103.840195
    0.800000    92.215546
    0.850000    81.993660
    0.900000    83.108063
    0.950000    83.874893
    1.000000    96.735802
    1.100000    73.393402
    1.200000    83.093300
    1.300000    98.194504
    1.400000   103.896683
    1.500000   115.556190
    1.600000   123.204369
    1.700000   125.735062
    1.800000   144.803879
    1.900000   121.576797
    2.000000   113.099419
    2.200000   108.928787
    2.400000   113.355934
    2.500000   110.412750
    2.600000   104.942139
    2.800000    78.079605
    3.000000    54.975670
    3.200000    42.279053
    3.400000    31.506039
    3.500000    33.770359
    3.600000    34.993908
    3.800000    34.213615
    4.000000    31.380718
    4.200000    34.648190
    4.400000    34.009384
    4.600000    31.802591
    4.800000    29.667725
    5.000000    27.990690
    5.500000    27.418896
    6.000000    29.901140
    6.500000    26.459164
    7.000000    19.288311
    7.500000    14.731977
    8.000000    13.440872
    8.500000    11.544021
    9.000000     9.398051
    9.500000     7.394167
   10.000000     5.595813
