EVENT_NAME: None
EVENT_ID: INT-20230206_0000222
EVENT_DATE_YYYYMMDD: 20230206
EVENT_TIME_HHMMSS: 102449
EVENT_LATITUDE_DEGREE: 38.1100
EVENT_LONGITUDE_DEGREE: 37.2400
EVENT_DEPTH_KM: 10.0
HYPOCENTER_REFERENCE: EMSC-CSEM
MAGNITUDE_W: 7.5
MAGNITUDE_W_REFERENCE: EMSC-CSEM
MAGNITUDE_L: 
MAGNITUDE_L_REFERENCE: 
FOCAL_MECHANISM: Strike-slip faulting
NETWORK: TK
STATION_CODE: 4409
STATION_NAME: None
STATION_LATITUDE_DEGREE: 38.560630
STATION_LONGITUDE_DEGREE: 37.490760
STATION_ELEVATION_M: 1055
LOCATION: 
SENSOR_DEPTH_M: 0.0
VS30_M/S: 
SITE_CLASSIFICATION_EC8: B (inferred from topography)
MORPHOLOGIC_CLASSIFICATION: 
EPICENTRAL_DISTANCE_KM: 54.6
EARTHQUAKE_BACKAZIMUTH_DEGREE: 203.7
DATE_TIME_FIRST_SAMPLE_YYYYMMDD_HHMMSS: 
DATE_TIME_FIRST_SAMPLE_PRECISION: 
SAMPLING_INTERVAL_S: 
NDATA: 105
DURATION_S: 
STREAM: HNN
UNITS: cm/s^2
INSTRUMENT: HN
INSTRUMENT_ANALOG/DIGITAL: D
INSTRUMENTAL_FREQUENCY_HZ: 
INSTRUMENTAL_DAMPING: 
FULL_SCALE_G: 
N_BIT_DIGITAL_CONVERTER: 
PGA_CM/S^2: 258.020031
TIME_PGA_S: 
BASELINE_CORRECTION: BASELINE REMOVED
FILTER_TYPE: BUTTERWORTH
FILTER_ORDER: 2
LOW_CUT_FREQUENCY_HZ: 0.030
HIGH_CUT_FREQUENCY_HZ: 40.000
LATE/NORMAL_TRIGGERED: NT
DATABASE_VERSION: 0.5
HEADER_FORMAT: DYNA 1.2
DATA_TYPE: ACCELERATION RESPONSE SPECTRUM
PROCESSING: manual (Paolucci et al., 2011)
DATA_TIMESTAMP_YYYYMMDD_HHMMSS: 20251106_223020.401
DATA_LICENSE: D (network default license)
DATA_CITATION: Luzi L., Lanzano G., Felicetta C., D Amico M. C., Russo E., Sgobba S., Pacor, F., & ORFEUS Working Group 5 (2020). Engineering Strong Motion Database (ESM) (Version 2.0). Istituto Nazionale di Geofisica e Vulcanologia (INGV). https://doi.org/10.13127/ESM.2
DATA_CREATOR: ESM working group
ORIGINAL_DATA_MEDIATOR_CITATION: afad
ORIGINAL_DATA_MEDIATOR: afad
ORIGINAL_DATA_CREATOR_CITATION: Disaster And Emergency Management Authority. (1973). Turkish National Strong Motion Network. Department of Earthquake, Disaster and Emergency Management Authority. https://doi.org/10.7914/SN/TK http://www.fdsn.org/networks/detail/TK/
ORIGINAL_DATA_CREATOR: network: TK (Turkish National Strong Motion Network (TNSMN)); owner: Disaster and Emergency Management Authority (AFAD)
USER1: 
USER2: 
USER3: 
USER4: 
USER5: 
    0.010000   262.054932
    0.020000   299.157135
    0.022000   311.249512
    0.025000   342.821472
    0.029000   504.675659
    0.030000   523.417480
    0.032000   611.026917
    0.035000   712.588989
    0.036000   742.200623
    0.040000   706.479919
    0.042000   648.006348
    0.044000   680.692993
    0.045000   731.738647
    0.046000   864.683167
    0.048000  1127.014648
    0.050000  1386.972534
    0.055000  1347.178833
    0.060000   885.094238
    0.065000   849.126160
    0.067000   714.885681
    0.070000   521.347595
    0.075000   471.394867
    0.080000   386.138153
    0.085000   366.649109
    0.090000   384.257019
    0.095000   336.137054
    0.100000   366.728485
    0.110000   257.757721
    0.120000   235.774353
    0.130000   214.437225
    0.133000   230.912064
    0.140000   186.684265
    0.150000   161.813431
    0.160000   212.254303
    0.170000   214.335541
    0.180000   177.984940
    0.190000   207.642838
    0.200000   203.627167
    0.220000   169.806931
    0.240000   148.969620
    0.250000   158.804062
    0.260000   167.762360
    0.280000   216.179016
    0.290000   209.830978
    0.300000   201.612045
    0.320000   184.975723
    0.340000   159.397522
    0.350000   141.200180
    0.360000   144.453247
    0.380000   174.078873
    0.400000   154.914719
    0.420000   134.696243
    0.440000   127.120445
    0.450000   139.761154
    0.460000   142.749146
    0.480000   134.285095
    0.500000   134.975693
    0.550000   118.961525
    0.600000    89.095619
    0.650000    97.200272
    0.667000    94.990227
    0.700000    90.956459
    0.750000   106.127449
    0.800000   103.363472
    0.850000    85.516739
    0.900000    86.178017
    0.950000   115.430199
    1.000000   104.202995
    1.100000   114.634941
    1.200000   127.431053
    1.300000    91.432297
    1.400000    61.781487
    1.500000    57.983704
    1.600000    62.671131
    1.700000    62.214985
    1.800000    74.316322
    1.900000    66.729973
    2.000000    53.288124
    2.200000    29.162958
    2.400000    36.245502
    2.500000    38.853344
    2.600000    38.458340
    2.800000    29.131472
    3.000000    22.827013
    3.200000    29.420057
    3.400000    29.902843
    3.500000    27.894955
    3.600000    27.246420
    3.800000    21.561365
    4.000000    19.753561
    4.200000    18.231823
    4.400000    18.060169
    4.600000    17.539511
    4.800000    17.146555
    5.000000    17.278383
    5.500000    18.314228
    6.000000    18.070328
    6.500000    14.069348
    7.000000    12.072082
    7.500000     9.988017
    8.000000     9.127786
    8.500000     9.322900
    9.000000     9.174998
    9.500000     8.843474
   10.000000     8.430599
