EVENT_NAME: None
EVENT_ID: INT-20230206_0000222
EVENT_DATE_YYYYMMDD: 20230206
EVENT_TIME_HHMMSS: 102449
EVENT_LATITUDE_DEGREE: 38.1100
EVENT_LONGITUDE_DEGREE: 37.2400
EVENT_DEPTH_KM: 10.0
HYPOCENTER_REFERENCE: EMSC-CSEM
MAGNITUDE_W: 7.5
MAGNITUDE_W_REFERENCE: EMSC-CSEM
MAGNITUDE_L: 
MAGNITUDE_L_REFERENCE: 
FOCAL_MECHANISM: Strike-slip faulting
NETWORK: TK
STATION_CODE: 4611
STATION_NAME: None
STATION_LATITUDE_DEGREE: 37.747200
STATION_LONGITUDE_DEGREE: 37.284260
STATION_ELEVATION_M: 1097
LOCATION: 
SENSOR_DEPTH_M: 0.0
VS30_M/S: 
SITE_CLASSIFICATION_EC8: B (inferred from topography)
MORPHOLOGIC_CLASSIFICATION: 
EPICENTRAL_DISTANCE_KM: 40.5
EARTHQUAKE_BACKAZIMUTH_DEGREE: 354.5
DATE_TIME_FIRST_SAMPLE_YYYYMMDD_HHMMSS: 
DATE_TIME_FIRST_SAMPLE_PRECISION: 
SAMPLING_INTERVAL_S: 
NDATA: 105
DURATION_S: 
STREAM: HNE
UNITS: cm/s^2
INSTRUMENT: HN
INSTRUMENT_ANALOG/DIGITAL: D
INSTRUMENTAL_FREQUENCY_HZ: 
INSTRUMENTAL_DAMPING: 
FULL_SCALE_G: 
N_BIT_DIGITAL_CONVERTER: 
PGA_CM/S^2: -136.184126
TIME_PGA_S: 
BASELINE_CORRECTION: BASELINE REMOVED
FILTER_TYPE: BUTTERWORTH
FILTER_ORDER: 2
LOW_CUT_FREQUENCY_HZ: 0.030
HIGH_CUT_FREQUENCY_HZ: 40.000
LATE/NORMAL_TRIGGERED: NT
DATABASE_VERSION: 0.5
HEADER_FORMAT: DYNA 1.2
DATA_TYPE: ACCELERATION RESPONSE SPECTRUM
PROCESSING: manual (Paolucci et al., 2011)
DATA_TIMESTAMP_YYYYMMDD_HHMMSS: 20251106_223021.361
DATA_LICENSE: D (network default license)
DATA_CITATION: Luzi L., Lanzano G., Felicetta C., D Amico M. C., Russo E., Sgobba S., Pacor, F., & ORFEUS Working Group 5 (2020). Engineering Strong Motion Database (ESM) (Version 2.0). Istituto Nazionale di Geofisica e Vulcanologia (INGV). https://doi.org/10.13127/ESM.2
DATA_CREATOR: ESM working group
ORIGINAL_DATA_MEDIATOR_CITATION: afad
ORIGINAL_DATA_MEDIATOR: afad
ORIGINAL_DATA_CREATOR_CITATION: Disaster And Emergency Management Authority. (1973). Turkish National Strong Motion Network. Department of Earthquake, Disaster and Emergency Management Authority. https://doi.org/10.7914/SN/TK http://www.fdsn.org/networks/detail/TK/
ORIGINAL_DATA_CREATOR: network: TK (Turkish National Strong Motion Network (TNSMN)); owner: Disaster and Emergency Management Authority (AFAD)
USER1: 
USER2: 
USER3: 
USER4: 
USER5: 
    0.010000   136.663696
    0.020000   139.470291
    0.022000   140.219345
    0.025000   141.453659
    0.029000   141.825760
    0.030000   143.511826
    0.032000   145.860077
    0.035000   149.044144
    0.036000   149.931000
    0.040000   154.063309
    0.042000   155.495728
    0.044000   151.142685
    0.045000   147.590088
    0.046000   149.283920
    0.048000   153.774048
    0.050000   162.643448
    0.055000   185.904114
    0.060000   207.729126
    0.065000   248.308456
    0.067000   260.689514
    0.070000   262.475372
    0.075000   343.002991
    0.080000   401.145172
    0.085000   372.695496
    0.090000   371.628418
    0.095000   449.222870
    0.100000   460.638885
    0.110000   415.722229
    0.120000   349.497162
    0.130000   318.326935
    0.133000   316.488831
    0.140000   295.854401
    0.150000   247.634750
    0.160000   218.785980
    0.170000   256.383575
    0.180000   230.275375
    0.190000   251.400314
    0.200000   284.620026
    0.220000   345.688965
    0.240000   322.912872
    0.250000   321.086609
    0.260000   342.005432
    0.280000   302.135925
    0.290000   326.494690
    0.300000   326.594940
    0.320000   299.151215
    0.340000   230.981308
    0.350000   264.403412
    0.360000   295.899658
    0.380000   316.193970
    0.400000   345.900970
    0.420000   287.070648
    0.440000   294.178558
    0.450000   319.217010
    0.460000   339.765472
    0.480000   334.658813
    0.500000   350.705719
    0.550000   370.052582
    0.600000   279.755890
    0.650000   279.251343
    0.667000   264.617798
    0.700000   250.128632
    0.750000   371.490326
    0.800000   432.537170
    0.850000   406.593933
    0.900000   306.973999
    0.950000   224.607574
    1.000000   224.469147
    1.100000   242.266190
    1.200000   283.484344
    1.300000   237.067734
    1.400000   192.160477
    1.500000   169.453629
    1.600000   168.693237
    1.700000   151.523773
    1.800000   125.194107
    1.900000   105.504799
    2.000000    92.641602
    2.200000    66.888702
    2.400000    62.749157
    2.500000    63.455051
    2.600000    62.948105
    2.800000    60.523834
    3.000000    64.437920
    3.200000    74.737671
    3.400000    73.227119
    3.500000    71.600128
    3.600000    69.877098
    3.800000    72.322983
    4.000000    73.273201
    4.200000    72.369560
    4.400000    70.077347
    4.600000    67.337585
    4.800000    65.304688
    5.000000    63.382698
    5.500000    56.487968
    6.000000    50.757996
    6.500000    58.734077
    7.000000    59.613590
    7.500000    58.815365
    8.000000    53.836952
    8.500000    49.330708
    9.000000    45.178650
    9.500000    41.176826
   10.000000    36.791828
