EVENT_NAME: None
EVENT_ID: INT-20230206_0000222
EVENT_DATE_YYYYMMDD: 20230206
EVENT_TIME_HHMMSS: 102449
EVENT_LATITUDE_DEGREE: 38.1100
EVENT_LONGITUDE_DEGREE: 37.2400
EVENT_DEPTH_KM: 10.0
HYPOCENTER_REFERENCE: EMSC-CSEM
MAGNITUDE_W: 7.5
MAGNITUDE_W_REFERENCE: EMSC-CSEM
MAGNITUDE_L: 
MAGNITUDE_L_REFERENCE: 
FOCAL_MECHANISM: Strike-slip faulting
NETWORK: TK
STATION_CODE: 4612
STATION_NAME: Goksun Kahramanmaras
STATION_LATITUDE_DEGREE: 38.023950
STATION_LONGITUDE_DEGREE: 36.481870
STATION_ELEVATION_M: 1340
LOCATION: 
SENSOR_DEPTH_M: 0.0
VS30_M/S: 
SITE_CLASSIFICATION_EC8: C (inferred from topography)
MORPHOLOGIC_CLASSIFICATION: 
EPICENTRAL_DISTANCE_KM: 67.2
EARTHQUAKE_BACKAZIMUTH_DEGREE: 81.6
DATE_TIME_FIRST_SAMPLE_YYYYMMDD_HHMMSS: 
DATE_TIME_FIRST_SAMPLE_PRECISION: 
SAMPLING_INTERVAL_S: 
NDATA: 105
DURATION_S: 
STREAM: HNE
UNITS: cm/s^2
INSTRUMENT: HN
INSTRUMENT_ANALOG/DIGITAL: D
INSTRUMENTAL_FREQUENCY_HZ: 
INSTRUMENTAL_DAMPING: 
FULL_SCALE_G: 
N_BIT_DIGITAL_CONVERTER: 
PGA_CM/S^2: 520.013432
TIME_PGA_S: 
BASELINE_CORRECTION: BASELINE REMOVED
FILTER_TYPE: BUTTERWORTH
FILTER_ORDER: 2
LOW_CUT_FREQUENCY_HZ: 0.020
HIGH_CUT_FREQUENCY_HZ: 40.000
LATE/NORMAL_TRIGGERED: NT
DATABASE_VERSION: 0.5
HEADER_FORMAT: DYNA 1.2
DATA_TYPE: ACCELERATION RESPONSE SPECTRUM
PROCESSING: manual (Paolucci et al., 2011)
DATA_TIMESTAMP_YYYYMMDD_HHMMSS: 20251106_223022.437
DATA_LICENSE: D (network default license)
DATA_CITATION: Luzi L., Lanzano G., Felicetta C., D Amico M. C., Russo E., Sgobba S., Pacor, F., & ORFEUS Working Group 5 (2020). Engineering Strong Motion Database (ESM) (Version 2.0). Istituto Nazionale di Geofisica e Vulcanologia (INGV). https://doi.org/10.13127/ESM.2
DATA_CREATOR: ESM working group
ORIGINAL_DATA_MEDIATOR_CITATION: afad
ORIGINAL_DATA_MEDIATOR: afad
ORIGINAL_DATA_CREATOR_CITATION: Disaster And Emergency Management Authority. (1973). Turkish National Strong Motion Network. Department of Earthquake, Disaster and Emergency Management Authority. https://doi.org/10.7914/SN/TK http://www.fdsn.org/networks/detail/TK/
ORIGINAL_DATA_CREATOR: network: TK (Turkish National Strong Motion Network (TNSMN)); owner: Disaster and Emergency Management Authority (AFAD)
USER1: 
USER2: 
USER3: 
USER4: 
USER5: 
    0.010000   520.496033
    0.020000   523.920288
    0.022000   524.039124
    0.025000   524.433533
    0.029000   526.993347
    0.030000   530.317078
    0.032000   536.452209
    0.035000   544.998962
    0.036000   545.243530
    0.040000   559.496948
    0.042000   563.912537
    0.044000   575.003540
    0.045000   576.357117
    0.046000   577.330933
    0.048000   580.327515
    0.050000   583.468628
    0.055000   619.462708
    0.060000   637.916382
    0.065000   626.057800
    0.067000   637.854126
    0.070000   664.073792
    0.075000   668.009216
    0.080000   702.791809
    0.085000   682.797119
    0.090000   739.655212
    0.095000   740.331726
    0.100000   677.799316
    0.110000   796.405457
    0.120000   737.199219
    0.130000   823.296570
    0.133000   853.320496
    0.140000   830.243408
    0.150000   646.514587
    0.160000   669.837585
    0.170000   833.002014
    0.180000   872.721558
    0.190000   704.595886
    0.200000   639.137634
    0.220000   753.221375
    0.240000   897.972961
    0.250000   892.875977
    0.260000   949.092529
    0.280000   871.530396
    0.290000   848.067261
    0.300000   803.897949
    0.320000   896.824280
    0.340000  1150.831665
    0.350000  1231.886230
    0.360000  1329.116699
    0.380000  1446.293457
    0.400000  1437.622681
    0.420000  1406.237305
    0.440000  1401.013184
    0.450000  1384.178711
    0.460000  1356.603027
    0.480000  1287.041016
    0.500000  1133.324707
    0.550000   884.870056
    0.600000   708.620422
    0.650000   644.736816
    0.667000   636.703003
    0.700000   642.001953
    0.750000   775.790588
    0.800000   957.533630
    0.850000   933.304260
    0.900000   778.851196
    0.950000   585.164856
    1.000000   522.011780
    1.100000   510.477661
    1.200000   753.846619
    1.300000   989.780518
    1.400000  1007.868347
    1.500000   892.273865
    1.600000   809.550537
    1.700000   752.944702
    1.800000   649.300842
    1.900000   591.759338
    2.000000   542.811401
    2.200000   414.091980
    2.400000   343.550690
    2.500000   307.651001
    2.600000   267.941284
    2.800000   210.000198
    3.000000   160.257278
    3.200000   151.277969
    3.400000   142.443741
    3.500000   139.476562
    3.600000   136.263519
    3.800000   128.336380
    4.000000   125.738785
    4.200000   123.525299
    4.400000   120.313904
    4.600000   120.925156
    4.800000   121.453896
    5.000000   118.150330
    5.500000    99.420685
    6.000000    90.988266
    6.500000    85.704056
    7.000000    78.823845
    7.500000    76.867485
    8.000000    71.861374
    8.500000    65.402428
    9.000000    58.502331
    9.500000    51.645321
   10.000000    45.212784
