EVENT_NAME: None
EVENT_ID: INT-20230206_0000222
EVENT_DATE_YYYYMMDD: 20230206
EVENT_TIME_HHMMSS: 102449
EVENT_LATITUDE_DEGREE: 38.1100
EVENT_LONGITUDE_DEGREE: 37.2400
EVENT_DEPTH_KM: 10.0
HYPOCENTER_REFERENCE: EMSC-CSEM
MAGNITUDE_W: 7.5
MAGNITUDE_W_REFERENCE: EMSC-CSEM
MAGNITUDE_L: 
MAGNITUDE_L_REFERENCE: 
FOCAL_MECHANISM: Strike-slip faulting
NETWORK: TK
STATION_CODE: 4620
STATION_NAME: None
STATION_LATITUDE_DEGREE: 37.585680
STATION_LONGITUDE_DEGREE: 36.898450
STATION_ELEVATION_M: 698
LOCATION: 
SENSOR_DEPTH_M: 0.0
VS30_M/S: 
SITE_CLASSIFICATION_EC8: B (inferred from topography)
MORPHOLOGIC_CLASSIFICATION: 
EPICENTRAL_DISTANCE_KM: 65.5
EARTHQUAKE_BACKAZIMUTH_DEGREE: 27.2
DATE_TIME_FIRST_SAMPLE_YYYYMMDD_HHMMSS: 20230206_102433.001
DATE_TIME_FIRST_SAMPLE_PRECISION: milliseconds
SAMPLING_INTERVAL_S: 0.005000
NDATA: 21000
DURATION_S: 105.000
STREAM: HNE
UNITS: cm/s^2
INSTRUMENT: HN
INSTRUMENT_ANALOG/DIGITAL: D
INSTRUMENTAL_FREQUENCY_HZ: 
INSTRUMENTAL_DAMPING: 
FULL_SCALE_G: 
N_BIT_DIGITAL_CONVERTER: 
PGA_CM/S^2: -80.990852
TIME_PGA_S: 48.890000
BASELINE_CORRECTION: BASELINE REMOVED
FILTER_TYPE: BUTTERWORTH
FILTER_ORDER: 2
LOW_CUT_FREQUENCY_HZ: 0.030
HIGH_CUT_FREQUENCY_HZ: 40.000
LATE/NORMAL_TRIGGERED: NT
DATABASE_VERSION: 0.5
HEADER_FORMAT: DYNA 1.2
DATA_TYPE: ACCELERATION
PROCESSING: manual (Paolucci et al., 2011)
DATA_TIMESTAMP_YYYYMMDD_HHMMSS: 20251106_223024.088
DATA_LICENSE: D (network default license)
DATA_CITATION: Luzi L., Lanzano G., Felicetta C., D Amico M. C., Russo E., Sgobba S., Pacor, F., & ORFEUS Working Group 5 (2020). Engineering Strong Motion Database (ESM) (Version 2.0). Istituto Nazionale di Geofisica e Vulcanologia (INGV). https://doi.org/10.13127/ESM.2
DATA_CREATOR: ESM working group
ORIGINAL_DATA_MEDIATOR_CITATION: afad
ORIGINAL_DATA_MEDIATOR: afad
ORIGINAL_DATA_CREATOR_CITATION: Disaster And Emergency Management Authority. (1973). Turkish National Strong Motion Network. Department of Earthquake, Disaster and Emergency Management Authority. https://doi.org/10.7914/SN/TK http://www.fdsn.org/networks/detail/TK/
ORIGINAL_DATA_CREATOR: network: TK (Turkish National Strong Motion Network (TNSMN)); owner: Disaster and Emergency Management Authority (AFAD)
USER1: 
USER2: 
USER3: 
USER4: 
USER5: 
[...]
-14.311011
-12.999439
-12.088567
-11.308108
-10.522441
-9.792852
-9.325349
-9.379202
-10.167968
-11.770509
-14.080284
-16.803419
-19.565474
-22.047607
-24.076767
-25.632505
-26.698204
-27.127406
-26.703351
-25.276437
-22.886089
-19.801814
-16.393078
-12.983804
-9.817836
-7.061389
-4.783157
-2.928262
-1.334052
0.210168
1.844279
3.547564
5.185292
6.599382
7.682008
8.425345
8.930940
9.388358
9.995641
10.865296
11.960449
13.085132
13.989436
14.492175
14.548913
14.296848
14.078183
14.412655
15.823783
18.613951
22.680100
27.448088
32.088819
35.802212
38.004839
38.410980
36.948403
33.654232
28.653769
22.179382
14.587353
6.337173
-2.103636
-10.342635
-18.041257
-24.861049
-30.436528
-34.379806
-36.340036
-36.089016
-33.625800
-29.259456
-23.585575
-17.370507
-11.312404
-5.858992
-1.283646
2.180984
4.326957
5.038777
4.412321
2.810626
0.729562
-1.355486
-3.020192
-3.897056
-3.751059
-2.565711
-0.544817
1.955603
4.581109
7.108342
9.437572
11.545295
13.462880
15.268367
17.063849
18.940092
20.932627
22.989288
24.977514
26.706335
27.957156
28.524725
28.278715
27.215981
25.458347
23.219623
20.744995
18.258739
15.955168
14.005790
12.564080
11.757093
11.649440
12.202254
13.255987
14.548052
15.794770
16.768766
17.301251
17.252304
16.481506
14.845865
12.257389
8.744418
4.468780
-0.272086
-5.049568
-9.336674
-12.619253
-14.514065
-14.818880
-13.516600
-10.737912
-6.745400
-1.978762
2.938244
7.359264
10.811221
13.089323
14.260041
14.537502
14.163221
13.384806
12.444315
11.497756
10.541435
9.449071
8.052793
6.220701
3.906795
1.150625
-1.922872
-5.082167
-8.006852
-10.420554
-12.202792
-13.329263
-13.771984
-13.483906
-12.448268
-10.774119
-8.738947
-6.668927
-4.808880
-3.319653
-2.311146
-1.828739
-1.818986
-2.123311
-2.518272
-2.836043
-3.070922
-3.362746
-3.920621
-4.914184
-6.385147
-8.238692
-10.279908
-12.288839
-14.072719
-15.435351
-16.138109
-15.931095
-14.628541
-12.208243
-8.866894
-4.943023
-0.815219
3.144633
6.600616
9.301485
11.129082
12.104426
12.361251
12.080569
11.437009
10.598313
9.718943
8.873389
7.996936
6.922388
5.458490
3.478827
0.993665
-1.829871
-4.680078
-7.168901
-8.931564
-9.749888
-9.634808
-8.773554
-7.437843
-5.914434
-4.455037
-3.236058
-2.313945
-1.587849
-0.807960
0.299521
1.896691
3.997622
6.502939
9.305213
12.364619
15.653110
19.068952
22.415235
25.433367
27.899304
29.706088
30.853937
31.400318
31.399755
30.865279
29.788609
28.180169
26.104205
23.694945
21.136375
18.642625
16.463517
14.880154
14.139666
14.368442
15.507951
17.303082
19.403603
21.478966
23.256972
24.513461
25.029956
24.587120
23.070375
20.590777
17.510121
14.375787
11.726514
9.916054
9.103702
9.313208
10.493925
12.536072
15.201838
18.078043
20.671332
22.551876
23.469561
23.417709
22.587680
21.280890
19.798016
18.338045
16.950815
15.542605
13.973206
12.152736
10.055501
7.701607
5.146957
2.498265
-0.042544
-2.166397
-3.556768
-4.005752
-3.456949
-2.004800
0.140401
2.685476
5.278182
7.556297
9.263264
10.343995
10.907088
11.129174
11.148904
11.002370
10.662943
10.102950
9.320014
8.346934
7.261169
6.190305
5.295971
4.748678
4.700666
5.263968
6.500117
8.409409
10.914569
13.855566
17.023634
20.204875
23.210446
25.896429
28.169710
29.984270
31.322099
32.175537
32.553215
32.505430
32.164123
31.751220
31.488915
31.491755
31.718544
31.978588
32.018872
31.621596
30.657144
29.102643
27.014531
24.492356
21.659882
18.668302
15.725819
13.102041
11.048335
9.716656
9.165153
9.404285
10.439438
12.260407
14.720161
17.433524
19.850468
21.407434
21.698759
20.600268
18.257663
15.023549
11.370489
7.800214
4.752122
2.530473
1.293997
1.076613
1.832657
3.473282
5.864792
8.818304
12.096245
15.431920
18.566050
21.290139
23.490101
25.174824
26.453093
27.477855
28.358120
29.091904
29.585334
29.699806
29.287695
28.207631
26.320001
23.506331
19.759712
15.268214
10.390015
5.562504
1.156079
-2.638879
-5.792266
-8.372555
-10.498117
-12.302923
-13.907298
-15.385399
-16.740990
-17.918715
-18.893182
-19.743182
-20.609305
-21.617732
-22.842838
-24.311799
-26.052925
-28.112436
-30.466061
-32.938740
-35.257752
-37.152466
-38.424898
-38.968205
-38.701337
-37.513908
-35.307704
-32.057868
-27.823178
-22.731329
-16.969092
-10.798649
-4.613675
1.035533
5.547141
8.417719
9.374307
8.460421
6.015173
2.601907
-1.116558
-4.515965
-7.129902
-8.717221
-9.210967
-8.654965
-7.209796
-5.173736
-2.950028
-0.972309
0.403082
0.965011
0.596078
-0.777036
-3.120963
-6.220213
-9.709901
-13.177959
-16.314561
-19.008940
-21.275002
-23.142679
-24.620784
-25.692478
-26.308626
-26.376610
-25.766242
-24.344198
-22.053513
-18.967147
-15.234141
-11.011782
-6.468608
-1.814590
2.691471
6.774982
10.233252
12.983153
14.958396
15.990159
15.817370
14.189897
11.061009
6.734107
1.799189
-3.022794
-7.076115
-9.935225
-11.454374
-11.743510
-11.044800
-9.597355
-7.565258
-5.028556
-2.073276
1.117441
4.260377
7.014435
9.056659
10.164251
10.281742
9.549855
8.233332
6.610459
4.868416
3.051329
1.131008
-0.909623
-3.064723
-5.307107
-7.549754
-9.610990
-11.252948
-12.259572
-12.532754
-12.154344
-11.346864
-10.411478
-9.682674
-9.462368
-9.885211
-10.812329
-11.892049
-12.692614
-12.846897
-12.141518
-10.470987
-7.775309
-4.053913
0.598066
5.980884
11.788033
17.590567
22.834636
26.914120
29.296519
29.696837
28.197205
25.171598
21.150775
16.712611
12.402135
8.676306
5.843845
3.997437
2.984644
2.501503
2.219003
1.873992
1.321053
0.517970
-0.518226
-1.772036
-3.263104
-4.995398
-6.887227
-8.745163
-10.288496
-11.249790
-11.462908
-10.854783
-9.416401
-7.216943
-4.435221
-1.367681
1.601845
4.104477
5.892303
6.881798
7.158208
6.933609
6.489165
6.103693
5.980509
6.187489
6.622184
7.045618
7.152488
6.674395
5.469472
3.540856
1.014152
-1.923366
-5.071334
-8.206426
-11.059078
-13.325766
-14.722090
-15.094725
-14.515551
-13.260779
-11.729298
-10.313376
-9.284025
-8.757620
-8.711266
-9.056933
-9.725003
-10.715043
-12.100074
-13.943861
-16.216885
-18.794292
-21.496782
-24.150345
-26.617568
-28.759326
-30.409121
-31.441278
-31.846452
-31.715210
-31.169555
-30.271701
-28.978497
-27.223800
-25.016806
-22.458534
-19.721053
-17.016034
-14.561701
-12.545337
-11.098577
-10.316007
-10.286513
-11.099549
-12.803430
-15.283412
-18.176771
-20.972509
-23.173032
-24.425221
-24.590838
-23.707585
-21.935614
-19.543409
-16.883572
-14.289366
-11.956449
-9.889549
-7.915773
-5.807125
-3.411797
-0.713139
2.147196
4.875522
7.056051
8.244822
8.096844
6.501528
3.658678
-0.024107
-4.095482
-8.207674
-12.201488
-16.048817
-19.747544
-23.223734
-26.276152
-28.624738
-30.004178
-30.277640
-29.518146
-27.987546
-26.078572
-24.244968
-22.926972
-22.457290
-22.960722
-24.284373
-25.995448
-27.543688
-28.466007
-28.527674
-27.771681
-26.394548
-24.595086
-22.516365
-20.260115
-17.976383
-15.926485
-14.411913
-13.657918
-13.725150
-14.480153
-15.687157
-17.129687
-18.691252
-20.379964
-22.250439
-24.307576
-26.466715
-28.573818
-30.512858
-32.295799
-34.018224
-35.752717
-37.431468
-38.791466
-39.484484
-39.222063
-37.848533
-35.351475
-31.805230
-27.340687
-22.223955
-16.934849
-12.108691
-8.390202
-6.214659
-5.643164
-6.412115
-8.065821
-10.102976
-12.085707
-13.660831
-14.555126
-14.576883
-13.626503
-11.714432
-8.981688
-5.711814
-2.315403
0.757869
3.128584
4.575408
5.082539
4.803152
4.005141
3.032026
2.254901
1.979706
2.359348
3.383685
4.924477
6.836293
9.025376
11.396308
13.785996
15.991573
17.842348
19.272222
20.353869
21.247735
22.144759
23.261050
24.833383
27.058087
30.020876
33.671894
37.828517
42.201216
46.416162
50.032988
52.595329
53.765260
53.443116
51.751299
48.955245
45.361465
41.247851
36.881165
32.549096
28.548577
25.152691
22.570228
20.903743
20.114335
20.015471
20.343367
20.842814
21.314982
21.630513
21.702996
21.479590
20.995496
20.415036
19.963789
19.821922
20.040271
20.507729
21.018769
21.349977
21.272601
20.541593
18.901927
16.121421
12.064885
6.765328
0.442834
-6.510388
-13.588390
-20.240506
-25.937243
-30.229523
-32.792464
-33.456367
-32.207019
-29.165135
-24.544155
-18.627681
-11.811594
-4.646491
2.201930
8.053349
12.374863
14.903065
15.605550
14.597562
12.100316
8.439766
4.077970
-0.385220
-4.316010
-7.177877
-8.620157
-8.515223
-6.907774
-3.950258
0.120033
4.973737
10.167412
15.160842
19.444096
22.673538
24.707048
25.566367
25.324382
24.022981
21.729181
18.623732
15.023704
11.343102
7.976467
5.198374
3.170655
1.985636
1.694148
2.310626
3.789854
6.006449
8.762628
11.802191
14.821595
17.498358
19.569904
20.909761
21.537139
21.588578
21.259761
20.759529
20.303747
20.096598
20.247138
20.692772
21.226621
21.584402
21.575757
21.187059
20.570377
19.987259
19.733301
20.061553
21.111231
22.857071
25.121884
27.621108
30.036462
32.085456
33.555184
34.313830
34.294335
33.472128
31.853460
29.482603
26.480433
23.070664
19.539420
16.170366
13.187792
10.726063
8.854883
7.615032
7.033101
7.125755
7.894574
9.304631
11.230423
13.414912
15.505584
17.128518
17.983254
17.917659
16.934816
15.175114
12.886576
10.383706
7.981959
5.944183
4.478195
3.734504
3.758650
4.443652
5.548160
6.759748
7.801288
8.512430
8.828403
8.728331
8.202795
7.240703
5.842510
4.051312
1.998804
-0.081975
-1.944108
-3.425732
-4.471389
-5.102589
-5.351771
-5.231398
-4.808668
-4.276410
-3.900372
-3.913635
-4.409601
-5.273356
-6.210894
-6.819189
-6.686291
-5.497219
-3.126856
0.304301
4.477198
8.966083
13.353848
17.326960
20.694417
23.365686
25.287082
26.379013
26.521050
25.587150
23.557601
20.611007
17.081415
13.353773
9.746802
6.452485
3.615626
1.423754
0.085953
-0.241263
0.463351
2.040016
4.201162
6.620466
9.018881
11.215875
13.094996
14.541769
15.403469
15.505249
14.771784
13.326440
11.423098
9.316676
7.164743
5.011166
2.924392
1.124689
-0.066530
-0.345913
0.465931
2.368531
5.222322
8.806838
12.844558
17.011178
20.953967
24.314772
26.760100
28.031242
28.031379
26.887419
24.897914
22.438531
19.874800
17.513605
15.628776
14.480792
14.257851
15.003313
16.599879
18.791840
21.250550
23.651148
25.739861
27.372224
28.481830
29.033978
29.010026
28.423806
27.373511
26.066014
24.739100
23.566291
22.623349
21.895319
21.322939
20.851813
20.457485
20.148127
19.929801
19.764359
19.552542
19.155972
18.486285
17.576964
16.541097
15.487842
14.455077
13.385702
12.189878
10.817511
9.281246
7.656601
6.066671
4.646897
3.466564
2.459999
1.445740
0.208452
-1.356537
-3.144264
-4.917993
-6.434770
-7.518217
-8.080262
-8.087974
-7.545551
-6.543868
-5.298783
-4.086897
-3.154498
-2.667242
-2.692271
-3.214015
-4.150562
-5.360392
-6.667556
-7.937627
-9.135295
-10.278115
-11.361775
-12.321394
-13.028586
-13.333766
-13.106106
-12.241568
-10.679308
-8.460978
-5.766937
-2.845213
0.074913
2.794653
5.115872
6.806298
7.618812
7.428862
6.345000
4.631460
2.580004
0.445857
-1.565147
-3.269906
-4.503576
-5.188880
-5.401168
-5.342864
-5.283238
-5.492967
-6.174281
-7.384580
-8.994506
-10.754573
-12.390022
-13.663938
-14.410189
-14.529735
-13.985099
-12.807388
-11.090109
-8.944462
-6.476962
-3.855629
-1.368570
0.637458
1.866292
2.171440
1.609202
0.386580
-1.223597
-2.962629
-4.649820
-6.208707
-7.660860
-9.066947
-10.474293
-11.924218
-13.468848
-15.150362
-16.967133
-18.855767
-20.693233
-22.332106
-23.639241
-24.514756
-24.900751
-24.782881
-24.189482
-23.189890
-21.899748
-20.498986
-19.237242
-18.388402
-18.187232
-18.770670
-20.134572
-22.134573
-24.522364
-27.035535
-29.480422
-31.739841
-33.738765
-35.385656
-36.548252
-37.127423
-37.133081
-36.667007
-35.870034
-34.877049
-33.790885
-32.681424
-31.581674
-30.466320
-29.246771
-27.829485
-26.181656
-24.354850
-22.495838
-20.857485
-19.784153
-19.610620
-20.531443
-22.501083
-25.210837
-28.229410
-31.151750
-33.619952
-35.298441
-35.876017
-35.105419
-32.884572
-29.313602
-24.654196
-19.270288
-13.602247
-8.132306
-3.285707
0.666589
3.618865
5.592509
6.663770
6.915433
6.460344
5.456014
4.035026
2.237090
0.044478
-2.540290
-5.424576
-8.394913
-11.168543
-13.455957
-14.985387
-15.522002
-14.920177
-13.185302
-10.509452
-7.270896
-3.956216
-1.055858
1.034708
2.080499
2.000932
0.862541
-1.081390
-3.366350
-5.413720
-6.704382
-6.994921
-6.430927
-5.348838
-4.010741
-2.480338
-0.619194
1.770086
4.803621
8.490910
12.739722
17.333453
21.921657
26.090536
29.442582
31.623249
32.340476
31.429456
28.933661
25.142344
20.541829
15.596854
10.550422
5.444052
0.227395
-5.130209
-10.580020
-16.038334
-21.440283
-26.726531
-31.805522
-36.533858
-40.723091
-44.191387
-46.823474
-48.608123
-49.649944
-50.136013
-50.295244
-50.375006
-50.623800
-51.270593
-52.506513
-54.474384
-57.248264
-60.782648
-64.868453
-69.153643
-73.210655
-76.651981
-79.213230
-80.712934
-80.990852
-79.919503
-77.464042
-73.763315
-69.155843
-64.048347
-58.758216
-53.454793
-48.179538
-42.956166
-37.880512
-33.085927
-28.673308
-24.678101
-21.071963
-17.801122
-14.818918
-12.081405
-9.542604
-7.182008
-5.029270
-3.144380
-1.587262
-0.410337
0.331485
0.561625
0.184022
-0.861867
-2.558119
-4.845205
-7.669028
-10.966767
-14.621788
-18.419937
-22.046043
-25.174146
-27.562573
-29.076611
-29.690142
-29.498854
-28.717367
-27.604709
-26.371598
-25.126397
-23.871812
-22.581112
-21.255427
-19.871299
-18.322591
-16.468863
-14.229128
-11.663238
-8.999511
-6.543633
-4.568227
-3.256717
-2.671228
-2.732326
-3.223494
-3.866506
-4.411560
-4.691915
-4.645289
-4.289916
-3.702298
-3.020633
-2.426799
-2.045253
-1.839046
-1.601710
-1.016745
0.203290
2.183509
4.847219
7.940987
11.141695
14.167804
16.825998
19.007299
20.616930
21.507284
21.478630
20.315037
17.852274
14.056713
9.098554
3.383358
-2.537479
-8.103523
-12.885815
-16.684152
-19.507626
-21.511697
-22.916676
-23.924272
-24.644644
-25.060163
-25.086965
-24.662901
-23.803776
-22.613863
-21.221039
-19.717656
-18.176113
-16.674234
-15.263981
-13.916424
-12.488742
-10.745416
-8.489897
-5.694378
-2.509806
0.787998
3.901593
6.612425
8.838671
10.660943
12.285860
13.968437
15.884448
18.028579
20.234401
22.243174
23.781159
24.612772
24.546063
23.445577
21.298676
18.274770
14.693222
10.940827
7.358812
4.164024
1.478321
-0.621061
-2.094601
-2.947435
-3.213860
-2.927474
-2.094667
-0.697440
1.243227
3.620979
6.298813
9.183019
12.233066
15.423011
18.657284
21.709984
24.267083
26.005445
26.669989
26.134819
24.429087
21.738247
18.364073
14.675378
11.067557
7.929231
5.608772
4.367206
4.307238
5.322531
7.133658
9.358058
11.582186
13.410267
14.467924
14.414907
13.022986
10.267839
6.370505
1.779082
-2.960078
-7.350462
-11.038166
-13.853853
-15.777143
-16.886101
-17.326035
-17.286843
-16.977545
-16.601639
-16.342462
-16.351198
-16.728029
-17.493621
-18.557535
-19.719425
-20.759020
-21.532905
-21.993438
-22.158863
-22.045359
-21.622925
-20.851673
-19.719673
-18.212010
-16.273072
-13.834086
-10.871812
-7.464332
-3.807728
-0.143762
3.316842
6.402572
8.970071
10.913765
12.178283
12.749369
12.645571
11.940382
10.797265
9.486187
8.349217
7.662705
7.516450
7.843067
8.502116
9.349757
10.269767
11.145237
11.840418
12.251891
12.360230
12.209087
11.863949
11.395212
10.873629
10.364548
9.920442
9.580415
9.380467
9.374133
9.629455
10.162008
10.877944
11.613197
12.209069
12.580682
12.758449
12.867394
13.075254
13.511851
14.197264
15.028746
15.813833
16.365353
16.583252
16.446731
15.976473
15.206668
14.168937
12.891083
11.409855
9.806930
8.234828
6.885045
5.924484
5.417213
5.282630
5.356880
5.467770
5.449167
5.134635
4.372344
3.062236
1.211804
-1.030726
-3.424512
-5.712692
-7.694440
-9.277191
-10.480025
-11.406841
-12.182335
-12.894460
-13.584784
-14.254369
-14.861632
-15.310713
-15.440479
-15.038143
-13.917095
-12.003192
-9.371600
-6.241723
-2.907393
0.347979
3.316642
5.901459
8.094918
9.953822
11.602040
13.226366
15.015625
17.080534
19.397213
21.798167
24.058663
25.986737
27.441372
28.334662
28.662266
28.527838
28.104178
27.567384
27.036079
26.547032
26.108964
25.753376
25.510418
25.373557
25.314174
25.309764
25.345984
25.402119
25.432886
25.368749
25.154032
24.767855
24.174165
23.281433
22.002651
20.340916
18.422199
16.472242
14.718787
13.315050
12.379057
12.054539
12.505183
13.869543
16.197444
19.408184
23.318986
27.698967
32.320525
36.988857
41.525812
45.750410
49.493109
52.624971
55.083323
56.879694
58.070201
58.724547
58.920857
58.740187
58.240751
57.448108
56.405746
55.220924
54.032161
52.948476
52.009229
51.187443
50.466753
49.898799
49.545231
49.399026
49.374503
49.335390
49.142530
48.693789
47.936694
46.872585
45.558782
44.103405
42.638971
41.296032
40.195025
39.438285
39.087947
39.152007
39.611304
40.458030
41.714318
43.421054
45.575726
48.076988
50.739733
53.343703
55.695496
57.672348
59.212940
60.294493
60.923442
61.137508
61.016441
60.688400
60.314265
60.056503
60.035845
60.307650
60.896707
61.834074
63.136594
64.757138
66.537380
68.210283
69.517047
70.319723
70.591667
70.366928
69.708826
68.696403
67.417153
65.951116
64.342503
62.591127
60.699142
58.704409
56.634703
54.468362
52.191241
49.867216
47.633166
45.653270
44.062836
42.948077
42.403278
42.564288
43.515702
45.193595
47.412088
49.934770
52.524364
54.958690
57.008481
58.437116
59.079805
58.918470
58.060602
56.684597
54.994353
53.183043
51.399411
49.719187
48.142899
46.619221
45.108680
43.640002
42.305880
41.231574
40.529229
40.253203
40.366834
40.723849
41.087771
41.174113
40.720756
39.556444
37.633316
35.030378
31.910345
28.466207
24.882976
21.319255
17.918234
14.811028
12.081332
9.735313
7.728837
6.013028
4.560965
3.366109
2.403945
1.619065
0.994976
0.603538
0.519739
0.715786
1.054253
1.344989
1.441793
1.291074
0.848730
0.013222
-1.280462
-2.950099
-4.792415
-6.571617
-8.105728
-9.300202
-10.075553
-10.304149
-9.864025
-8.715369
-6.911366
-4.580158
-1.907074
0.880143
3.530837
5.789893
7.407400
8.148297
7.818380
6.308495
3.659813
0.104704
-3.987777
-8.206107
-12.199767
-15.756595
-18.799753
-21.340923
-23.399014
-24.947990
-25.961966
-26.471347
-26.554603
-26.309171
-25.844608
-25.294875
-24.835810
-24.670957
-24.945741
-25.682231
-26.833202
-28.352166
-30.183096
-32.221845
-34.304956
-36.232603
-37.836613
-39.035978
-39.821313
-40.221495
