EVENT_NAME: None
EVENT_ID: INT-20230206_0000222
EVENT_DATE_YYYYMMDD: 20230206
EVENT_TIME_HHMMSS: 102449
EVENT_LATITUDE_DEGREE: 38.1100
EVENT_LONGITUDE_DEGREE: 37.2400
EVENT_DEPTH_KM: 10.0
HYPOCENTER_REFERENCE: EMSC-CSEM
MAGNITUDE_W: 7.5
MAGNITUDE_W_REFERENCE: EMSC-CSEM
MAGNITUDE_L: 
MAGNITUDE_L_REFERENCE: 
FOCAL_MECHANISM: Strike-slip faulting
NETWORK: TK
STATION_CODE: 4612
STATION_NAME: Goksun Kahramanmaras
STATION_LATITUDE_DEGREE: 38.023950
STATION_LONGITUDE_DEGREE: 36.481870
STATION_ELEVATION_M: 1340
LOCATION: 
SENSOR_DEPTH_M: 0.0
VS30_M/S: 
SITE_CLASSIFICATION_EC8: C (inferred from topography)
MORPHOLOGIC_CLASSIFICATION: 
EPICENTRAL_DISTANCE_KM: 67.2
EARTHQUAKE_BACKAZIMUTH_DEGREE: 81.6
DATE_TIME_FIRST_SAMPLE_YYYYMMDD_HHMMSS: 
DATE_TIME_FIRST_SAMPLE_PRECISION: 
SAMPLING_INTERVAL_S: 
NDATA: 105
DURATION_S: 
STREAM: HNZ
UNITS: cm/s^2
INSTRUMENT: HN
INSTRUMENT_ANALOG/DIGITAL: D
INSTRUMENTAL_FREQUENCY_HZ: 
INSTRUMENTAL_DAMPING: 
FULL_SCALE_G: 
N_BIT_DIGITAL_CONVERTER: 
PGA_CM/S^2: 440.787473
TIME_PGA_S: 
BASELINE_CORRECTION: BASELINE REMOVED
FILTER_TYPE: BUTTERWORTH
FILTER_ORDER: 2
LOW_CUT_FREQUENCY_HZ: 0.020
HIGH_CUT_FREQUENCY_HZ: 40.000
LATE/NORMAL_TRIGGERED: NT
DATABASE_VERSION: 0.5
HEADER_FORMAT: DYNA 1.2
DATA_TYPE: ACCELERATION RESPONSE SPECTRUM
PROCESSING: manual (Paolucci et al., 2011)
DATA_TIMESTAMP_YYYYMMDD_HHMMSS: 20251106_223022.828
DATA_LICENSE: D (network default license)
DATA_CITATION: Luzi L., Lanzano G., Felicetta C., D Amico M. C., Russo E., Sgobba S., Pacor, F., & ORFEUS Working Group 5 (2020). Engineering Strong Motion Database (ESM) (Version 2.0). Istituto Nazionale di Geofisica e Vulcanologia (INGV). https://doi.org/10.13127/ESM.2
DATA_CREATOR: ESM working group
ORIGINAL_DATA_MEDIATOR_CITATION: afad
ORIGINAL_DATA_MEDIATOR: afad
ORIGINAL_DATA_CREATOR_CITATION: Disaster And Emergency Management Authority. (1973). Turkish National Strong Motion Network. Department of Earthquake, Disaster and Emergency Management Authority. https://doi.org/10.7914/SN/TK http://www.fdsn.org/networks/detail/TK/
ORIGINAL_DATA_CREATOR: network: TK (Turkish National Strong Motion Network (TNSMN)); owner: Disaster and Emergency Management Authority (AFAD)
USER1: 
USER2: 
USER3: 
USER4: 
USER5: 
    0.010000   455.565887
    0.020000   530.189392
    0.022000   555.512451
    0.025000   658.117676
    0.029000  1021.570923
    0.030000  1170.173950
    0.032000  1404.989380
    0.035000  1409.320801
    0.036000  1380.813477
    0.040000  1167.494019
    0.042000  1172.591187
    0.044000   908.725586
    0.045000   953.797485
    0.046000  1092.873779
    0.048000  1262.090454
    0.050000  1253.381714
    0.055000  1318.982910
    0.060000  1135.773193
    0.065000  1305.681641
    0.067000  1221.943604
    0.070000  1146.327759
    0.075000  1214.850708
    0.080000   994.287598
    0.085000   808.515869
    0.090000   764.798340
    0.095000   775.263855
    0.100000   826.751282
    0.110000  1041.969971
    0.120000   857.449402
    0.130000   715.894897
    0.133000   738.492188
    0.140000   813.008545
    0.150000   880.052307
    0.160000   943.070862
    0.170000   880.361755
    0.180000   762.785156
    0.190000   876.764038
    0.200000   876.421509
    0.220000   628.355530
    0.240000   601.996460
    0.250000   587.113953
    0.260000   539.475952
    0.280000   751.239014
    0.290000   857.980164
    0.300000   830.400757
    0.320000   722.571899
    0.340000   851.992371
    0.350000   866.646545
    0.360000   805.274780
    0.380000   692.554626
    0.400000   624.344177
    0.420000   559.459473
    0.440000   494.249390
    0.450000   465.911407
    0.460000   437.727264
    0.480000   358.111053
    0.500000   283.345184
    0.550000   263.321045
    0.600000   253.424881
    0.650000   231.546570
    0.667000   221.716980
    0.700000   229.862076
    0.750000   255.371521
    0.800000   290.888428
    0.850000   333.099335
    0.900000   338.335938
    0.950000   323.253967
    1.000000   316.147705
    1.100000   289.466278
    1.200000   272.707367
    1.300000   274.201416
    1.400000   260.220062
    1.500000   248.304626
    1.600000   239.156982
    1.700000   232.200241
    1.800000   228.438034
    1.900000   227.581528
    2.000000   226.091095
    2.200000   228.752396
    2.400000   237.953796
    2.500000   236.748337
    2.600000   234.165573
    2.800000   225.482040
    3.000000   213.125107
    3.200000   203.037216
    3.400000   189.617813
    3.500000   182.008102
    3.600000   174.490280
    3.800000   157.758911
    4.000000   142.234161
    4.200000   127.825142
    4.400000   114.655029
    4.600000   102.810905
    4.800000    93.806221
    5.000000    86.750565
    5.500000    72.133629
    6.000000    60.207474
    6.500000    50.333324
    7.000000    42.045174
    7.500000    34.811691
    8.000000    28.821226
    8.500000    24.243473
    9.000000    20.939737
    9.500000    19.351143
   10.000000    17.899790
