EVENT_NAME: None
EVENT_ID: INT-20230206_0000222
EVENT_DATE_YYYYMMDD: 20230206
EVENT_TIME_HHMMSS: 102449
EVENT_LATITUDE_DEGREE: 38.1100
EVENT_LONGITUDE_DEGREE: 37.2400
EVENT_DEPTH_KM: 10.0
HYPOCENTER_REFERENCE: EMSC-CSEM
MAGNITUDE_W: 7.5
MAGNITUDE_W_REFERENCE: EMSC-CSEM
MAGNITUDE_L: 
MAGNITUDE_L_REFERENCE: 
FOCAL_MECHANISM: Strike-slip faulting
NETWORK: TK
STATION_CODE: 4409
STATION_NAME: None
STATION_LATITUDE_DEGREE: 38.560630
STATION_LONGITUDE_DEGREE: 37.490760
STATION_ELEVATION_M: 1055
LOCATION: 
SENSOR_DEPTH_M: 0.0
VS30_M/S: 
SITE_CLASSIFICATION_EC8: B (inferred from topography)
MORPHOLOGIC_CLASSIFICATION: 
EPICENTRAL_DISTANCE_KM: 54.6
EARTHQUAKE_BACKAZIMUTH_DEGREE: 203.7
DATE_TIME_FIRST_SAMPLE_YYYYMMDD_HHMMSS: 
DATE_TIME_FIRST_SAMPLE_PRECISION: 
SAMPLING_INTERVAL_S: 
NDATA: 105
DURATION_S: 
STREAM: HNE
UNITS: cm/s^2
INSTRUMENT: HN
INSTRUMENT_ANALOG/DIGITAL: D
INSTRUMENTAL_FREQUENCY_HZ: 
INSTRUMENTAL_DAMPING: 
FULL_SCALE_G: 
N_BIT_DIGITAL_CONVERTER: 
PGA_CM/S^2: -193.743366
TIME_PGA_S: 
BASELINE_CORRECTION: BASELINE REMOVED
FILTER_TYPE: BUTTERWORTH
FILTER_ORDER: 2
LOW_CUT_FREQUENCY_HZ: 0.030
HIGH_CUT_FREQUENCY_HZ: 40.000
LATE/NORMAL_TRIGGERED: NT
DATABASE_VERSION: 0.5
HEADER_FORMAT: DYNA 1.2
DATA_TYPE: ACCELERATION RESPONSE SPECTRUM
PROCESSING: manual (Paolucci et al., 2011)
DATA_TIMESTAMP_YYYYMMDD_HHMMSS: 20251106_223020.184
DATA_LICENSE: D (network default license)
DATA_CITATION: Luzi L., Lanzano G., Felicetta C., D Amico M. C., Russo E., Sgobba S., Pacor, F., & ORFEUS Working Group 5 (2020). Engineering Strong Motion Database (ESM) (Version 2.0). Istituto Nazionale di Geofisica e Vulcanologia (INGV). https://doi.org/10.13127/ESM.2
DATA_CREATOR: ESM working group
ORIGINAL_DATA_MEDIATOR_CITATION: afad
ORIGINAL_DATA_MEDIATOR: afad
ORIGINAL_DATA_CREATOR_CITATION: Disaster And Emergency Management Authority. (1973). Turkish National Strong Motion Network. Department of Earthquake, Disaster and Emergency Management Authority. https://doi.org/10.7914/SN/TK http://www.fdsn.org/networks/detail/TK/
ORIGINAL_DATA_CREATOR: network: TK (Turkish National Strong Motion Network (TNSMN)); owner: Disaster and Emergency Management Authority (AFAD)
USER1: 
USER2: 
USER3: 
USER4: 
USER5: 
    0.010000   202.628708
    0.020000   230.446594
    0.022000   240.905212
    0.025000   266.374207
    0.029000   462.467346
    0.030000   506.369049
    0.032000   555.699463
    0.035000   571.831543
    0.036000   514.927185
    0.040000   547.056519
    0.042000   606.130615
    0.044000   645.109375
    0.045000   614.291748
    0.046000   565.715881
    0.048000   485.112152
    0.050000   527.021423
    0.055000   728.931885
    0.060000   725.576721
    0.065000   513.012939
    0.067000   424.850403
    0.070000   320.291199
    0.075000   286.387451
    0.080000   320.054657
    0.085000   309.808746
    0.090000   259.729980
    0.095000   248.407654
    0.100000   226.159378
    0.110000   199.330688
    0.120000   157.077057
    0.130000   165.737915
    0.133000   161.393829
    0.140000   152.588699
    0.150000   162.756027
    0.160000   187.697922
    0.170000   186.909729
    0.180000   161.842331
    0.190000   136.855392
    0.200000   149.420074
    0.220000   139.781876
    0.240000   149.524078
    0.250000   145.540726
    0.260000   156.546021
    0.280000   199.309555
    0.290000   216.361526
    0.300000   211.814117
    0.320000   152.414551
    0.340000   146.491714
    0.350000   143.567200
    0.360000   138.106873
    0.380000   129.440262
    0.400000   138.578751
    0.420000   121.534393
    0.440000   122.046532
    0.450000   126.028297
    0.460000   135.282837
    0.480000   145.895035
    0.500000   146.144730
    0.550000   127.406395
    0.600000   106.987419
    0.650000    94.824120
    0.667000    81.288597
    0.700000    78.492065
    0.750000    83.925568
    0.800000    90.967651
    0.850000    79.631569
    0.900000    73.653206
    0.950000    79.531509
    1.000000    80.198563
    1.100000    88.011093
    1.200000    87.138069
    1.300000    75.314201
    1.400000    80.634796
    1.500000   106.473564
    1.600000   123.163719
    1.700000   124.737930
    1.800000   117.708084
    1.900000   104.784592
    2.000000    90.567566
    2.200000    82.709740
    2.400000    60.290367
    2.500000    51.235458
    2.600000    49.843929
    2.800000    55.823963
    3.000000    53.509083
    3.200000    56.709858
    3.400000    52.381893
    3.500000    48.397793
    3.600000    44.698734
    3.800000    45.961781
    4.000000    45.318504
    4.200000    42.985977
    4.400000    39.767498
    4.600000    37.095665
    4.800000    35.858555
    5.000000    36.383343
    5.500000    36.980034
    6.000000    34.354485
    6.500000    30.697994
    7.000000    24.299124
    7.500000    18.254791
    8.000000    12.913706
    8.500000    10.277328
    9.000000     9.376146
    9.500000     8.380146
   10.000000     9.375414
