EVENT_NAME: None
EVENT_ID: INT-20230206_0000222
EVENT_DATE_YYYYMMDD: 20230206
EVENT_TIME_HHMMSS: 102449
EVENT_LATITUDE_DEGREE: 38.1100
EVENT_LONGITUDE_DEGREE: 37.2400
EVENT_DEPTH_KM: 10.0
HYPOCENTER_REFERENCE: EMSC-CSEM
MAGNITUDE_W: 7.5
MAGNITUDE_W_REFERENCE: EMSC-CSEM
MAGNITUDE_L: 
MAGNITUDE_L_REFERENCE: 
FOCAL_MECHANISM: Strike-slip faulting
NETWORK: TK
STATION_CODE: 4617
STATION_NAME: None
STATION_LATITUDE_DEGREE: 37.585510
STATION_LONGITUDE_DEGREE: 36.830300
STATION_ELEVATION_M: 544
LOCATION: 
SENSOR_DEPTH_M: 0.0
VS30_M/S: 
SITE_CLASSIFICATION_EC8: B (inferred from topography)
MORPHOLOGIC_CLASSIFICATION: 
EPICENTRAL_DISTANCE_KM: 68.5
EARTHQUAKE_BACKAZIMUTH_DEGREE: 31.6
DATE_TIME_FIRST_SAMPLE_YYYYMMDD_HHMMSS: 20230206_102433.522
DATE_TIME_FIRST_SAMPLE_PRECISION: milliseconds
SAMPLING_INTERVAL_S: 0.005000
NDATA: 21000
DURATION_S: 105.000
STREAM: HNN
UNITS: cm/s^2
INSTRUMENT: HN
INSTRUMENT_ANALOG/DIGITAL: D
INSTRUMENTAL_FREQUENCY_HZ: 
INSTRUMENTAL_DAMPING: 
FULL_SCALE_G: 
N_BIT_DIGITAL_CONVERTER: 
PGA_CM/S^2: -56.078476
TIME_PGA_S: 47.265000
BASELINE_CORRECTION: BASELINE REMOVED
FILTER_TYPE: BUTTERWORTH
FILTER_ORDER: 2
LOW_CUT_FREQUENCY_HZ: 0.020
HIGH_CUT_FREQUENCY_HZ: 40.000
LATE/NORMAL_TRIGGERED: NT
DATABASE_VERSION: 0.5
HEADER_FORMAT: DYNA 1.2
DATA_TYPE: ACCELERATION
PROCESSING: manual (Paolucci et al., 2011)
DATA_TIMESTAMP_YYYYMMDD_HHMMSS: 20251106_223023.190
DATA_LICENSE: D (network default license)
DATA_CITATION: Luzi L., Lanzano G., Felicetta C., D Amico M. C., Russo E., Sgobba S., Pacor, F., & ORFEUS Working Group 5 (2020). Engineering Strong Motion Database (ESM) (Version 2.0). Istituto Nazionale di Geofisica e Vulcanologia (INGV). https://doi.org/10.13127/ESM.2
DATA_CREATOR: ESM working group
ORIGINAL_DATA_MEDIATOR_CITATION: afad
ORIGINAL_DATA_MEDIATOR: afad
ORIGINAL_DATA_CREATOR_CITATION: Disaster And Emergency Management Authority. (1973). Turkish National Strong Motion Network. Department of Earthquake, Disaster and Emergency Management Authority. https://doi.org/10.7914/SN/TK http://www.fdsn.org/networks/detail/TK/
ORIGINAL_DATA_CREATOR: network: TK (Turkish National Strong Motion Network (TNSMN)); owner: Disaster and Emergency Management Authority (AFAD)
USER1: 
USER2: 
USER3: 
USER4: 
USER5: 
[...]
14.076574
13.321213
12.753599
12.533445
12.817063
13.632612
14.787555
15.951399
16.815439
17.252457
17.378217
17.379358
17.325543
17.163087
16.783607
16.091297
15.042951
13.650386
11.983455
10.186041
8.460388
6.958910
5.685663
4.528557
3.351510
2.097485
0.842152
-0.284103
-1.210726
-1.995769
-2.819922
-3.848125
-5.100372
-6.479068
-7.870359
-9.251097
-10.709157
-12.275699
-13.791055
-15.040107
-15.956779
-16.694273
-17.552851
-18.727317
-20.129239
-21.551673
-22.894452
-24.188207
-25.499499
-26.784246
-27.822212
-28.373329
-28.351067
-27.816591
-26.885829
-25.620627
-23.984350
-21.953253
-19.644240
-17.317025
-15.281642
-13.711895
-12.513898
-11.422135
-10.161100
-8.553798
-6.575635
-4.336708
-2.044319
0.049382
1.721706
2.886241
3.655293
4.244684
4.840259
5.525005
6.261204
6.949946
7.510668
7.940733
8.329546
8.777570
9.307973
9.855189
10.301894
10.552343
10.578427
10.380527
9.953143
9.335507
8.660328
8.099254
7.773484
7.694364
7.749246
7.765641
7.583187
7.084851
6.220745
5.044656
3.723737
2.455533
1.372753
0.520351
-0.113035
-0.510523
-0.572779
-0.185551
0.685432
1.951134
3.391787
4.693453
5.512435
5.586050
4.844487
3.453948
1.775017
0.167371
-1.200359
-2.367301
-3.498441
-4.729307
-6.049625
-7.347388
-8.514308
-9.539459
-10.531499
-11.583610
-12.623445
-13.397881
-13.568184
-12.933088
-11.597983
-9.885542
-8.163940
-6.724302
-5.733341
-5.292860
-5.483248
-6.291878
-7.543648
-8.965811
-10.299324
-11.374231
-12.125957
-12.514171
-12.448084
-11.816714
-10.556595
-8.701970
-6.401482
-3.871266
-1.328401
1.068625
3.255924
5.243021
7.068126
8.745176
10.227839
11.427219
12.253950
12.661873
12.653182
12.198624
11.176042
9.447627
6.987074
3.973532
0.806195
-2.040315
-4.169152
-5.306136
-5.328714
-4.345398
-2.731499
-0.972821
0.532371
1.563634
2.065126
2.008891
1.314879
-0.004354
-1.707058
-3.436079
-4.898655
-5.938668
-6.527446
-6.686793
-6.438456
-5.850814
-5.074958
-4.261661
-3.466065
-2.655643
-1.766628
-0.768235
0.300719
1.363554
2.357230
3.264512
4.110696
4.906274
5.616470
6.242158
6.904344
7.803035
9.095611
10.732756
12.393996
13.711868
14.535261
14.987744
15.380227
15.975605
16.790384
17.624726
18.197909
18.327056
18.050367
17.577886
17.177974
17.059043
17.292164
17.831145
18.561262
19.343531
20.056353
20.635923
21.090803
21.441786
21.647806
21.585937
21.094431
20.111555
18.788873
17.431980
16.358101
15.722845
15.411677
15.130284
14.569511
13.563957
12.173614
10.578529
8.923944
7.231062
5.407874
3.422963
1.445247
-0.260033
-1.513416
-2.330544
-2.915206
-3.465707
-4.014547
-4.511365
-4.950302
-5.360118
-5.734041
-5.985648
-5.970484
-5.611094
-4.980392
-4.194923
-3.296319
-2.291555
-1.234872
-0.229172
0.633764
1.366976
2.115123
3.002180
3.991124
4.953954
5.807297
6.578767
7.386779
8.301873
9.237411
10.025110
10.550761
10.846158
11.109325
11.593107
12.467445
13.739542
15.237100
16.699405
17.890925
18.677768
19.065801
19.173222
19.178676
19.255742
19.513675
19.971111
20.560329
21.182354
21.761668
22.255488
22.646942
22.943331
23.180239
23.419132
23.722893
24.093502
24.436116
24.631377
24.630454
24.488114
24.337489
24.290081
24.353813
24.466248
24.569095
24.666921
24.844594
25.199436
25.751219
26.389998
26.890888
27.053902
26.832326
26.301035
25.547632
24.546474
23.107050
21.013795
18.191058
14.746816
10.949793
7.154909
3.712589
0.870798
-1.292467
-2.835388
-3.872544
-4.481885
-4.659143
-4.393860
-3.751658
-2.858708
-1.855131
-0.872123
-0.021932
0.618251
1.028329
1.258876
1.416393
1.594160
1.824777
2.136651
2.620549
3.408785
4.609817
6.233911
8.158528
10.194068
12.162285
13.919089
15.362615
16.457473
17.245752
17.793258
18.120369
18.171216
17.828671
17.001579
15.702334
14.034256
12.150418
10.220985
8.396822
6.751286
5.242750
3.771017
2.275912
0.828499
-0.355815
-1.089838
-1.396813
-1.515448
-1.788180
-2.445592
-3.446809
-4.555921
-5.497949
-6.084848
-6.273807
-6.105544
-5.630273
-4.899350
-3.975815
-2.923982
-1.799047
-0.665168
0.388467
1.273149
1.943526
2.429335
2.829473
3.229543
3.629730
3.967223
4.155015
4.080346
3.616862
2.723965
1.553111
0.447329
-0.158982
0.024730
0.954870
2.319851
3.710858
4.809945
5.524230
5.968964
6.367051
6.874344
7.451020
7.928758
8.159851
8.164653
8.180134
8.475637
9.150198
10.111343
11.147437
12.042893
12.657414
12.911862
12.781978
12.380307
12.015204
12.073311
12.832132
14.298528
16.149062
17.905599
19.159688
19.699504
19.553524
18.907545
17.966101
16.790329
15.213351
12.991183
10.023136
6.495944
2.893275
-0.253878
-2.636524
-4.236828
-5.277578
-6.061498
-6.807805
-7.574516
-8.261948
-8.744028
-8.997741
-9.101573
-9.156597
-9.159722
-8.938583
-8.277857
-7.077334
-5.398922
-3.442867
-1.460570
0.334019
1.816213
2.983320
3.956286
4.941198
6.107854
7.470684
8.875786
10.066353
10.839528
11.177042
11.215927
11.143490
11.063824
10.919334
10.573555
9.939942
9.067994
8.166672
7.511895
7.325892
7.692371
8.522287
9.619853
10.780646
11.877531
12.902488
13.903624
14.890256
15.764677
16.312944
16.320767
15.710162
14.601015
13.301995
12.190178
11.572634
11.597510
12.204329
13.144880
14.058071
14.626939
14.717803
14.380352
13.772343
13.030031
12.171923
11.130757
9.828084
8.238269
6.429438
4.557166
2.823156
1.383763
0.271449
-0.595602
-1.360519
-2.147315
-2.992121
-3.832792
-4.541704
-5.019423
-5.287015
-5.501263
-5.898257
-6.639908
-7.698107
-8.929938
-10.211078
-11.521608
-12.969125
-14.709572
-16.847218
-19.366846
-22.095248
-24.723342
-26.882864
-28.304157
-28.937309
-28.890801
-28.306340
-27.259124
-25.722735
-23.657682
-21.112888
-18.251388
-15.341848
-12.724917
-10.743683
-9.597635
-9.216551
-9.294400
-9.428157
-9.350628
-9.087836
-8.832662
-8.737593
-8.791936
-8.809658
-8.592376
-8.096225
-7.444174
-6.851021
-6.484110
-6.349700
-6.305798
-6.148909
-5.763549
-5.230095
-4.764058
-4.592381
-4.837100
-5.454335
-6.294135
-7.181078
-7.947767
-8.455035
-8.631080
-8.505886
-8.192821
-7.835220
-7.526318
-7.264350
-7.016178
-6.789886
-6.619295
-6.505562
-6.365497
-6.044374
-5.465994
-4.763981
-4.215424
-4.086263
-4.470285
-5.215482
-6.065599
-6.837714
-7.485054
-8.083241
-8.748004
-9.562054
-10.565768
-11.758755
-13.078547
-14.397200
-15.601204
-16.689644
-17.808344
-19.200378
-21.027027
-23.234928
-25.663483
-28.209068
-30.873100
-33.703755
-36.627338
-39.349044
-41.516551
-42.918093
-43.502528
-43.314638
-42.422254
-40.896540
-38.890599
-36.687545
-34.579312
-32.715236
-31.063214
-29.454724
-27.720991
-25.816642
-23.832617
-21.955971
-20.393223
-19.292213
-18.688009
-18.482738
-18.503391
-18.588000
-18.665849
-18.796320
-19.104351
-19.688583
-20.557762
-21.602552
-22.633251
-23.445110
-23.893202
-23.936775
-23.599330
-22.915350
-21.927196
-20.715509
-19.442555
-18.350372
-17.642752
-17.371367
-17.447751
-17.697412
-17.901558
-17.838360
-17.355806
-16.448554
-15.288207
-14.196090
-13.513077
-13.472380
-14.169388
-15.557884
-17.437466
-19.479107
-21.371238
-22.963096
-24.262893
-25.358529
-26.299064
-27.026876
-27.455082
-27.558013
-27.361046
-26.902316
-26.228816
-25.398463
-24.450757
-23.376491
-22.133233
-20.692901
-19.113135
-17.574211
-16.302266
-15.463906
-15.107330
-15.157594
-15.498530
-16.059236
-16.829512
-17.828918
-19.035435
-20.335915
-21.567783
-22.591315
-23.351217
-23.915033
-24.459525
-25.223872
-26.420805
-28.157465
-30.421100
-33.091010
-35.962647
-38.778421
-41.279947
-43.269741
-44.658773
-45.467114
-45.727347
-45.408131
-44.478391
-42.995469
-41.096464
-38.924733
-36.516275
-33.741813
-30.423237
-26.484174
-22.009542
-17.233173
-12.438809
-7.857219
-3.629837
0.177875
3.510378
6.281140
8.436836
10.039021
11.276339
12.427375
13.777716
15.555232
17.933823
21.028559
24.813332
29.051569
33.358280
37.314067
40.571562
42.916703
44.238167
44.491036
43.716267
42.058552
39.716460
36.881160
33.725870
30.427068
27.195511
24.265005
21.775114
19.658182
17.660894
15.446583
12.762036
9.565373
6.002984
2.343934
-1.066400
-3.856338
-5.729542
-6.575604
-6.515018
-5.855379
-4.896072
-3.766018
-2.491900
-1.135342
0.143339
1.113275
1.625669
1.731340
1.598649
1.380228
1.160139
0.973992
0.906736
1.161152
1.980925
3.523395
5.762607
8.463343
11.300284
13.997870
16.382840
18.372128
19.897395
20.856179
21.175615
20.892357
20.150173
19.142177
18.014005
16.808725
15.542643
14.293586
13.187204
12.331985
11.749358
11.357436
11.076277
10.926137
10.987664
11.313252
11.866159
12.510654
13.085977
13.475261
13.594154
13.366552
12.748682
11.763382
10.497587
9.077678
7.633633
6.277388
5.115155
4.248141
3.720256
3.478116
3.415521
3.426688
3.396751
3.176369
2.600818
1.554193
0.074382
-1.604158
-3.200046
-4.549261
-5.609777
-6.390295
-6.862152
-6.913290
-6.409225
-5.281324
-3.582512
-1.505277
0.674509
2.696015
4.433404
5.940918
7.292075
8.409154
9.087775
9.130091
8.523946
7.524770
6.466315
5.537514
4.741997
3.958291
3.053159
1.957619
0.632209
-0.974789
-2.887810
-5.051329
-7.342444
-9.618780
-11.775752
-13.773578
-15.590857
-17.179464
-18.486955
-19.487882
-20.165896
-20.482266
-20.374335
-19.782833
-18.710873
-17.262519
-15.602295
-13.901276
-12.318979
-10.988485
-9.969510
-9.203934
-8.529939
-7.738008
-6.670457
-5.298101
-3.694556
-1.972972
-0.224611
1.521353
3.284960
5.088208
6.871308
8.433972
9.488164
9.764304
9.135643
7.689827
5.647916
3.243300
0.649345
-2.033985
-4.706325
-7.199635
-9.305451
-10.838650
-11.690248
-11.843643
-11.324989
-10.162823
-8.424545
-6.258734
-3.865609
-1.434528
0.914313
3.149004
5.263506
7.223422
9.007498
10.671268
12.351865
14.215144
16.335615
18.615455
20.867688
22.941737
24.784130
26.430372
27.908817
29.169751
30.142929
30.804190
31.141607
31.105308
30.637795
29.748209
28.588156
27.465872
26.708690
26.512441
26.908758
27.796161
29.017535
30.439089
31.990011
33.645256
35.310719
36.738613
37.626229
37.784126
37.268931
36.403915
35.567637
34.982428
34.723455
34.815315
35.312630
36.317983
37.888426
39.942487
42.275532
44.627984
46.775067
48.592559
50.043900
51.129487
51.820269
52.029094
51.685628
50.821014
49.560583
48.046505
46.299243
44.143488
41.352617
37.831869
33.672320
29.109901
24.393441
19.686172
15.107942
10.784110
6.788038
3.087572
-0.373769
-3.562327
-6.323149
-8.436233
-9.784451
-10.470917
-10.709285
-10.669177
-10.436785
-10.042343
-9.522419
-8.964673
-8.494085
-8.243725
-8.337083
-8.874511
-9.910435
-11.426543
-13.316534
-15.396065
-17.476425
-19.461168
-21.413862
-23.541747
-25.996481
-28.677927
-31.246709
-33.260926
-34.407038
-34.667258
-34.241539
-33.384627
-32.270215
-30.934915
-29.378508
-27.684615
-26.039649
-24.672769
-23.717172
-23.117486
-22.717677
-22.381691
-22.017009
-21.544312
-20.851490
-19.783494
-18.220050
-16.155386
-13.698407
-11.043741
-8.442407
-6.164614
-4.430002
-3.339793
-2.859535
-2.838908
-3.086425
-3.458117
-3.918702
-4.543595
-5.397943
-6.416479
-7.415982
-8.183761
-8.609823
-8.760567
-8.777842
-8.757020
-8.729016
-8.667091
-8.452780
-7.856557
-6.629579
-4.640808
-1.989415
0.974548
3.834275
6.303940
8.267370
9.746670
10.852330
11.738806
12.564454
13.456770
14.495882
15.711765
17.097062
18.608815
20.137232
21.488047
22.435183
22.787224
22.424154
21.329331
19.626930
17.579463
15.464841
13.437887
11.500522
9.578427
7.726721
6.249458
5.480472
5.500943
6.062203
6.672675
6.867388
6.432309
5.364567
3.755351
1.730998
-0.562138
-2.953001
-5.250228
-7.267565
-8.841355
-9.818222
-10.061313
-9.528674
-8.343855
-6.754950
-5.032642
-3.341931
-1.676054
0.035111
1.793880
3.516792
5.076851
6.366664
7.326111
7.888580
7.943067
7.408465
6.317811
4.799240
3.001550
1.005005
-1.212392
-3.667332
-6.255197
-8.760960
-10.943666
-12.660530
-13.934309
-14.854674
-15.460648
-15.744107
-15.721908
-15.530564
-15.452655
-15.762318
-16.553882
-17.717474
-19.007334
-20.190759
-21.171960
-21.980275
-22.691826
-23.319592
-23.750027
-23.822375
-23.446434
-22.670886
-21.685171
-20.714149
-19.919105
-19.404572
-19.250438
-19.504762
-20.168892
-21.218963
-22.641760
-24.452686
-26.676981
-29.270780
-32.071697
-34.880451
-37.562091
-40.057108
-42.337879
-44.337101
-45.917701
-46.961871
-47.471866
-47.573952
-47.460674
-47.286046
-47.093704
-46.866640
-46.609115
-46.380933
-46.272668
-46.299208
-46.323046
-46.131113
-45.554498
-44.533431
-43.118385
-41.384358
-39.365611
-37.109446
-34.744028
-32.456902
-30.435963
-28.819131
-27.672955
-27.020946
-26.867855
-27.176458
-27.844721
-28.736616
-29.728644
-30.735864
-31.718318
-32.660867
-33.548495
-34.352123
-35.024854
-35.513583
-35.771053
-35.765871
-35.509512
-35.119809
-34.859922
-35.058090
-35.970598
-37.640720
-39.844444
-42.257383
-44.648572
-46.925517
-49.094859
-51.166131
-53.070230
-54.654106
-55.715233
-56.078476
-55.687466
-54.675648
-53.360260
-52.055532
-50.879254
-49.737612
-48.421063
-46.792216
-44.924762
-43.038396
-41.363281
-40.028576
-39.016044
-38.238778
-37.637010
-37.199385
-36.930846
-36.776519
-36.580889
-36.166039
-35.421252
-34.299968
-32.773069
-30.783794
-28.247612
-25.146557
-21.614552
-17.901712
-14.287659
-10.990070
-8.103856
-5.617214
-3.457839
-1.550985
0.133558
1.571940
2.698221
3.444490
3.789130
3.797019
3.634734
3.520742
3.652245
4.136641
4.951402
5.970593
7.005022
7.829444
8.220704
8.041466
7.318452
6.236401
5.066767
4.019126
3.124639
2.278767
1.342213
0.229732
-1.049971
-2.450985
-3.957439
-5.590013
-7.381605
-9.339922
-11.417786
-13.513601
-15.494941
-17.254195
-18.758294
-20.045813
-21.189816
-22.226901
-23.102206
-23.690006
-23.847227
-23.480549
-22.601654
-21.335490
-19.891319
-18.478596
-17.227153
-16.176220
-15.305762
-14.606574
-14.135342
-13.996670
-14.295589
-15.084225
-16.322549
-17.878356
-19.547770
-21.101492
-22.340459
-23.149121
-23.524345
-23.537764
-23.279066
-22.817212
-22.190467
-21.444364
-20.664694
-19.954906
-19.397161
-19.026495
-18.811916
-18.642890
-18.332312
-17.670809
-16.503390
-14.799106
-12.670361
-10.275388
-7.720630
-5.074926
-2.423213
0.104134
2.341480
4.154393
5.490834
6.351575
6.757369
6.777655
6.550550
6.210697
5.803374
5.275445
4.522773
3.490467
2.241141
0.897152
-0.446977
-1.763166
-3.091554
-4.499985
-6.028585
-7.637632
-9.193709
-10.548389
-11.618827
-12.382924
-12.840906
-12.988654
-12.824067
-12.402807
-11.867603
-11.367348
-10.964336
-10.628592
-10.277550
-9.842288
-9.330326
-8.855635
-8.629691
-8.873331
-9.712680
-11.120688
-12.917257
-14.866417
-16.760207
-18.395158
-19.546511
-20.048244
-19.896413
-19.268269
-18.452688
-17.665858
-16.926231
-16.178874
-15.457237
-14.880431
-14.558613
-14.470477
-14.419805
-14.189676
-13.697746
-12.965344
-12.026860
-10.889279
-9.541357
-8.010377
-6.401693
-4.858637
-3.503707
-2.409688
-1.588070
-0.990256
-0.520256
-0.069817
0.453135
1.128746
2.024161
3.152155
4.437933
5.756296
6.992996
8.087152
9.036477
9.839053
10.447832
10.813119
10.941342
10.899350
10.784013
10.667283
10.554595
10.398280
10.134419
9.727191
9.200295
8.632616
8.143970
7.878694
7.976001
8.510306
9.448164
10.688157
12.133923
13.757378
15.611866
17.736399
20.058989
22.405122
24.553204
26.304538
27.542699
28.257983
28.542373
28.533886
28.355180
28.089303
27.789018
27.526621
27.423582
27.595560
28.085202
28.849713
29.774390
30.695532
31.424723
31.785978
31.668898
31.095962
30.253411
29.405398
28.778831
28.493989
28.547090
28.874452
29.422115
30.154704
31.026645
31.927470
32.651681
32.958282
32.664732
31.726626
30.256722
28.410892
26.270645
23.852090
21.181069
18.387893
15.738328
13.497883
11.779845
10.526726
9.577632
8.806489
8.222534
7.913386
7.933009
8.212913
8.538510
8.660876
8.431271
7.859077
7.101006
6.353155
5.739992
5.287475
4.953718
4.719209
4.659343
4.911247
5.584848
6.647749
7.864376
8.899995
9.468361
9.423504
8.781845
7.634248
6.057555
4.115229
1.883557
-0.547886
-3.085265
-5.623568
-8.030415
-10.142999
-11.804749
-12.977695
-13.826352
-14.641137
-15.701367
-17.151652
-18.937015
-20.869007
-22.726201
-24.329240
-25.589281
-26.511919
-27.168070
-27.617965
-27.853297
-27.833109
-27.549548
-27.066465
-26.511021
-25.986561
-25.498240
-24.982892
-24.367133
-23.593618
-22.628876
-21.467407
-20.137667
-18.701685
-17.238897
-15.802639
-14.393135
-12.995420
-11.618879
-10.278973
-8.968832
-7.670150
-6.381557
-5.135862
-3.986221
-2.939286
-1.912072
-0.798917
0.444122
1.787121
3.157108
4.494981
5.794344
7.080101
8.375445
9.693969
11.040232
12.404676
13.763448
15.098462
16.412451
17.707714
18.953577
20.069311
20.932512
21.434837
21.538104
21.284214
20.779924
20.159543
19.543723
19.006212
18.557087
18.163978
17.781941
17.370472
16.898711
16.340216
15.677193
14.930397
14.178590
13.521623
13.027366
12.701685
12.490443
12.334359
12.219459
12.166887
12.199555
12.313087
12.462779
12.582552
12.612953
12.525645
12.341964
12.135080
12.013804
12.071834
12.337977
12.767989
13.264828
13.729832
14.106316
14.377583
14.548820
14.631540
14.635034
14.568647
14.448360
14.309273
14.223067
14.311204
14.727693
15.571529
16.808218
18.291080
19.825125
21.236154
22.412756
23.295854
23.881634
24.283299
24.754129
25.545188
26.741004
28.228450
29.763605
31.137751
32.302322
33.311437
34.224377
35.080168
35.904277
36.707984
37.481481
38.195653
38.812355
39.300759
39.642401
39.810907
39.767637
39.513666
39.127819
38.711398
38.317283
37.943339
37.568032
37.210084
36.950176
36.849408
36.874288
36.938531
36.974436
36.949449
36.838959
36.565598
35.971975
34.905503
33.324009
31.336235
29.190412
27.190766
25.594904
24.528574
23.943523
23.675477
23.528062
23.330671
22.964866
22.348444
21.427713
20.217671
18.836907
17.469690
16.295263
15.416009
14.820658
14.436172
14.200008
14.100117
14.185045
14.533485
15.218324
16.284664
17.730845
19.491471
21.444071
23.479196
25.573559
27.795027
30.255049
33.002342
35.942217
38.877649
41.591528
43.914777
45.764896
47.133247
48.060772
48.622835
48.917795
49.049813
49.108303
49.151698
49.204117
49.278627
49.396167
49.566586
49.757351
49.880978
49.817480
49.498078
48.971853
48.364270
47.797104
47.324540
46.910152
46.482561
45.998823
45.455833
44.874680
44.271048
43.630989
42.912046
42.064773
41.081194
40.033598
39.057052
38.303131
37.878625
37.805443
38.043031
38.519684
