EVENT_NAME: None
EVENT_ID: INT-20230206_0000222
EVENT_DATE_YYYYMMDD: 20230206
EVENT_TIME_HHMMSS: 102449
EVENT_LATITUDE_DEGREE: 38.1100
EVENT_LONGITUDE_DEGREE: 37.2400
EVENT_DEPTH_KM: 10.0
HYPOCENTER_REFERENCE: EMSC-CSEM
MAGNITUDE_W: 7.5
MAGNITUDE_W_REFERENCE: EMSC-CSEM
MAGNITUDE_L: 
MAGNITUDE_L_REFERENCE: 
FOCAL_MECHANISM: Strike-slip faulting
NETWORK: TK
STATION_CODE: 4620
STATION_NAME: None
STATION_LATITUDE_DEGREE: 37.585680
STATION_LONGITUDE_DEGREE: 36.898450
STATION_ELEVATION_M: 698
LOCATION: 
SENSOR_DEPTH_M: 0.0
VS30_M/S: 
SITE_CLASSIFICATION_EC8: B (inferred from topography)
MORPHOLOGIC_CLASSIFICATION: 
EPICENTRAL_DISTANCE_KM: 65.5
EARTHQUAKE_BACKAZIMUTH_DEGREE: 27.2
DATE_TIME_FIRST_SAMPLE_YYYYMMDD_HHMMSS: 
DATE_TIME_FIRST_SAMPLE_PRECISION: 
SAMPLING_INTERVAL_S: 
NDATA: 105
DURATION_S: 
STREAM: HNZ
UNITS: cm/s^2
INSTRUMENT: HN
INSTRUMENT_ANALOG/DIGITAL: D
INSTRUMENTAL_FREQUENCY_HZ: 
INSTRUMENTAL_DAMPING: 
FULL_SCALE_G: 
N_BIT_DIGITAL_CONVERTER: 
PGA_CM/S^2: 56.915390
TIME_PGA_S: 
BASELINE_CORRECTION: BASELINE REMOVED
FILTER_TYPE: BUTTERWORTH
FILTER_ORDER: 2
LOW_CUT_FREQUENCY_HZ: 0.030
HIGH_CUT_FREQUENCY_HZ: 40.000
LATE/NORMAL_TRIGGERED: NT
DATABASE_VERSION: 0.5
HEADER_FORMAT: DYNA 1.2
DATA_TYPE: ACCELERATION RESPONSE SPECTRUM
PROCESSING: manual (Paolucci et al., 2011)
DATA_TIMESTAMP_YYYYMMDD_HHMMSS: 20251106_223025.004
DATA_LICENSE: D (network default license)
DATA_CITATION: Luzi L., Lanzano G., Felicetta C., D Amico M. C., Russo E., Sgobba S., Pacor, F., & ORFEUS Working Group 5 (2020). Engineering Strong Motion Database (ESM) (Version 2.0). Istituto Nazionale di Geofisica e Vulcanologia (INGV). https://doi.org/10.13127/ESM.2
DATA_CREATOR: ESM working group
ORIGINAL_DATA_MEDIATOR_CITATION: afad
ORIGINAL_DATA_MEDIATOR: afad
ORIGINAL_DATA_CREATOR_CITATION: Disaster And Emergency Management Authority. (1973). Turkish National Strong Motion Network. Department of Earthquake, Disaster and Emergency Management Authority. https://doi.org/10.7914/SN/TK http://www.fdsn.org/networks/detail/TK/
ORIGINAL_DATA_CREATOR: network: TK (Turkish National Strong Motion Network (TNSMN)); owner: Disaster and Emergency Management Authority (AFAD)
USER1: 
USER2: 
USER3: 
USER4: 
USER5: 
    0.010000    56.980972
    0.020000    57.191013
    0.022000    57.248661
    0.025000    57.182369
    0.029000    57.309959
    0.030000    57.345623
    0.032000    57.649422
    0.035000    58.403954
    0.036000    58.869446
    0.040000    62.390865
    0.042000    62.041912
    0.044000    60.574753
    0.045000    60.815723
    0.046000    61.942249
    0.048000    65.115013
    0.050000    68.098045
    0.055000    71.402824
    0.060000    75.059456
    0.065000    73.043076
    0.067000    74.976547
    0.070000    72.984001
    0.075000    72.543610
    0.080000    74.621292
    0.085000    70.165932
    0.090000    77.627968
    0.095000    76.449959
    0.100000    76.424156
    0.110000    87.414551
    0.120000   107.664429
    0.130000    93.336029
    0.133000    90.044746
    0.140000    79.206299
    0.150000    91.081413
    0.160000   103.559639
    0.170000   111.497139
    0.180000    84.310425
    0.190000    84.905411
    0.200000    65.637505
    0.220000    83.629593
    0.240000    91.676346
    0.250000    92.806145
    0.260000    93.760147
    0.280000    83.635574
    0.290000    80.716545
    0.300000    80.112289
    0.320000    72.433319
    0.340000    57.122849
    0.350000    61.522758
    0.360000    66.224609
    0.380000    65.543182
    0.400000    66.629936
    0.420000    71.296295
    0.440000    67.752815
    0.450000    68.434944
    0.460000    75.291687
    0.480000    90.269440
    0.500000    86.721275
    0.550000    70.470673
    0.600000    77.786316
    0.650000    65.837814
    0.667000    68.749275
    0.700000    64.477974
    0.750000    48.897228
    0.800000    55.794838
    0.850000    53.793736
    0.900000    43.296986
    0.950000    45.205555
    1.000000    44.242424
    1.100000    60.123188
    1.200000    81.950722
    1.300000    86.349304
    1.400000   102.983009
    1.500000   105.438492
    1.600000   124.605827
    1.700000   115.188950
    1.800000    99.827896
    1.900000   114.002029
    2.000000   125.333839
    2.200000    98.856117
    2.400000    69.831627
    2.500000    65.553261
    2.600000    61.807922
    2.800000    51.513680
    3.000000    57.794117
    3.200000    58.924370
    3.400000    50.797745
    3.500000    46.356339
    3.600000    43.219440
    3.800000    37.766495
    4.000000    36.830902
    4.200000    37.286045
    4.400000    34.611900
    4.600000    33.085419
    4.800000    30.485458
    5.000000    26.813755
    5.500000    20.001564
    6.000000    20.306002
    6.500000    21.076851
    7.000000    19.611404
    7.500000    19.043177
    8.000000    16.902052
    8.500000    13.880217
    9.000000    10.630548
    9.500000     8.011480
   10.000000     6.009227
