EVENT_NAME: None
EVENT_ID: INT-20230206_0000222
EVENT_DATE_YYYYMMDD: 20230206
EVENT_TIME_HHMMSS: 102449
EVENT_LATITUDE_DEGREE: 38.1100
EVENT_LONGITUDE_DEGREE: 37.2400
EVENT_DEPTH_KM: 10.0
HYPOCENTER_REFERENCE: EMSC-CSEM
MAGNITUDE_W: 7.5
MAGNITUDE_W_REFERENCE: EMSC-CSEM
MAGNITUDE_L: 
MAGNITUDE_L_REFERENCE: 
FOCAL_MECHANISM: Strike-slip faulting
NETWORK: TK
STATION_CODE: 4409
STATION_NAME: None
STATION_LATITUDE_DEGREE: 38.560630
STATION_LONGITUDE_DEGREE: 37.490760
STATION_ELEVATION_M: 1055
LOCATION: 
SENSOR_DEPTH_M: 0.0
VS30_M/S: 
SITE_CLASSIFICATION_EC8: B (inferred from topography)
MORPHOLOGIC_CLASSIFICATION: 
EPICENTRAL_DISTANCE_KM: 54.6
EARTHQUAKE_BACKAZIMUTH_DEGREE: 203.7
DATE_TIME_FIRST_SAMPLE_YYYYMMDD_HHMMSS: 20230206_102431.871
DATE_TIME_FIRST_SAMPLE_PRECISION: milliseconds
SAMPLING_INTERVAL_S: 0.005000
NDATA: 21000
DURATION_S: 105.000
STREAM: HNE
UNITS: cm/s^2
INSTRUMENT: HN
INSTRUMENT_ANALOG/DIGITAL: D
INSTRUMENTAL_FREQUENCY_HZ: 
INSTRUMENTAL_DAMPING: 
FULL_SCALE_G: 
N_BIT_DIGITAL_CONVERTER: 
PGA_CM/S^2: -193.743366
TIME_PGA_S: 48.485000
BASELINE_CORRECTION: BASELINE REMOVED
FILTER_TYPE: BUTTERWORTH
FILTER_ORDER: 2
LOW_CUT_FREQUENCY_HZ: 0.030
HIGH_CUT_FREQUENCY_HZ: 40.000
LATE/NORMAL_TRIGGERED: NT
DATABASE_VERSION: 0.5
HEADER_FORMAT: DYNA 1.2
DATA_TYPE: ACCELERATION
PROCESSING: manual (Paolucci et al., 2011)
DATA_TIMESTAMP_YYYYMMDD_HHMMSS: 20251106_223019.605
DATA_LICENSE: D (network default license)
DATA_CITATION: Luzi L., Lanzano G., Felicetta C., D Amico M. C., Russo E., Sgobba S., Pacor, F., & ORFEUS Working Group 5 (2020). Engineering Strong Motion Database (ESM) (Version 2.0). Istituto Nazionale di Geofisica e Vulcanologia (INGV). https://doi.org/10.13127/ESM.2
DATA_CREATOR: ESM working group
ORIGINAL_DATA_MEDIATOR_CITATION: afad
ORIGINAL_DATA_MEDIATOR: afad
ORIGINAL_DATA_CREATOR_CITATION: Disaster And Emergency Management Authority. (1973). Turkish National Strong Motion Network. Department of Earthquake, Disaster and Emergency Management Authority. https://doi.org/10.7914/SN/TK http://www.fdsn.org/networks/detail/TK/
ORIGINAL_DATA_CREATOR: network: TK (Turkish National Strong Motion Network (TNSMN)); owner: Disaster and Emergency Management Authority (AFAD)
USER1: 
USER2: 
USER3: 
USER4: 
USER5: 
[...]
18.081225
22.591506
25.457067
26.255720
25.223418
23.030366
20.432520
17.967711
15.842065
14.207362
13.406377
13.761427
15.215922
17.172783
18.658776
19.032631
18.559628
18.082505
18.353844
19.475271
20.699204
20.984017
19.657873
16.674558
12.635698
8.592029
5.715618
4.772060
5.648897
7.355970
8.431869
7.885352
5.920851
3.549409
1.778567
0.899783
0.218286
-1.274525
-4.110153
-8.121359
-12.530329
-16.249289
-18.208292
-17.682456
-14.624947
-9.879829
-5.060846
-1.650319
-0.061833
0.493370
1.535142
4.167884
8.182380
12.424330
15.614791
17.031229
16.777836
15.300466
12.890413
9.807693
6.575272
3.986737
2.852703
3.505637
5.506734
8.070403
10.614270
12.893143
14.859779
16.353498
16.972103
16.488572
15.283791
14.227739
14.265799
15.878930
18.764511
22.156476
25.276805
27.523820
28.501840
27.993879
26.030587
23.132665
20.398400
18.982219
19.421691
21.294340
23.306937
24.143788
23.333576
21.392751
19.505562
18.756182
19.473802
21.259109
23.324363
24.971886
25.931579
26.267085
26.151622
25.713654
24.988182
24.009879
22.881691
21.682408
20.372421
18.865473
17.147147
15.308665
13.486011
11.701140
9.811275
7.792877
6.007081
5.033442
5.287494
6.599088
8.041363
8.421034
6.887819
3.203282
-2.230692
-8.590532
-14.855664
-19.929148
-22.804778
-22.953301
-20.684000
-17.103897
-13.764441
-11.909209
-11.809471
-12.776941
-13.590818
-13.304736
-11.870428
-9.931981
-8.289044
-7.372398
-7.041515
-7.079048
-7.688568
-9.312126
-12.144148
-15.692842
-18.729276
-20.097145
-19.553898
-17.795193
-16.003116
-15.056692
-14.958021
-15.085858
-14.739190
-13.619303
-12.088025
-10.937823
-10.971939
-12.548567
-15.303755
-18.384085
-20.868418
-22.169758
-22.231798
-21.273143
-19.506551
-17.192033
-14.777558
-12.854245
-11.946713
-12.175401
-13.111230
-14.211526
-15.291844
-16.482682
-17.928060
-19.437567
-20.380880
-20.168499
-18.756225
-16.630093
-14.557119
-13.284846
-13.331700
-14.955160
-18.095839
-22.169113
-25.967413
-28.073330
-27.442770
-23.854295
-18.080208
-11.473210
-5.428652
-1.039343
1.110731
0.989053
-0.939143
-3.948169
-7.356829
-10.796855
-14.311636
-18.045834
-21.878020
-25.321590
-27.618809
-28.056554
-26.288191
-22.485549
-17.377915
-12.089416
-7.808279
-5.223755
-4.103566
-3.544822
-2.547192
-0.675867
1.623573
3.641335
5.155754
6.567756
8.578535
11.442466
14.466724
16.518632
16.827888
15.473595
13.421327
11.798714
11.141137
11.281041
11.600165
11.525225
10.881803
9.739991
8.148875
6.086904
3.560145
0.768073
-1.865443
-4.023513
-5.833352
-7.798430
-10.465132
-13.857615
-17.059822
-18.462539
-16.372296
-9.894708
0.376300
12.516762
23.923637
32.417161
37.129691
38.407002
37.285662
34.856124
31.891587
29.102847
27.380023
27.416917
29.167753
31.680338
33.402778
33.214214
31.270508
28.632462
26.415111
25.017570
23.840424
22.038372
19.349850
16.140916
13.063692
10.605766
8.851716
7.750082
7.389903
7.847575
8.935369
10.191053
11.021386
10.923098
9.599699
6.833900
2.453500
-3.261226
-9.181042
-13.550004
-14.635964
-11.757965
-5.984604
0.454612
5.269687
7.223981
6.788835
5.614476
5.598272
8.005760
12.909942
19.373516
25.923419
31.153373
34.223299
34.994458
33.956920
31.914274
29.645220
27.712554
26.402997
25.849744
26.139327
27.239636
28.899583
30.698424
32.214663
33.278511
34.062729
34.716780
35.007278
34.471324
32.820689
30.352613
28.024309
26.741643
26.652473
27.247246
27.816204
27.920323
27.574574
26.826037
25.363786
22.769352
18.944467
14.282155
9.610709
5.859155
3.698029
3.330818
4.371906
5.895500
6.717266
6.094044
4.272864
2.173740
0.730959
0.297458
0.432801
0.501609
0.287536
-0.094431
-0.516684
-0.975281
-1.530027
-2.069104
-2.210274
-1.661673
-0.602065
0.382564
0.579461
-0.475295
-2.685828
-5.349238
-7.318852
-7.509568
-5.445370
-1.509813
3.164871
7.419920
10.719949
13.026296
14.368713
14.517839
13.011664
9.838779
6.012985
3.175123
2.778486
5.280943
9.759482
14.577420
18.329054
20.471149
21.539509
22.609608
24.552127
27.458481
30.387242
31.826494
30.438877
25.842365
19.073628
12.126925
7.105672
5.293810
6.596955
10.010376
14.395971
19.038148
23.797741
28.566511
32.742760
35.433017
35.989354
34.558306
32.263293
30.482212
29.968528
30.499890
30.978971
30.144755
27.300117
22.535713
16.645047
10.713009
5.663943
1.972784
-0.441626
-1.988519
-3.104520
-4.081153
-5.043682
-6.141433
-7.670959
-9.851859
-12.546869
-15.235960
-17.180710
-17.776828
-16.820650
-14.416111
-10.819894
-6.452605
-1.929458
2.094235
5.175977
7.316816
8.990161
10.687613
12.435698
13.744071
13.813592
11.971616
8.066359
2.556236
-3.591340
-9.258278
-13.620879
-16.546001
-18.746942
-21.314644
-25.080862
-30.188571
-35.966885
-41.371479
-45.513210
-47.903940
-48.507693
-47.575471
-45.431242
-42.298331
-38.215730
-33.165954
-27.281713
-21.020006
-15.178117
-10.541019
-7.491484
-5.918832
-5.351302
-5.339705
-5.780219
-6.846394
-8.747308
-11.442455
-14.479226
-17.184044
-18.993811
-19.780560
-19.996064
-20.343733
-21.306255
-22.809391
-24.170309
-24.608205
-23.771454
-21.748509
-18.799215
-14.984576
-10.060221
-4.035928
2.290636
7.602535
10.748957
11.556600
11.213939
11.461022
13.508920
17.476500
22.345019
26.682054
29.438152
30.246839
29.386698
27.372309
24.537877
20.926634
16.414447
11.101329
5.602267
0.818424
-2.491145
-4.087541
-4.394219
-4.113454
-3.756179
-3.449495
-2.939015
-1.824455
0.132080
2.732712
5.253103
6.830809
6.992127
5.967884
4.601797
3.499446
2.288721
-0.049076
-4.405949
-10.850188
-18.445104
-26.137369
-33.584498
-40.800155
-47.394223
-52.173525
-53.376698
-49.983114
-42.866862
-34.429656
-27.518588
-24.098690
-24.377237
-27.243198
-31.130766
-34.740503
-37.415652
-38.887224
-38.914448
-37.232063
-33.737078
-28.869241
-23.791544
-19.868396
-17.953978
-17.969132
-18.881159
-19.393033
-18.661399
-16.445276
-12.995587
-8.858191
-4.720232
-1.321757
0.680921
0.972460
-0.285260
-2.745832
-6.190691
-10.452952
-15.193691
-19.785455
-23.424937
-25.622929
-26.562499
-26.768474
-26.634081
-26.302143
-25.779429
-25.184843
-24.846117
-24.981534
-25.421381
-25.829342
-26.029061
-26.047740
-25.979559
-25.762550
-25.095479
-23.729198
-21.749449
-19.475716
-17.250033
-15.350668
-13.988959
-13.329032
-13.453103
-14.231942
-15.275780
-16.159427
-16.624937
-16.449135
-15.227887
-12.371569
-7.342112
-0.203304
8.008978
15.744197
21.718857
25.624833
28.417943
31.586209
36.139580
41.927986
47.485724
50.917684
51.004161
47.832231
42.874568
38.108472
34.991261
33.958639
34.350065
34.927654
34.501052
32.346530
28.439479
23.364437
18.044413
13.271656
9.331324
6.077225
3.204165
0.552292
-1.766438
-3.663897
-5.383078
-7.416560
-10.252453
-14.101284
-18.724073
-23.504713
-27.597216
-30.107661
-30.356345
-28.287533
-24.735326
-21.076599
-18.615084
-17.939205
-18.591490
-19.552701
-19.908102
-19.195786
-17.473726
-15.042005
-12.171938
-9.100628
-6.086483
-3.339467
-0.895859
1.454350
4.132590
7.524077
11.719581
16.448389
21.133582
25.087684
27.734576
28.785820
28.351243
26.893164
25.092346
23.616872
22.913602
23.147525
24.208899
25.779847
27.440391
28.841164
29.856844
30.582767
31.204102
31.727530
31.831160
31.152171
29.671219
27.851499
26.514136
26.325636
27.338535
29.057306
30.759200
31.947099
32.705627
33.668951
35.734509
39.461810
44.502405
49.510550
52.495417
51.852072
47.333599
40.123987
32.324348
25.830177
21.377227
18.607565
16.640369
14.910248
13.720058
13.846459
15.816613
19.325302
23.086327
25.612016
26.132228
24.944417
23.304713
22.725653
24.260318
28.239357
34.231337
41.196201
47.772744
52.819386
55.936638
57.594400
58.914745
60.957566
64.074102
67.911307
71.701185
74.649442
76.242833
76.329143
75.110472
73.058638
70.742276
68.502890
66.229970
63.555541
60.149621
55.836040
50.546140
44.135986
36.360383
27.312542
17.829685
9.270675
2.974539
-0.385918
-1.159167
-0.253970
1.500819
3.651729
6.115340
8.811557
11.325837
12.965148
13.014230
11.104481
7.496968
3.022583
-1.183344
-4.156044
-5.506288
-5.431873
-4.527947
-3.446704
-2.603861
-2.126928
-1.930095
-1.898835
-2.062626
-2.610849
-3.746784
-5.324037
-6.619503
-6.683897
-4.848959
-1.011423
4.358239
10.607264
17.207274
23.593437
29.084211
33.405184
37.123166
41.114608
45.674764
49.965669
52.291080
51.835779
49.880642
48.308857
47.616286
46.663680
43.740641
38.645031
33.624321
30.867402
30.007757
29.140262
27.052736
24.456363
23.599341
25.550274
28.432238
29.946509
30.241109
31.114488
33.613176
36.123751
34.584078
26.728062
15.461837
6.069485
1.678915
1.185806
0.088738
-4.688462
-11.124722
-14.921078
-13.992666
-10.171337
-8.094581
-10.696968
-15.918702
-19.443204
-18.897675
-15.344424
-12.285021
-11.940537
-12.703789
-11.714716
-8.317783
-4.373401
-2.576658
-3.668265
-5.098540
-3.907246
0.092544
4.579475
6.531983
4.169397
-1.961004
-9.768285
-16.753128
-20.638831
-20.132016
-16.246875
-12.635124
-12.712475
-16.652338
-21.666918
-24.267671
-23.546089
-22.453969
-23.722845
-25.990212
-25.761470
-21.205581
-13.909552
-8.006737
-5.875794
-5.389401
-3.734627
-1.668791
-2.057778
-6.183757
-11.396794
-11.820741
-4.295519
6.892934
13.576310
9.960733
-3.210780
-17.847712
-23.825690
-15.466642
5.016418
27.441470
39.531505
34.073710
13.142038
-11.939375
-28.533502
-30.862531
-21.102173
-6.667920
4.899780
9.870459
7.996398
1.244699
-6.518355
-10.499882
-8.642401
-4.331210
-3.321499
-8.749763
-18.058592
-23.623455
-19.917459
-9.492714
0.337770
3.664805
-0.494248
-7.880510
-13.201416
-14.142477
-11.194926
-6.214949
-1.780238
-0.695614
-4.601899
-12.735569
-22.358571
-29.881899
-32.189505
-27.877940
-18.224913
-7.809289
-3.561779
-11.833222
-32.718691
-56.868748
-71.744885
-70.082524
-53.606246
-31.634516
-12.750598
1.489136
12.100138
16.702270
10.956679
-6.445390
-29.575728
-45.879497
-46.399345
-34.160405
-18.540892
-5.908876
3.922826
15.536799
29.633880
38.255684
33.375483
16.597038
-2.467937
-13.338560
-12.503393
-6.457582
-3.655107
-6.265435
-11.738552
-17.461241
-22.618038
-27.560574
-31.480398
-31.777530
-28.008064
-24.671651
-26.666899
-33.786148
-40.962212
-41.863279
-34.045709
-21.511122
-10.046579
-1.992006
3.511183
8.162908
12.862597
17.367865
21.395617
24.911600
25.934908
19.550372
2.655088
-20.384809
-37.340449
-33.324536
-3.566842
37.463568
65.081856
60.995567
28.229409
-5.878038
-13.836597
6.595629
32.804146
33.966033
-1.021004
-48.067666
-72.322243
-58.828827
-18.110282
24.556747
51.142332
63.455978
66.888415
54.530585
19.583784
-26.346153
-54.466483
-35.824749
28.972861
96.174315
116.326603
77.445739
8.608366
-41.029867
-40.267682
-0.244848
47.248636
79.806320
91.021801
84.633382
65.104314
33.666094
-4.130332
-33.188524
-39.562542
-22.650933
6.283503
31.819229
42.859007
37.941139
23.175623
8.062992
1.544890
7.784337
22.052591
31.116713
24.868464
6.878547
-9.907371
-13.700821
-3.254717
10.188429
16.023720
15.715694
16.179073
19.163084
20.134152
13.488289
0.728951
-7.142528
-2.241095
8.751571
11.331912
-4.061713
-34.310252
-63.365767
-74.158083
-60.429001
-27.280025
13.376126
49.023293
71.372189
77.205284
67.126677
43.042440
7.706097
-30.702022
-55.774574
-50.620072
-9.449612
54.598701
111.135422
133.120709
115.612990
71.385933
18.646046
-27.106112
-54.904337
-53.699872
-13.746122
55.789533
116.776964
128.913842
83.741797
13.074080
-28.029912
-10.431163
34.858368
50.992740
7.771726
-74.333583
-133.390238
-122.365753
-55.229508
16.758219
51.674319
46.335928
36.865695
53.054738
79.384693
76.103511
20.514652
-67.622528
-128.745028
-113.854338
-30.626458
68.164764
121.276305
98.163312
19.765161
-65.180877
-113.423776
-104.622378
-47.481753
26.991753
79.098440
82.506550
42.075913
-11.558121
-42.258073
-39.500176
-33.185284
-58.425347
-114.699158
-164.604090
-159.104056
-82.235681
23.975100
99.079642
113.357073
76.110900
20.104168
-27.035083
-59.684026
-77.795235
-71.085508
-34.333840
14.249358
43.033275
29.836325
-18.758971
-66.011525
-80.056948
-64.707774
-44.541329
-36.483332
-36.917271
-25.784906
8.619772
51.379104
76.250882
67.952594
28.193355
-27.567141
-78.317876
-105.010560
-95.571844
-50.293749
13.041936
61.869335
71.084035
43.470335
3.618744
-20.828765
-20.304956
-11.907152
-17.041967
-36.996525
-54.392214
-48.168317
-13.118398
30.847531
56.773033
52.128237
21.933046
-18.502323
-56.096769
-87.018617
-108.494387
-110.714297
-83.751126
-28.951215
36.668649
84.810031
93.460879
61.843417
6.044075
-52.303480
-95.583760
-115.183396
-108.990939
-78.547325
-30.652569
21.189394
61.231791
77.900166
68.272525
39.655244
5.320291
-21.862345
-35.586637
-39.475803
-42.599778
-51.461617
-61.992730
-57.802624
-24.345561
34.898638
95.267943
119.552494
82.544023
-7.708026
-113.998596
-187.448892
-193.743366
-132.928923
-34.520998
58.182824
108.658028
103.351970
52.871390
-14.420640
-66.206135
-80.774417
-56.269755
-12.494743
22.896451
31.606853
14.062991
-11.508510
-27.169795
-31.574363
-35.291392
-47.934354
-67.801694
-80.715679
-75.984678
-59.783115
-46.116583
-42.113823
-43.550204
-39.436646
-25.468560
-11.936885
-11.448809
-25.181939
-45.628229
-65.307609
-81.653179
-96.182201
-106.826485
-104.441302
-84.112912
-55.112145
-32.280401
-22.839804
-22.720793
-21.226461
-13.688556
-8.281458
-12.970223
-22.314756
-24.008874
-11.827536
8.247408
20.996400
17.378234
5.365829
-1.530329
0.335007
2.992238
-6.338769
-33.112225
-67.779789
-93.097024
-95.052727
-68.734098
-20.420618
34.798733
77.976390
94.719731
82.371382
49.619944
11.658815
-18.420429
-35.919852
-42.063210
-39.656032
-32.053383
-23.315747
-17.128352
-15.146016
-16.275311
-17.534859
-17.311524
-17.261326
-19.033997
-21.261913
-22.152045
-22.812632
-25.941750
-32.028152
-35.973784
-28.367029
-6.298511
18.703089
30.041199
20.344911
-1.844406
-15.866640
-8.811168
9.015084
15.527036
-3.124746
-40.463851
-70.510108
-70.293048
-40.440123
-0.075046
28.688831
35.179445
25.903850
12.616864
-0.252606
-13.800447
-27.742682
-37.078793
-34.291105
-18.848028
-3.187850
-2.995172
-24.054740
-57.817424
-85.198483
-90.928787
-75.501526
-51.364953
-33.546888
-31.900115
-47.205054
-73.715830
-102.371091
-121.643088
-119.761942
-92.586128
-49.984277
-10.638903
8.998540
6.810371
-0.886522
4.277800
24.583092
45.372997
45.575236
16.942287
-24.303644
-52.162330
-51.177251
-23.850052
12.952138
43.550852
64.839376
78.265327
79.001062
58.295883
12.807778
-45.941499
-91.076976
-100.242656
-74.429622
-33.051156
1.348962
18.381537
25.554484
33.337619
40.334087
38.171652
23.134978
2.364439
-8.184827
2.092771
27.276724
52.331056
65.447551
63.532063
51.633954
36.024256
18.809650
0.701660
-15.286342
-25.643959
-29.272887
-26.741018
-18.017969
-1.580654
23.645810
52.385326
70.539063
65.202638
36.213903
-2.763523
-31.187124
-36.642623
-25.092161
-11.749862
-6.899614
-9.267681
-7.776084
5.334366
23.809109
33.422255
23.971057
-1.941630
-27.677336
-35.826813
-22.154725
3.333825
23.302294
26.205987
15.416312
3.114136
-0.189875
8.082974
21.652475
32.189653
35.527965
30.338183
15.510260
-8.061851
-34.423785
-52.753246
-51.272702
-25.936906
13.781641
51.320636
72.583113
71.168443
49.776912
16.975335
-16.475401
-39.781920
-44.891305
-31.437067
-9.079031
9.701366
18.446177
19.151536
19.330739
23.288186
26.358991
21.384839
7.344689
-9.415526
-18.912652
-15.010752
-0.532996
16.417953
28.255762
30.613915
22.864676
6.926181
-13.805015
-34.540930
-49.407643
-53.412289
-44.764058
-25.912761
-3.103699
16.601715
28.387034
30.514957
23.882227
10.721248
-6.069494
-22.051976
-31.305901
-30.137306
-20.599567
-9.042067
-1.869550
-0.223057
2.100836
12.075845
30.378673
51.772740
68.966593
76.930589
74.745697
62.424469
38.726560
5.522357
-27.901991
-48.428601
-46.363111
-22.373263
10.530307
36.586508
47.687726
44.472725
32.707323
17.891404
2.261011
-12.253430
-21.263496
-21.038372
-12.675766
-1.851831
4.654116
4.914847
5.122972
13.788272
33.932252
59.904050
78.838485
78.906108
57.521603
22.635088
-10.651577
-28.672554
-27.100937
-11.831437
4.808942
12.726876
10.911850
5.063549
1.622450
2.344340
2.649248
-2.172345
-10.802763
-17.499524
-16.954202
-8.617171
2.225798
9.955505
13.975523
17.400699
23.169644
30.999689
36.769742
36.349951
29.402778
18.930108
8.999185
2.379969
-0.681769
-1.272024
-0.337268
1.369982
2.802440
2.491954
-0.981314
-7.835013
-16.589538
-25.724775
-35.297295
-46.057503
-57.358582
-65.388116
-63.762106
-49.194817
-26.411310
-5.477957
4.350228
0.917289
-8.749461
-16.188255
-19.445628
-21.718204
-25.830179
-29.130387
-23.093652
-2.635537
25.716110
48.504954
54.978621
44.792754
29.592769
22.384527
26.714232
37.172235
45.159254
45.709916
40.931601
35.433755
31.077572
27.358789
23.881638
21.590980
22.069475
24.530702
24.308690
17.114486
4.080721
-7.847789
-9.227973
4.600623
28.178502
49.637570
57.945769
49.597326
31.368199
14.064336
4.724204
3.771060
6.200544
7.318267
7.293939
8.953888
13.635665
19.363462
21.791673
18.741914
13.445713
11.295766
15.040948
23.041534
30.396040
33.366965
32.514997
29.968139
25.763470
17.986690
5.092005
-11.156770
-24.904035
-30.820665
-28.757868
-22.924267
-18.518343
-17.997582
-19.372566
-19.352395
-17.035366
-14.222252
-13.765605
-16.801273
-21.052764
-22.744275
-19.673805
-13.330384
-8.977474
-11.664240
-21.910513
-35.002636
-43.237072
-41.650241
-32.437159
-22.558260
-18.746261
-23.068906
-31.255994
-36.936596
-36.512893
-30.062181
-20.036650
-8.814093
2.755126
13.883226
22.153298
24.226284
17.731307
3.286489
-14.632965
-29.876339
-37.666423
-36.716670
-29.779661
-21.119169
-13.463759
-6.798603
0.963086
10.735724
19.800878
23.865240
20.694373
12.575937
6.116759
7.001758
15.133557
25.769308
33.208188
34.455815
30.714043
24.311016
15.762770
5.212095
-5.158218
-11.313496
-9.515357
0.166151
12.156840
19.446980
18.671856
11.725322
4.680549
3.549389
10.198180
21.580859
31.079414
32.217505
22.439274
4.615155
-13.724045
-24.898440
-25.632717
-17.981128
-7.990548
-2.166224
-4.293832
-14.820309
-31.178033
-48.416488
-60.297037
-61.751660
-51.397485
-32.314503
-11.184041
5.143239
13.038616
12.859488
8.190515
3.616339
2.413637
5.273837
10.044039
13.335339
12.654591
8.010829
2.397550
-0.165816
