EVENT_NAME: None
EVENT_ID: INT-20230206_0000222
EVENT_DATE_YYYYMMDD: 20230206
EVENT_TIME_HHMMSS: 102449
EVENT_LATITUDE_DEGREE: 38.1100
EVENT_LONGITUDE_DEGREE: 37.2400
EVENT_DEPTH_KM: 10.0
HYPOCENTER_REFERENCE: EMSC-CSEM
MAGNITUDE_W: 7.5
MAGNITUDE_W_REFERENCE: EMSC-CSEM
MAGNITUDE_L: 
MAGNITUDE_L_REFERENCE: 
FOCAL_MECHANISM: Strike-slip faulting
NETWORK: TK
STATION_CODE: 4617
STATION_NAME: None
STATION_LATITUDE_DEGREE: 37.585510
STATION_LONGITUDE_DEGREE: 36.830300
STATION_ELEVATION_M: 544
LOCATION: 
SENSOR_DEPTH_M: 0.0
VS30_M/S: 
SITE_CLASSIFICATION_EC8: B (inferred from topography)
MORPHOLOGIC_CLASSIFICATION: 
EPICENTRAL_DISTANCE_KM: 68.5
EARTHQUAKE_BACKAZIMUTH_DEGREE: 31.6
DATE_TIME_FIRST_SAMPLE_YYYYMMDD_HHMMSS: 
DATE_TIME_FIRST_SAMPLE_PRECISION: 
SAMPLING_INTERVAL_S: 
NDATA: 105
DURATION_S: 
STREAM: HNE
UNITS: cm/s^2
INSTRUMENT: HN
INSTRUMENT_ANALOG/DIGITAL: D
INSTRUMENTAL_FREQUENCY_HZ: 
INSTRUMENTAL_DAMPING: 
FULL_SCALE_G: 
N_BIT_DIGITAL_CONVERTER: 
PGA_CM/S^2: -82.524230
TIME_PGA_S: 
BASELINE_CORRECTION: BASELINE REMOVED
FILTER_TYPE: BUTTERWORTH
FILTER_ORDER: 2
LOW_CUT_FREQUENCY_HZ: 0.020
HIGH_CUT_FREQUENCY_HZ: 40.000
LATE/NORMAL_TRIGGERED: NT
DATABASE_VERSION: 0.5
HEADER_FORMAT: DYNA 1.2
DATA_TYPE: ACCELERATION RESPONSE SPECTRUM
PROCESSING: manual (Paolucci et al., 2011)
DATA_TIMESTAMP_YYYYMMDD_HHMMSS: 20251106_223023.533
DATA_LICENSE: D (network default license)
DATA_CITATION: Luzi L., Lanzano G., Felicetta C., D Amico M. C., Russo E., Sgobba S., Pacor, F., & ORFEUS Working Group 5 (2020). Engineering Strong Motion Database (ESM) (Version 2.0). Istituto Nazionale di Geofisica e Vulcanologia (INGV). https://doi.org/10.13127/ESM.2
DATA_CREATOR: ESM working group
ORIGINAL_DATA_MEDIATOR_CITATION: afad
ORIGINAL_DATA_MEDIATOR: afad
ORIGINAL_DATA_CREATOR_CITATION: Disaster And Emergency Management Authority. (1973). Turkish National Strong Motion Network. Department of Earthquake, Disaster and Emergency Management Authority. https://doi.org/10.7914/SN/TK http://www.fdsn.org/networks/detail/TK/
ORIGINAL_DATA_CREATOR: network: TK (Turkish National Strong Motion Network (TNSMN)); owner: Disaster and Emergency Management Authority (AFAD)
USER1: 
USER2: 
USER3: 
USER4: 
USER5: 
    0.010000    82.524361
    0.020000    82.658432
    0.022000    82.685219
    0.025000    82.629105
    0.029000    82.896126
    0.030000    82.820984
    0.032000    82.843712
    0.035000    83.268135
    0.036000    83.439301
    0.040000    83.082520
    0.042000    84.089577
    0.044000    84.355476
    0.045000    84.255760
    0.046000    84.407845
    0.048000    84.588379
    0.050000    84.250755
    0.055000    85.179306
    0.060000    84.583641
    0.065000    84.575020
    0.067000    84.943085
    0.070000    85.206398
    0.075000    86.766518
    0.080000    90.610703
    0.085000    85.780739
    0.090000    83.352966
    0.095000    86.652626
    0.100000    88.712105
    0.110000    82.049049
    0.120000    90.457146
    0.130000    88.406334
    0.133000    87.955360
    0.140000    94.796501
    0.150000   101.089546
    0.160000    97.084183
    0.170000    87.077560
    0.180000    95.313011
    0.190000   115.771942
    0.200000   108.959114
    0.220000   119.535660
    0.240000   113.223915
    0.250000   109.380074
    0.260000   103.664566
    0.280000   109.904099
    0.290000   112.600700
    0.300000   117.097351
    0.320000   141.649887
    0.340000   120.157333
    0.350000   121.261230
    0.360000   124.824440
    0.380000   124.114464
    0.400000   138.935837
    0.420000   134.461227
    0.440000   126.547073
    0.450000   128.455261
    0.460000   129.355621
    0.480000   118.440979
    0.500000   107.882416
    0.550000   120.878448
    0.600000   103.985771
    0.650000   111.686989
    0.667000   123.124611
    0.700000   121.998810
    0.750000   130.789948
    0.800000   142.347397
    0.850000   149.577835
    0.900000   152.580063
    0.950000   170.271927
    1.000000   182.399292
    1.100000   144.444870
    1.200000   130.365829
    1.300000   126.348686
    1.400000   111.633324
    1.500000   133.913330
    1.600000   129.443436
    1.700000   129.520737
    1.800000   143.501495
    1.900000   180.933121
    2.000000   188.387009
    2.200000   181.842484
    2.400000   185.285919
    2.500000   191.886429
    2.600000   201.466080
    2.800000   197.285110
    3.000000   173.999329
    3.200000   158.206802
    3.400000   145.018494
    3.500000   140.628281
    3.600000   135.593002
    3.800000   133.529175
    4.000000   138.488968
    4.200000   140.652740
    4.400000   144.954712
    4.600000   138.894531
    4.800000   123.198273
    5.000000   101.097702
    5.500000    60.737480
    6.000000    43.697216
    6.500000    50.740318
    7.000000    50.858673
    7.500000    37.690552
    8.000000    31.483379
    8.500000    29.570732
    9.000000    27.476252
    9.500000    26.269234
   10.000000    27.515730
