EVENT_NAME: None
EVENT_ID: INT-20230206_0000222
EVENT_DATE_YYYYMMDD: 20230206
EVENT_TIME_HHMMSS: 102449
EVENT_LATITUDE_DEGREE: 38.1100
EVENT_LONGITUDE_DEGREE: 37.2400
EVENT_DEPTH_KM: 10.0
HYPOCENTER_REFERENCE: EMSC-CSEM
MAGNITUDE_W: 7.5
MAGNITUDE_W_REFERENCE: EMSC-CSEM
MAGNITUDE_L: 
MAGNITUDE_L_REFERENCE: 
FOCAL_MECHANISM: Strike-slip faulting
NETWORK: TK
STATION_CODE: 4611
STATION_NAME: None
STATION_LATITUDE_DEGREE: 37.747200
STATION_LONGITUDE_DEGREE: 37.284260
STATION_ELEVATION_M: 1097
LOCATION: 
SENSOR_DEPTH_M: 0.0
VS30_M/S: 
SITE_CLASSIFICATION_EC8: B (inferred from topography)
MORPHOLOGIC_CLASSIFICATION: 
EPICENTRAL_DISTANCE_KM: 40.5
EARTHQUAKE_BACKAZIMUTH_DEGREE: 354.5
DATE_TIME_FIRST_SAMPLE_YYYYMMDD_HHMMSS: 20230206_102423.694
DATE_TIME_FIRST_SAMPLE_PRECISION: milliseconds
SAMPLING_INTERVAL_S: 0.005000
NDATA: 21000
DURATION_S: 105.000
STREAM: HNZ
UNITS: cm/s^2
INSTRUMENT: HN
INSTRUMENT_ANALOG/DIGITAL: D
INSTRUMENTAL_FREQUENCY_HZ: 
INSTRUMENTAL_DAMPING: 
FULL_SCALE_G: 
N_BIT_DIGITAL_CONVERTER: 
PGA_CM/S^2: 73.136179
TIME_PGA_S: 44.495000
BASELINE_CORRECTION: BASELINE REMOVED
FILTER_TYPE: BUTTERWORTH
FILTER_ORDER: 2
LOW_CUT_FREQUENCY_HZ: 0.030
HIGH_CUT_FREQUENCY_HZ: 40.000
LATE/NORMAL_TRIGGERED: NT
DATABASE_VERSION: 0.5
HEADER_FORMAT: DYNA 1.2
DATA_TYPE: ACCELERATION
PROCESSING: manual (Paolucci et al., 2011)
DATA_TIMESTAMP_YYYYMMDD_HHMMSS: 20251106_223021.169
DATA_LICENSE: D (network default license)
DATA_CITATION: Luzi L., Lanzano G., Felicetta C., D Amico M. C., Russo E., Sgobba S., Pacor, F., & ORFEUS Working Group 5 (2020). Engineering Strong Motion Database (ESM) (Version 2.0). Istituto Nazionale di Geofisica e Vulcanologia (INGV). https://doi.org/10.13127/ESM.2
DATA_CREATOR: ESM working group
ORIGINAL_DATA_MEDIATOR_CITATION: afad
ORIGINAL_DATA_MEDIATOR: afad
ORIGINAL_DATA_CREATOR_CITATION: Disaster And Emergency Management Authority. (1973). Turkish National Strong Motion Network. Department of Earthquake, Disaster and Emergency Management Authority. https://doi.org/10.7914/SN/TK http://www.fdsn.org/networks/detail/TK/
ORIGINAL_DATA_CREATOR: network: TK (Turkish National Strong Motion Network (TNSMN)); owner: Disaster and Emergency Management Authority (AFAD)
USER1: 
USER2: 
USER3: 
USER4: 
USER5: 
[...]
13.726888
10.601542
4.363874
-3.898744
-12.363293
-19.294104
-23.759586
-25.783708
-26.166454
-25.934830
-25.773236
-25.756148
-25.384032
-24.116251
-21.912540
-19.279487
-16.967057
-15.318594
-13.809175
-11.422943
-7.363707
-1.707927
4.363386
9.281793
11.891693
11.613808
8.394439
2.772721
-4.022833
-10.231889
-13.988198
-14.127779
-10.855255
-5.585917
-0.371194
2.972881
3.631087
1.987771
-0.563981
-2.349338
-2.188315
0.218759
4.265163
8.950248
13.387283
16.853012
18.686751
18.339338
15.631849
11.210960
6.680278
3.716644
3.070403
4.358053
6.371543
7.831594
7.953193
6.299221
2.638198
-2.610773
-8.051250
-11.996089
-13.412131
-12.351203
-9.844865
-7.038932
-4.406542
-1.830610
1.001613
4.248104
7.646773
10.423343
11.491741
10.244626
7.229507
3.867539
1.736198
1.746356
3.646894
6.427083
8.981074
10.602951
11.228265
11.257755
11.312241
12.109481
14.339244
18.382605
24.034577
30.472144
36.406345
40.500790
41.839578
40.248512
36.406606
31.512887
26.825018
23.288210
21.341550
21.053285
22.267793
24.529857
27.001434
28.674098
28.779585
27.281438
25.037953
23.085137
21.887259
21.391590
21.434879
22.122200
23.884198
26.868847
30.343565
32.816616
32.539499
28.292724
20.142315
9.761069
0.201355
-5.411289
-5.288478
0.472294
10.018656
20.785444
30.570380
37.920590
42.139167
43.039760
40.819324
36.272632
30.881635
26.221605
23.228156
21.896620
21.373813
20.617573
19.102442
17.076039
15.413934
14.908732
15.626584
16.947407
17.868780
17.346315
14.612825
9.470284
2.466221
-5.295430
-12.516430
-18.166860
-21.848245
-23.792608
-24.689894
-25.376539
-26.516619
-28.409856
-30.988773
-34.128981
-37.827068
-41.821069
-45.263617
-47.136051
-46.893761
-44.825152
-41.998845
-39.513080
-37.759082
-36.409009
-34.792758
-32.498734
-29.772655
-27.244334
-25.464165
-24.607089
-24.379652
-24.235109
-23.635665
-22.229438
-20.044757
-17.723790
-16.501325
-17.443286
-20.612116
-24.905657
-28.438165
-29.604476
-28.032060
-24.584112
-20.892031
-18.582283
-18.602393
-21.010281
-24.996293
-29.170045
-31.997942
-32.428354
-30.402977
-26.798855
-23.039865
-20.414104
-19.536009
-20.413931
-22.684201
-25.748259
-28.915766
-31.656179
-33.674038
-34.494153
-33.235418
-29.303792
-23.100238
-15.789368
-8.744500
-3.145913
0.271865
1.329389
0.411304
-1.736284
-4.259925
-6.411630
-7.737531
-8.204073
-8.183158
-8.100984
-8.055752
-7.727082
-6.512331
-3.925780
0.078295
5.199386
11.002934
17.025771
22.796052
27.815200
31.606990
33.920379
34.876942
34.813334
34.046946
32.750709
30.901241
28.319282
24.802251
20.388514
15.502083
10.676606
6.251196
2.393939
-0.796344
-3.312743
-5.244692
-6.593701
-7.131283
-6.591848
-4.961083
-2.623372
-0.332829
1.081952
0.971249
-1.143107
-5.487747
-11.539602
-17.653266
-21.576702
-21.363627
-16.309456
-7.443783
3.138139
13.251745
21.291281
26.535499
28.900384
28.611176
26.096464
21.981231
17.059914
12.213726
8.232252
5.608960
4.398053
4.205763
4.477042
4.808247
5.035334
5.191966
5.372950
5.630567
5.970262
6.289975
6.150896
4.696670
1.164743
-4.479204
-11.279761
-17.421417
-21.004902
-20.905401
-17.227265
-11.426171
-5.836899
-2.858689
-3.842793
-8.349868
-14.710176
-20.979418
-25.644839
-27.968710
-27.822041
-25.580508
-22.428077
-20.419990
-21.488084
-26.358236
-34.402568
-43.981388
-53.042928
-59.569220
-61.683322
-58.006053
-48.763434
-36.483363
-24.748936
-16.470585
-12.927799
-13.454475
-15.994822
-17.987184
-17.399219
-13.462014
-6.488264
2.559897
12.333169
21.240821
27.629517
30.101252
28.069345
22.209727
14.303284
6.729093
1.632401
0.179735
2.350391
7.031605
12.475139
16.874214
18.952789
18.373965
15.624158
11.704932
7.777618
4.851071
3.597753
4.286811
6.902964
11.230534
16.708079
22.276409
26.540411
28.195773
26.751746
23.050176
18.871047
16.099630
15.732622
17.288574
19.404672
20.764573
20.714740
19.468186
17.653600
15.824107
14.375006
13.561267
13.383894
13.546176
13.772273
14.129214
14.938055
16.485191
18.708569
21.093636
23.075589
24.471211
25.450943
26.228845
26.584218
25.625595
22.309282
16.111318
7.347862
-2.756174
-12.342918
-19.413725
-22.613505
-21.903991
-18.527224
-14.475157
-11.401657
-9.743157
-8.899336
-7.791886
-5.441367
-1.504204
3.329454
7.350436
8.879366
7.452715
4.185693
1.376756
1.041800
3.580039
7.833060
11.842302
14.019253
14.076812
13.001615
12.525510
14.173793
18.432242
24.613378
31.134844
36.227391
38.603425
37.678369
33.576512
26.994486
19.064451
11.199959
4.798675
0.671997
-1.322954
-1.848666
-1.526243
-0.849130
-0.315591
-0.535857
-2.169568
-5.565982
-10.474069
-16.196795
-21.828313
-26.305703
-28.478261
-27.467231
-23.074453
-15.930805
-7.402331
0.872084
7.459398
11.340706
12.000634
9.474892
4.388917
-2.102745
-8.523507
-13.560715
-16.519183
-17.376578
-16.617394
-14.903496
-12.835635
-11.007181
-10.024961
-10.193775
-11.207534
-12.273868
-12.451367
-11.060897
-7.962161
-3.465770
1.815755
7.023056
11.215284
13.879346
15.281774
16.045767
16.587920
16.984936
17.059813
16.563568
15.368895
13.662400
12.058488
11.422984
12.495761
15.339204
19.020734
22.113062
23.446130
22.649329
20.324458
17.512290
15.051396
13.317340
12.240537
11.606355
11.289357
11.140807
10.846501
10.069479
8.696764
6.983648
5.516265
4.857805
5.233832
6.582289
8.659942
10.968590
12.720385
13.172265
12.096078
10.102178
8.613490
9.099181
12.264302
17.841570
24.684296
31.121203
35.501729
37.005528
36.197319
34.556289
33.621945
34.195234
35.901796
37.604534
38.072337
36.532130
32.978231
28.007120
22.515241
17.415119
13.384670
10.680381
9.074225
8.104757
7.407326
6.911436
6.849799
7.452545
8.679812
10.322126
12.178801
14.059484
15.711055
16.792563
16.928516
15.897018
13.835888
11.326410
9.318955
8.751287
10.125909
13.301835
17.479946
21.514507
24.326181
25.284544
24.456434
22.491945
20.325931
18.724308
17.901528
17.518123
16.944089
15.805647
14.365949
13.211064
12.736333
12.844672
12.917126
12.228622
10.415860
7.673073
4.753868
2.707256
2.508931
4.642513
8.789357
13.910919
18.558879
21.408233
21.707081
19.331246
14.721497
8.845601
3.110867
-0.960871
-2.124536
0.266279
6.004234
13.955557
22.221633
28.780175
32.150603
31.667732
27.574728
20.987969
13.747009
7.924567
5.148840
5.876177
9.023521
12.625743
14.727179
13.943462
9.830091
3.063069
-4.625405
-11.125681
-14.780179
-14.958180
-12.294635
-8.250534
-4.428841
-1.897468
-0.796920
-0.651126
-0.820537
-0.715497
0.081100
1.662217
3.719793
5.749906
7.291052
7.983114
7.584997
6.072472
3.726647
1.071092
-1.254154
-2.653390
-2.768732
-1.678004
0.077840
1.895187
3.475859
4.676891
5.179784
4.342296
1.406200
-3.697695
-9.736078
-14.697731
-16.747424
-15.081586
-10.368009
-4.251467
1.408355
5.162578
6.380099
5.255263
2.649049
-0.222841
-2.133022
-2.154717
0.102595
4.444443
10.106029
15.834544
20.089823
21.505417
19.318066
13.487120
4.772929
-5.129517
-13.754857
-18.889448
-19.579623
-16.160847
-9.798005
-1.801829
6.827906
15.216692
22.354307
27.276059
29.469868
29.248535
27.764097
26.216110
25.080043
24.152613
22.859063
20.458130
16.270957
10.156865
2.910214
-3.932888
-8.613981
-9.879870
-7.479883
-1.923333
5.909187
14.871202
23.580227
30.656465
35.099677
36.674286
36.032402
34.180854
31.917887
29.793152
28.211850
27.368668
27.145445
27.174659
26.966096
26.005203
23.819491
20.041478
14.528038
7.551744
-0.159049
-7.819729
-14.969106
-21.360580
-26.710529
-30.633508
-32.771478
-33.142280
-32.385102
-31.496400
-31.333460
-32.103615
-33.165694
-33.567598
-32.575041
-29.617243
-24.318968
-17.230426
-10.308025
-5.920649
-5.509123
-8.978973
-14.746983
-20.666009
-25.017975
-26.949447
-26.569141
-24.685839
-22.432994
-20.836198
-20.456585
-21.307334
-22.916095
-24.575863
-25.687685
-26.113633
-26.282246
-26.665044
-27.247464
-27.642335
-27.515005
-27.031952
-26.951489
-27.864118
-29.398807
-30.271629
-28.878465
-24.328059
-17.145448
-8.771714
-0.771134
5.603970
9.675834
11.553631
12.166200
12.727381
14.055856
16.175747
18.321482
19.645393
19.869141
19.164816
17.815641
16.099335
14.311659
12.792062
11.837387
11.414170
10.951589
9.604636
6.753053
2.537845
-1.948905
-5.359568
-6.859190
-6.264454
-3.978719
-0.986301
1.290976
1.647724
-0.261536
-3.891338
-8.079458
-11.498328
-13.050010
-12.061039
-8.458372
-2.976376
2.848282
7.310648
9.231623
8.174616
4.431851
-1.126832
-7.273488
-12.764839
-16.634142
-18.235212
-17.241943
-13.735056
-8.243727
-1.551239
5.520484
12.154926
17.559166
21.085560
22.333744
21.122184
17.542465
12.325635
7.142435
4.241020
5.606704
11.702621
20.698188
29.435028
34.924827
35.499512
31.424475
24.470878
17.038173
11.036181
7.106166
4.936270
3.923752
3.677580
4.214623
5.640752
7.797462
10.253847
12.428157
13.701199
13.549028
11.763917
8.610901
4.684234
0.652132
-2.988174
-6.075928
-8.780125
-11.545013
-15.010500
-19.852782
-26.405675
-34.255978
-42.089139
-47.840281
-49.462185
-45.847677
-37.446686
-26.356345
-15.308159
-6.478577
-0.937358
1.369033
0.987763
-1.540251
-5.418250
-9.312834
-11.827622
-12.201863
-10.669322
-8.424603
-6.950243
-7.260670
-9.568748
-13.353795
-17.949868
-22.940488
-27.716857
-31.080429
-31.827114
-29.587022
-25.144407
-20.224894
-16.550224
-15.001813
-15.709792
-18.458543
-22.938876
-28.738386
-35.005462
-40.282399
-43.064537
-42.510392
-38.753217
-32.878029
-26.442788
-20.923740
-17.313788
-15.826135
-15.810885
-15.943265
-14.965140
-12.424067
-8.781122
-5.086028
-2.212334
-0.269161
1.153909
2.479332
3.813943
4.896259
5.444111
5.427348
4.883098
3.775977
2.352586
1.384739
1.606850
3.071577
5.176055
6.983859
7.599357
6.484357
3.630444
-0.426164
-4.912388
-9.179065
-12.864430
-15.865571
-18.064373
-19.151201
-18.901426
-17.526344
-15.702777
-14.356036
-14.165239
-15.119628
-16.517657
-17.280027
-16.611248
-14.515719
-11.624579
-8.810976
-6.879740
-6.282146
-6.860021
-7.885275
-8.796215
-9.777969
-11.271471
-13.275001
-15.242662
-16.310362
-15.675848
-12.919590
-8.138708
-2.033486
4.067137
8.396836
9.514343
7.147210
2.485345
-2.182189
-4.920109
-5.449050
-4.939632
-5.108763
-7.086547
-10.691761
-14.841515
-18.253535
-19.897130
-19.275663
-16.596466
-12.836046
-9.473704
-8.018077
-9.339983
-13.164515
-18.210233
-22.604807
-24.489827
-22.697969
-17.424735
-10.604974
-5.287591
-4.432589
-9.295949
-18.378465
-28.363099
-35.810348
-38.807212
-37.895664
-35.229810
-33.187976
-33.225918
-35.261606
-38.120632
-40.280925
-40.493143
-38.190142
-33.516634
-27.185126
-20.144834
-13.222647
-6.870118
-1.068729
4.413368
9.651974
14.267746
17.325372
17.710359
14.667603
8.263684
-0.412393
-9.670611
-17.813101
-23.567263
-26.271769
-25.650456
-21.603294
-14.372799
-4.772510
5.866999
15.931085
23.919787
28.848311
30.482868
29.389536
26.629438
23.401975
20.840338
19.850434
20.867681
23.564045
26.697749
28.354461
27.000658
22.397103
15.353824
7.149908
-0.805383
-7.233974
-11.393188
-13.386830
-13.926224
-13.807350
-13.312877
-11.996888
-9.456948
-6.156846
-3.328415
-2.336930
-3.709343
-6.485220
-8.728890
-8.504979
-4.854822
1.702636
9.811199
18.107006
25.499148
31.178341
34.566553
35.333971
33.520566
29.628964
24.505154
19.080914
14.029638
9.604725
5.962683
3.429459
2.203162
2.036224
2.456219
3.110231
3.828590
4.551354
5.244541
5.858312
6.368196
6.866492
7.649355
9.139046
11.457437
14.139785
16.517629
18.149384
18.767311
18.217229
16.814911
15.547041
15.406682
16.653794
18.819220
21.037407
22.435707
22.435195
20.850675
17.866494
13.865427
9.305009
4.797579
1.158296
-0.868568
-1.005464
0.284625
1.837213
2.499646
1.890123
0.546532
-0.366445
0.179863
2.477632
6.223046
10.737951
14.823308
16.805760
15.479978
11.004039
4.674199
-1.719649
-6.428609
-8.002229
-5.219023
2.727699
15.257506
29.645460
41.867584
48.257142
47.389294
41.027541
32.511532
24.694234
19.173853
16.310365
15.768274
16.920343
18.741464
19.787861
18.833512
15.467014
9.902447
2.651035
-5.405570
-12.936417
-18.554605
-21.264473
-20.609486
-16.893649
-11.679521
-7.740564
-7.398891
-11.037778
-17.637208
-25.730075
-33.508460
-38.883486
-40.418586
-38.173403
-33.288079
-27.277475
-21.800937
-18.489130
-18.343947
-21.196371
-25.910721
-30.905828
-34.754096
-36.684673
-36.801939
-36.094625
-36.006698
-37.726294
-41.278271
-45.082573
-46.989594
-45.697973
-41.560753
-36.588275
-33.062390
-32.064883
-33.130566
-34.621756
-34.830676
-33.028262
-29.664439
-25.895759
-22.348897
-18.326712
-12.786638
-5.616282
2.156438
8.780496
12.630181
12.971143
10.198503
5.722706
1.359876
-1.395638
-1.901193
-0.510412
2.084277
5.574689
10.135932
16.149132
23.648021
31.922550
39.774048
46.053433
50.238943
52.720950
54.320570
55.639305
56.794845
57.603995
58.305025
59.859797
62.874282
66.688298
70.160249
72.565866
73.136179
70.497894
63.455291
52.199407
38.831230
26.902576
19.397284
17.100527
19.297113
24.863664
32.238674
39.369414
44.785641
48.428899
50.686904
51.407201
50.540543
48.779928
46.579597
43.242589
37.929764
30.942936
23.570774
17.317086
13.146821
10.953479
9.532657
7.029428
2.125595
-5.020223
-13.182124
-20.846004
-26.646288
-29.615576
-29.417387
-26.519312
-22.094422
-17.815213
-15.500543
-16.520698
-20.872430
-26.733798
-31.646892
-33.998151
-33.560190
-31.327328
-28.623579
-26.383301
-25.299165
-25.957587
-28.246974
-30.984939
-32.894516
-33.685052
-33.924253
-34.380609
-35.369242
-36.444718
-36.860625
-36.218890
-34.841475
-33.762741
-34.038003
-35.964394
-38.799219
-40.962307
-40.973709
-38.362687
-33.775639
-28.623616
-24.320022
-21.571644
-20.189845
-19.291843
-18.014544
-16.169502
-14.261690
-13.191728
-13.751203
-16.169824
-19.968508
-24.041850
-27.087630
-28.084223
-26.531150
-22.421969
-15.913038
-7.326643
1.993200
9.322086
12.251364
10.454111
5.446732
-0.451206
-5.089540
-7.099009
-5.936290
-1.859063
3.955518
9.467077
12.548698
11.949412
7.878272
2.072564
-3.107920
-5.734973
-4.865331
-0.757721
5.364417
11.839823
17.445078
22.011862
26.017155
29.900574
33.710647
37.068240
39.522447
40.907976
41.371965
41.214458
40.612908
39.453392
37.514076
34.729019
31.268000
27.408145
23.177642
18.236673
12.472311
6.477875
1.052930
-3.440732
-7.057297
-9.974612
-12.240051
-13.576293
-13.310556
-10.580534
-5.120258
2.083596
9.138028
14.044891
15.615377
14.049221
10.568614
6.727582
3.747293
2.055258
1.288626
0.506603
-1.393114
-5.206410
-11.031348
-18.106607
-25.202242
-31.104723
-34.860829
-35.929377
-34.321542
-30.628785
-25.719018
-20.423435
-15.514357
-11.759388
-9.805641
-9.889506
-11.413469
-12.808028
-12.273536
-8.674759
-1.949156
6.796199
15.572917
22.054450
24.478513
22.392127
16.588826
8.721220
0.774681
-5.493975
-9.092767
-10.053374
-8.982823
-6.589276
-3.717620
-1.372010
-0.209165
-0.091709
-0.388009
-0.415635
0.452810
2.681375
6.116461
9.672064
11.854015
11.563597
8.684573
4.261946
-0.127797
-3.154119
-4.142819
-3.190128
-0.898879
1.939695
4.523024
6.126751
6.206788
4.680780
2.441295
1.433000
3.413613
8.699245
16.211792
24.023807
29.933390
32.081449
29.771182
24.060477
17.313418
12.176423
10.197207
10.961575
12.876661
14.337760
14.348998
12.811881
10.509399
8.775771
8.564616
9.687149
11.172912
12.102479
12.381654
12.920129
14.541000
16.988719
19.356038
20.854940
21.017740
19.656120
16.894159
13.188332
9.138798
5.316594
2.282138
0.482017
-0.259018
-1.014840
-3.002522
-6.674002
-11.558473
-16.616557
-21.022517
-24.694364
-27.872813
-30.517831
-32.189158
-32.216970
-30.080013
-25.788772
-20.068359
-14.237300
-9.506630
-6.335011
-4.514087
-3.562321
-3.111415
-3.020587
-2.960300
-2.103550
0.400056
4.752835
10.228358
15.295733
18.360690
18.552596
16.020693
11.834665
7.350939
3.589296
1.066222
-0.213093
-0.744111
-1.400058
-2.991762
-5.900296
-10.186663
-15.738306
-22.070408
-28.131438
-32.582800
-34.307195
-32.929499
-29.061723
-23.877998
-18.629592
-14.559096
-12.838423
-14.141830
-18.213560
-23.939887
-29.744588
-34.263090
-36.852449
-37.447371
-36.229334
-33.450714
-29.416546
-24.610346
-19.737741
-15.490015
-12.335395
-10.621468
-10.663606
-12.486999
-15.545118
-18.822015
-21.174433
-21.839429
-20.769171
-18.413958
-15.428886
-12.661503
-11.158385
-11.847335
-15.084507
-20.323533
-26.117918
-30.848772
-33.503811
-33.852148
-32.252055
-29.186522
-24.967888
-20.010659
-15.126708
-11.298188
-9.251011
-9.121865
-10.329800
-11.868681
-12.734828
-12.315461
-10.624368
-8.159409
-5.597898
-3.431210
-1.732461
-0.300000
1.123025
2.755129
4.707898
6.885142
9.020294
11.027570
13.135362
15.241562
16.387117
15.360010
11.604275
5.649232
-0.938003
-6.286800
-9.039930
-8.763480
-6.016767
-1.913443
2.430618
6.293578
9.522498
12.294226
14.803034
17.109184
19.076445
20.379174
20.570072
19.312848
16.691826
13.460775
11.005285
10.627649
12.804399
17.053485
22.098627
26.232841
27.754941
25.521681
19.476304
10.852051
1.971341
-4.741718
-7.812557
-7.124562
-3.865993
0.132723
3.188159
4.353199
3.712473
2.101487
0.707697
0.771707
3.214502
8.045036
14.059092
19.591355
23.478211
25.447098
26.035190
25.957736
25.548417
24.827485
23.783868
22.563489
21.509221
20.979684
21.131936
21.804230
22.489963
22.497617
21.246208
18.678545
15.457338
12.489754
10.367387
9.239493
8.872289
8.748758
8.207985
6.719261
4.129066
0.655186
-3.262735
-7.205174
-10.907189
-14.093909
-16.350450
-17.339565
-17.030534
-15.628060
-13.507231
-11.402151
-10.442498
-11.527662
-14.683109
-19.125744
-23.693015
-27.400860
-29.731717
-30.270739
-28.414822
-23.836597
-17.014975
-9.116369
-1.642842
3.893524
6.373130
5.683678
3.061516
0.434061
-0.452065
1.525958
6.694439
14.619907
24.181751
33.735799
41.470656
46.128414
47.562610
46.454707
43.735730
40.139010
36.078331
32.084204
29.141398
28.240135
29.678174
32.665925
35.431632
36.223783
34.276318
29.832052
23.788118
17.293453
11.413364
6.895401
4.031715
2.719991
2.556205
2.900202
3.041048
2.612270
1.880238
1.410188
1.551517
2.144982
2.535435
2.075411
0.588074
-1.722638
-4.563825
-7.778732
-11.418800
-15.573127
-20.214777
-25.278986
-30.769414
-36.687176
-42.898471
-49.076484
-54.750753
-59.529279
-63.295982
-66.157127
-68.251325
-69.497224
-69.475892
-67.708770
-64.017586
-58.690482
-52.477983
-46.338564
-41.118817
-37.313723
-35.004429
