EVENT_NAME: None
EVENT_ID: INT-20230206_0000222
EVENT_DATE_YYYYMMDD: 20230206
EVENT_TIME_HHMMSS: 102449
EVENT_LATITUDE_DEGREE: 38.1100
EVENT_LONGITUDE_DEGREE: 37.2400
EVENT_DEPTH_KM: 10.0
HYPOCENTER_REFERENCE: EMSC-CSEM
MAGNITUDE_W: 7.5
MAGNITUDE_W_REFERENCE: EMSC-CSEM
MAGNITUDE_L: 
MAGNITUDE_L_REFERENCE: 
FOCAL_MECHANISM: Strike-slip faulting
NETWORK: TK
STATION_CODE: 4620
STATION_NAME: None
STATION_LATITUDE_DEGREE: 37.585680
STATION_LONGITUDE_DEGREE: 36.898450
STATION_ELEVATION_M: 698
LOCATION: 
SENSOR_DEPTH_M: 0.0
VS30_M/S: 
SITE_CLASSIFICATION_EC8: B (inferred from topography)
MORPHOLOGIC_CLASSIFICATION: 
EPICENTRAL_DISTANCE_KM: 65.5
EARTHQUAKE_BACKAZIMUTH_DEGREE: 27.2
DATE_TIME_FIRST_SAMPLE_YYYYMMDD_HHMMSS: 20230206_102433.001
DATE_TIME_FIRST_SAMPLE_PRECISION: milliseconds
SAMPLING_INTERVAL_S: 0.005000
NDATA: 21000
DURATION_S: 105.000
STREAM: HNN
UNITS: cm/s^2
INSTRUMENT: HN
INSTRUMENT_ANALOG/DIGITAL: D
INSTRUMENTAL_FREQUENCY_HZ: 
INSTRUMENTAL_DAMPING: 
FULL_SCALE_G: 
N_BIT_DIGITAL_CONVERTER: 
PGA_CM/S^2: 66.769856
TIME_PGA_S: 50.605000
BASELINE_CORRECTION: BASELINE REMOVED
FILTER_TYPE: BUTTERWORTH
FILTER_ORDER: 2
LOW_CUT_FREQUENCY_HZ: 0.030
HIGH_CUT_FREQUENCY_HZ: 40.000
LATE/NORMAL_TRIGGERED: NT
DATABASE_VERSION: 0.5
HEADER_FORMAT: DYNA 1.2
DATA_TYPE: ACCELERATION
PROCESSING: manual (Paolucci et al., 2011)
DATA_TIMESTAMP_YYYYMMDD_HHMMSS: 20251106_223024.265
DATA_LICENSE: D (network default license)
DATA_CITATION: Luzi L., Lanzano G., Felicetta C., D Amico M. C., Russo E., Sgobba S., Pacor, F., & ORFEUS Working Group 5 (2020). Engineering Strong Motion Database (ESM) (Version 2.0). Istituto Nazionale di Geofisica e Vulcanologia (INGV). https://doi.org/10.13127/ESM.2
DATA_CREATOR: ESM working group
ORIGINAL_DATA_MEDIATOR_CITATION: afad
ORIGINAL_DATA_MEDIATOR: afad
ORIGINAL_DATA_CREATOR_CITATION: Disaster And Emergency Management Authority. (1973). Turkish National Strong Motion Network. Department of Earthquake, Disaster and Emergency Management Authority. https://doi.org/10.7914/SN/TK http://www.fdsn.org/networks/detail/TK/
ORIGINAL_DATA_CREATOR: network: TK (Turkish National Strong Motion Network (TNSMN)); owner: Disaster and Emergency Management Authority (AFAD)
USER1: 
USER2: 
USER3: 
USER4: 
USER5: 
[...]
10.779918
15.111760
18.532530
20.822498
21.824602
21.516171
20.085011
17.935961
15.637215
13.775679
12.806608
12.969133
14.239723
16.337282
18.772034
20.980534
22.471359
22.907581
22.133053
20.118258
16.907681
12.633906
7.547781
2.013817
-3.520006
-8.583637
-12.757980
-15.753156
-17.473731
-18.034668
-17.744182
-17.035116
-16.379981
-16.201972
-16.791558
-18.246953
-20.442380
-23.058604
-25.635891
-27.646926
-28.593247
-28.142780
-26.241899
-23.102735
-19.130640
-14.816605
-10.652898
-7.116663
-4.648656
-3.558396
-3.922638
-5.561935
-8.072254
-10.927438
-13.594698
-15.625720
-16.719493
-16.730706
-15.656580
-13.608622
-10.785033
-7.450307
-3.914678
-0.506350
2.456071
4.688498
5.977646
6.242090
5.575439
4.206832
2.426514
0.506110
-1.352682
-2.997350
-4.288504
-5.096797
-5.331912
-5.009647
-4.302762
-3.505821
-2.957255
-2.937153
-3.588812
-4.916990
-6.805052
-9.021400
-11.237864
-13.104533
-14.337232
-14.771429
-14.380077
-13.230059
-11.427720
-9.086479
-6.307108
-3.176960
0.203131
3.639126
6.780467
9.168537
10.347701
10.025585
8.205621
5.196737
1.560418
-2.006861
-4.811601
-6.305910
-6.201709
-4.492493
-1.426861
2.568230
6.968813
11.219253
14.798943
17.306845
18.537491
18.502010
17.415286
15.635677
13.584999
11.649029
10.078943
8.925363
8.016046
7.032750
5.623103
3.516781
0.621900
-2.938453
-6.831597
-10.596778
-13.762940
-15.991367
-17.187399
-17.494317
-17.226328
-16.752818
-16.402192
-16.447960
-17.114006
-18.551601
-20.803808
-23.782744
-27.268375
-30.946067
-34.444094
-37.347448
-39.224193
-39.714648
-38.633645
-36.030184
-32.201735
-27.625962
-22.868429
-18.488373
-14.942922
-12.491894
-11.132800
-10.634530
-10.615732
-10.650774
-10.362760
-9.469463
-7.818065
-5.421011
-2.468167
0.742835
3.905255
6.792244
9.311296
11.472872
13.321432
14.853286
15.970807
16.545390
16.516007
15.963387
15.125173
14.290486
13.685321
13.439995
13.583623
14.028031
14.560480
14.890245
14.713308
13.766828
11.864891
8.907349
4.898811
-0.001209
-5.460870
-11.076447
-16.482762
-21.373069
-25.488087
-28.632770
-30.726122
-31.879210
-32.432183
-32.846572
-33.546899
-34.773403
-36.477739
-38.334508
-39.832707
-40.476865
-39.975660
-38.284139
-35.558187
-32.029930
-27.912400
-23.431566
-18.879805
-14.589469
-10.855810
-7.833677
-5.476592
-3.607092
-2.020999
-0.559361
0.841854
2.123569
3.097550
3.505781
3.121195
1.881390
-0.025353
-2.242037
-4.385279
-6.184193
-7.581365
-8.735076
-9.957402
-11.561226
-13.700767
-16.294803
-19.034098
-21.530108
-23.471444
-24.682464
-25.149228
-25.051379
-24.774335
-24.821883
-25.667995
-27.566134
-30.421611
-33.869431
-37.403112
-40.454860
-42.461435
-42.973832
-41.790848
-39.065926
-35.323809
-31.254285
-27.458824
-24.292979
-21.794080
-19.745539
-17.801738
-15.664142
-13.233223
-10.634458
-8.160143
-6.112240
-4.665997
-3.871884
-3.705932
-4.107750
-4.992124
-6.225306
-7.603674
-8.877285
-9.807256
-10.263185
-10.307190
-10.187313
-10.262978
-10.842344
-12.036631
-13.746738
-15.715999
-17.633157
-19.234157
-20.360910
-20.977163
-21.109240
-20.778185
-19.984393
-18.735556
-17.115992
-15.317052
-13.536432
-11.864878
-10.280505
-8.704604
-7.097880
-5.535217
-4.192118
-3.290281
-3.011411
-3.406278
-4.332782
-5.457148
-6.397221
-6.878668
-6.782738
-6.129653
-5.014409
-3.563158
-1.957355
-0.444499
0.749769
1.519616
1.881835
1.912956
1.630920
0.920332
-0.377935
-2.326671
-4.796981
-7.448736
-9.856495
-11.661161
-12.653400
-12.801484
-12.204562
-11.030811
-9.467692
-7.677386
-5.750309
-3.665785
-1.292706
1.571944
5.095930
9.293469
13.960773
18.682798
22.974592
26.432553
28.784986
29.888506
29.699255
28.274375
25.843964
22.858036
19.885822
17.460192
15.935172
15.393294
15.673576
16.457547
17.403963
18.268119
18.930778
19.367242
19.551780
19.386219
18.747940
17.576736
15.938419
14.048595
12.216367
10.754556
9.873991
9.601463
9.786970
10.168234
10.500689
10.670079
10.694231
10.669415
10.680444
10.728139
10.730624
10.560776
10.109120
9.336898
8.286659
7.077195
5.890699
4.950103
4.466476
4.575828
5.282411
6.422319
7.681072
8.636501
8.834685
7.890323
5.620540
2.157024
-2.057464
-6.352798
-10.025023
-12.536721
-13.630214
-13.370947
-12.082556
-10.252163
-8.435311
-7.163814
-6.851570
-7.707385
-9.691432
-12.520875
-15.774388
-19.017021
-21.883035
-24.116043
-25.548783
-26.087164
-25.746076
-24.682968
-23.157518
-21.450549
-19.768160
-18.192094
-16.752867
-15.510385
-14.535254
-13.851913
-13.400170
-13.035365
-12.586793
-11.895994
-10.763927
-8.905972
-6.033403
-1.988079
3.133748
8.923169
14.757036
19.935132
23.790310
25.793692
25.677616
23.528574
19.749895
14.955130
9.810198
4.910954
0.779581
-2.129335
-3.502893
-3.250144
-1.495975
1.466266
5.237867
9.367196
13.376888
16.791973
19.191166
20.258408
19.815638
17.862968
14.631939
10.581298
6.229350
1.983955
-1.862371
-5.061841
-7.340354
-8.402658
-8.098874
-6.573096
-4.202781
-1.461070
1.209088
3.486964
5.210015
6.382325
7.143371
7.719305
8.356758
9.259889
10.550002
12.234759
14.196982
16.218033
18.080059
19.673909
21.031704
22.298941
23.619866
25.013621
26.316688
27.195054
27.279162
26.317388
24.255998
21.249698
17.564162
13.465940
9.177241
4.878217
0.761475
-2.921003
-5.878178
-7.836153
-8.621447
-8.234682
-6.871808
-4.909482
-2.828196
-1.100565
-0.053201
0.227137
-0.159695
-1.022418
-2.143671
-3.314396
-4.337857
-5.041242
-5.319490
-5.168790
-4.666487
-3.957034
-3.288874
-3.019541
-3.474921
-4.778706
-6.780645
-9.088917
-11.270225
-13.057592
-14.416870
-15.522739
-16.622214
-17.859727
-19.116905
-19.952189
-19.801425
-18.241030
-15.152005
-10.774519
-5.590898
-0.190386
4.788761
8.711303
11.070629
11.622773
10.438430
7.891455
4.556614
1.089550
-1.871630
-3.790700
-4.304129
-3.279134
-0.833818
2.668219
6.676571
10.552893
13.730838
15.867942
16.899017
17.013065
16.522624
15.734070
14.912193
14.285378
14.054707
14.380388
15.326590
16.816395
18.658028
20.600174
22.391519
23.826351
24.753250
25.064411
24.671076
23.494279
21.502701
18.753069
15.385389
11.591883
7.571729
3.506637
-0.407034
-3.929227
-6.813094
-8.865611
-9.996892
-10.247698
-9.768660
-8.771836
-7.459794
-5.982532
-4.487061
-3.186324
-2.371295
-2.360245
-3.359623
-5.354188
-8.156327
-11.502801
-15.119945
-18.763597
-22.234838
-25.373738
-28.008576
-29.906748
-30.792255
-30.424672
-28.753692
-26.024387
-22.680485
-19.215903
-16.088144
-13.674662
-12.252227
-11.962274
-12.754300
-14.372715
-16.480777
-18.798138
-21.127544
-23.315799
-25.175994
-26.452213
-26.913353
-26.462133
-25.149614
-23.134410
-20.604175
-17.714833
-14.595571
-11.366128
-8.127453
-4.949114
-1.883989
1.008515
3.651540
5.953803
7.837363
9.274025
10.318271
11.122672
11.900233
12.855417
14.088643
15.526158
16.946999
18.048555
18.527140
18.155136
16.838979
14.649841
11.789947
8.537335
5.192150
2.037524
-0.672315
-2.724767
-3.981817
-4.406677
-4.050646
-3.032758
-1.532588
0.227484
2.041806
3.775177
5.352922
6.725762
7.843010
8.657611
9.182178
9.513367
9.732053
9.796050
9.553133
8.821494
7.505457
5.665764
3.452055
1.008561
-1.554320
-4.144895
-6.646525
-8.894986
-10.728130
-12.051990
-12.873281
-13.299639
-13.488612
-13.581892
-13.647834
-13.647692
-13.462709
-12.950020
-12.013865
-10.652444
-8.936037
-6.981641
-4.975307
-3.192148
-1.942949
-1.480189
-1.892572
-3.053548
-4.712084
-6.595893
-8.419065
-9.866525
-10.629973
-10.470699
-9.276748
-7.085697
-4.034260
-0.309159
3.843454
8.114757
12.204095
15.889213
19.013896
21.453859
23.122158
24.008322
24.237162
24.080955
23.840420
23.719381
23.815065
24.157534
24.748032
25.567836
26.536731
27.482925
28.192399
28.484889
28.270687
27.572572
26.481485
25.101804
23.525747
21.821258
20.022057
18.117982
16.057264
13.765390
11.194717
8.370712
5.395442
2.427636
-0.358328
-2.813706
-4.838189
-6.383445
-7.426844
-7.951270
-7.966528
-7.540131
-6.802490
-5.925880
-5.065075
-4.301360
-3.631462
-2.977262
-2.211162
-1.190168
0.194599
1.971410
4.066550
6.295519
8.371165
9.928168
10.587209
10.036131
8.109821
4.838478
0.410086
-4.891368
-10.730113
-16.739870
-22.516170
-27.616673
-31.611382
-34.155076
-35.061048
-34.349304
-32.223485
-29.020570
-25.153746
-21.067556
-17.216579
-14.035513
-11.862856
-10.852156
-10.917623
-11.735607
-12.870927
-13.940391
-14.748023
-15.359593
-16.037927
-17.126432
-18.915558
-21.527267
-24.861990
-28.592060
-32.236038
-35.260381
-37.188980
-37.702780
-36.704313
-34.352743
-31.027222
-27.235668
-23.447606
-19.950137
-16.844365
-14.103429
-11.654858
-9.442759
-7.439460
-5.657246
-4.191734
-3.242222
-3.028835
-3.686017
-5.208566
-7.448104
-10.177176
-13.146081
-16.076933
-18.661677
-20.636321
-21.869160
-22.392375
-22.390224
-22.133620
-21.911872
-21.987951
-22.546093
-23.609270
-24.990450
-26.378782
-27.467644
-28.051726
-28.074328
-27.586230
-26.691560
-25.533041
-24.294318
-23.194254
-22.462641
-22.282287
-22.731233
-23.766641
-25.244636
-26.988958
-28.848399
-30.692706
-32.410992
-33.974560
-35.502356
-37.238620
-39.459376
-42.299153
-45.623012
-49.095152
-52.310998
-54.904799
-56.620178
-57.327649
-57.025646
-55.827641
-53.933998
-51.578518
-48.994306
-46.439645
-44.201581
-42.490955
-41.341965
-40.651584
-40.284739
-40.175397
-40.335589
-40.670172
-40.829466
-40.354432
-38.908812
-36.416905
-33.089937
-29.288851
-25.385312
-21.745905
-18.747331
-16.739121
-15.982051
-16.592577
-18.496827
-21.411579
-24.866785
-28.328116
-31.347834
-33.680988
-35.337836
-36.496308
-37.373940
-38.123050
-38.769118
-39.230902
-39.359379
-38.963298
-37.833114
-35.793375
-32.780024
-28.930731
-24.621171
-20.337960
-16.510969
-13.404795
-11.072193
-9.406529
-8.220500
-7.318143
-6.555714
-5.875912
-5.307026
-4.889481
-4.599424
-4.341340
-3.985369
-3.441892
-2.711337
-1.841281
-0.862165
0.234461
1.478195
2.859133
4.289712
5.654967
6.870252
7.871449
8.585047
8.927705
8.832998
8.301434
7.426790
6.349098
5.209175
4.168328
3.423896
3.139057
3.349462
3.921451
4.576139
5.023109
5.086561
4.711709
3.927625
2.817014
1.499770
0.120620
-1.177421
-2.307488
-3.275814
-4.143715
-4.973749
-5.811633
-6.691887
-7.657195
-8.763223
-10.044776
-11.489095
-13.065013
-14.762660
-16.594188
-18.562249
-20.595565
-22.504986
-24.029111
-24.917483
-25.020408
-24.350417
-23.060779
-21.384044
-19.541313
-17.665952
-15.796384
-13.912048
-12.014455
-10.192912
-8.607032
-7.431958
-6.787485
-6.681732
-7.004898
-7.549935
-8.064199
-8.308436
-8.108769
-7.392064
-6.182926
-4.590465
-2.795417
-1.029309
0.469660
1.494551
1.872948
1.473502
0.256025
-1.672002
-4.046458
-6.488438
-8.623450
-10.184513
-11.007331
-11.002070
-10.169261
-8.627917
-6.609275
-4.422688
-2.387706
-0.766809
0.275114
0.703271
0.632936
0.309289
-0.008793
-0.161812
-0.094411
0.188865
0.677504
1.378701
2.276995
3.303574
4.384000
5.490801
6.618932
7.725421
8.669715
9.191367
8.982593
7.788792
5.492536
2.169604
-1.914032
-6.336198
-10.591756
-14.174083
-16.654759
-17.767458
-17.492139
-16.102502
-14.093353
-12.053385
-10.508125
-9.788185
-9.987845
-10.963238
-12.373158
-13.757460
-14.686278
-14.900501
-14.347718
-13.156828
-11.552664
-9.775446
-8.051252
-6.574647
-5.473007
-4.766908
-4.353135
-4.008730
-3.442758
-2.384632
-0.717130
1.422149
3.685740
5.638390
6.930431
7.423849
7.159409
6.287020
5.047047
3.775270
2.880145
2.767538
3.678111
5.555978
8.096113
10.863226
13.418668
15.409484
16.580968
16.789910
16.072125
14.693585
13.076971
11.667066
10.770045
10.435389
10.482212
10.598494
10.498235
10.055955
9.323006
8.470706
7.666514
6.993462
6.529314
6.449273
7.017095
8.500572
11.028041
14.489534
18.600592
23.008462
27.358451
31.338961
34.723451
37.400869
39.358174
40.638212
41.284363
41.306343
40.711954
39.555771
37.964598
36.136795
34.294487
32.616536
31.175493
29.918508
28.756614
27.663622
26.683223
25.872020
25.186404
24.409630
23.240038
21.439443
18.968494
16.055619
13.108770
10.580529
8.853546
8.162846
8.581927
10.024453
12.250722
14.898582
17.577116
19.950784
21.741286
22.718173
22.746324
21.852965
20.253162
18.303975
16.328273
14.458259
12.657641
10.806003
8.766269
6.424896
3.709778
0.620783
-2.705808
-5.955035
-8.698640
-10.506654
-11.068544
-10.279883
-8.231288
-5.158635
-1.378837
2.761082
6.906219
10.724723
13.981559
16.605355
18.678985
20.387334
21.929552
23.442411
24.978280
26.502634
27.897169
28.970808
29.498491
29.268554
28.127168
26.019449
23.021213
19.354308
15.355483
11.421023
7.929915
5.175346
3.338513
2.483840
2.576601
3.510036
5.143363
7.336648
9.970121
12.962349
16.291075
19.994983
24.116102
28.629558
33.408775
38.231434
42.853457
47.084899
50.811913
53.998158
56.681269
58.957471
60.930543
62.660529
64.151970
65.364029
66.237710
66.719839
66.769856
66.363758
65.504445
64.227832
62.595451
60.699027
58.702650
56.871832
55.516928
54.894935
55.099355
55.992434
57.264279
58.539233
59.486076
59.897796
59.698466
58.929310
57.733021
56.324710
54.916608
53.635316
52.484877
51.366784
50.194731
48.992948
47.860142
46.885352
46.085725
45.394905
44.742420
44.132921
43.636116
43.330870
43.231232
43.244754
43.228115
43.073937
42.776189
42.447771
42.239812
42.246011
42.464902
42.808470
43.167769
43.475319
43.707590
43.853894
43.865620
43.630404
43.023072
41.969761
40.466547
38.564798
36.326849
33.798194
31.040780
28.171586
25.352178
22.757285
20.539922
18.798296
17.548029
16.708794
16.137765
15.692681
15.317830
15.095763
15.183860
15.718468
16.753305
18.243847
20.105400
22.271825
24.689640
27.282608
29.912441
32.360910
34.368075
35.689620
36.153213
35.703435
34.411520
32.452806
30.033015
27.324500
24.478313
21.664553
19.098057
17.022757
15.618158
14.916224
14.819519
15.151019
15.690540
16.209362
16.526218
16.560578
16.340296
15.972565
15.568230
15.180279
14.816866
14.469068
14.111011
13.703468
13.238013
12.774811
12.414855
12.250466
12.328598
12.631698
13.083319
13.555189
13.873038
13.849344
13.379381
12.514744
11.411183
10.243698
9.166581
8.309836
7.805017
7.793724
8.375230
9.550660
11.225511
13.244597
15.450572
17.736693
20.061790
22.435156
24.856404
27.254183
29.468049
31.262957
32.391384
32.666083
32.014506
30.503037
28.299436
25.624566
22.728184
19.873944
17.314873
15.257243
13.816323
12.992547
12.710018
12.866544
13.355120
14.072067
14.920025
15.803195
16.604776
17.172268
17.345540
17.001696
16.093098
14.657706
12.771272
10.501704
7.924739
5.161461
2.404279
-0.077641
-1.977542
-3.015568
-3.023499
-2.003492
-0.096515
2.477043
5.458864
8.564956
11.461266
13.763519
15.127954
15.348684
14.377888
12.313100
9.372983
5.863358
2.114754
-1.579062
-4.983084
-7.914308
-10.208785
-11.713678
-12.356122
-12.205334
-11.440547
-10.295224
-9.033387
-7.934814
-7.255094
-7.172077
-7.739323
-8.871404
-10.400593
-12.133603
-13.850711
-15.304099
-16.276737
-16.652606
-16.437293
-15.736083
-14.678946
-13.356936
-11.832599
-10.171875
-8.456167
-6.776759
-5.213579
-3.818179
-2.620478
-1.646211
-0.933510
-0.532851
-0.465719
-0.677136
-1.024283
-1.306818
-1.361721
-1.141507
-0.687131
-0.066637
0.661927
1.448740
2.194214
2.707743
2.758702
2.147303
0.734666
-1.546596
-4.684112
-8.577858
-13.046076
-17.845889
-22.716835
-27.418912
-31.738536
-35.492000
-38.550618
-40.862886
-42.441607
-43.341260
-43.643190
-43.440840
-42.813104
-41.797989
-40.387967
-38.545520
-36.246118
-33.510789
-30.390297
-26.944148
-23.248548
-19.401929
-15.490004
-11.544638
-7.541649
-3.434622
0.769348
4.960881
8.987619
12.737290
16.168134
19.295236
22.129777
24.633588
26.750873
28.460306
29.798034
30.851820
31.715582
32.441276
33.014442
33.338463
33.227118
32.419583
30.655483
27.760830
23.701106
18.607995
12.765583
6.577883
0.505213
-5.022942
-9.714467
-13.475646
-16.331388
-18.320456
-19.464957
-19.784848
-19.339444
-18.252756
-16.685384
-14.798471
-12.741408
-10.636174
-8.538171
-6.425639
-4.286824
-2.206928
-0.346313
1.133300
2.147606
2.713487
2.849817
2.489468
1.541735
0.004530
-1.963861
-4.034287
-5.804147
-6.912583
-7.107706
-6.281518
-4.467174
-1.818900
1.430935
5.014958
8.653377
12.063117
14.955637
17.043201
18.080347
17.921998
16.582056
14.264256
11.313095
8.134727
5.113102
2.542349
0.601182
-0.655962
-1.289998
-1.449657
-1.307543
-1.002027
-0.632484
-0.276338
-0.004261
0.124874
0.107849
0.033297
0.052056
0.312242
0.876277
1.667553
2.514487
3.231330
3.697784
3.905777
3.931361
3.894781
3.948755
4.265078
4.979387
6.126963
7.610751
9.202966
10.608768
11.550583
11.847305
11.464849
10.489628
9.067430
7.331717
5.369923
3.282055
1.230658
-0.616975
-2.167750
-3.413230
-4.393310
-5.123438
-5.544055
-5.554095
-5.065668
-4.031294
-2.449856
-0.354769
2.193582
5.091345
8.164764
11.157479
13.758407
15.714195
16.930580
17.457659
17.429996
17.006004
16.325284
15.496727
14.591971
13.634844
12.601158
11.452514
10.170457
8.759670
7.245589
5.681797
4.142697
2.667384
1.209104
-0.343183
-2.109525
-4.152590
-6.431088
-8.806246
-11.058017
-12.891044
-13.959180
-13.958777
-12.733162
-10.323770
-6.970428
-3.029803
1.118004
5.126914
8.724191
11.736830
14.104454
15.856428
17.077917
17.882319
18.396945
18.767743
19.153016
19.676448
20.383920
21.252853
22.216555
23.176090
24.008889
24.590409
24.821613
24.647346
24.052050
23.014365
21.478313
19.400638
16.800599
13.737952
10.269490
6.436400
2.285106
-2.076553
-6.452989
-10.632797
-14.457542
-17.787534
-20.445989
-22.234960
-23.013445
-22.834160
-22.023931
-21.058891
-20.384527
-20.298866
-20.901856
-22.140491
-23.871421
-25.895372
-27.973296
-29.832011
-31.174441
-31.714484
-31.234519
-29.667100
-27.146729
-23.954685
-20.433745
-16.928895
-13.755678
-11.200933
-9.519906
-8.898621
-9.405065
-10.955079
-13.303781
-16.100716
-18.980400
-21.675991
-24.091415
-26.239512
-28.143393
-29.776545
-31.049889
-31.869289
-32.194978
-32.049433
-31.509440
-30.708698
-29.840685
-29.133234
-28.797438
-28.944305
-29.518477
-30.316921
-31.050167
-31.434913
-31.277334
-30.503722
-29.156091
-27.342992
-25.189286
-22.821380
-20.372526
-17.988969
-15.798883
-13.811065
-11.859718
-9.747225
-7.436242
-5.141483
-3.300406
-2.349003
-2.507377
-3.769510
-5.976551
-8.901740
-12.312559
-15.989509
-19.726279
-23.318495
-26.562933
