EVENT_NAME: None
EVENT_ID: INT-20230206_0000222
EVENT_DATE_YYYYMMDD: 20230206
EVENT_TIME_HHMMSS: 102449
EVENT_LATITUDE_DEGREE: 38.1100
EVENT_LONGITUDE_DEGREE: 37.2400
EVENT_DEPTH_KM: 10.0
HYPOCENTER_REFERENCE: EMSC-CSEM
MAGNITUDE_W: 7.5
MAGNITUDE_W_REFERENCE: EMSC-CSEM
MAGNITUDE_L: 
MAGNITUDE_L_REFERENCE: 
FOCAL_MECHANISM: Strike-slip faulting
NETWORK: TK
STATION_CODE: 4409
STATION_NAME: None
STATION_LATITUDE_DEGREE: 38.560630
STATION_LONGITUDE_DEGREE: 37.490760
STATION_ELEVATION_M: 1055
LOCATION: 
SENSOR_DEPTH_M: 0.0
VS30_M/S: 
SITE_CLASSIFICATION_EC8: B (inferred from topography)
MORPHOLOGIC_CLASSIFICATION: 
EPICENTRAL_DISTANCE_KM: 54.6
EARTHQUAKE_BACKAZIMUTH_DEGREE: 203.7
DATE_TIME_FIRST_SAMPLE_YYYYMMDD_HHMMSS: 20230206_102431.871
DATE_TIME_FIRST_SAMPLE_PRECISION: milliseconds
SAMPLING_INTERVAL_S: 0.005000
NDATA: 21000
DURATION_S: 105.000
STREAM: HNN
UNITS: cm/s^2
INSTRUMENT: HN
INSTRUMENT_ANALOG/DIGITAL: D
INSTRUMENTAL_FREQUENCY_HZ: 
INSTRUMENTAL_DAMPING: 
FULL_SCALE_G: 
N_BIT_DIGITAL_CONVERTER: 
PGA_CM/S^2: 258.020031
TIME_PGA_S: 48.145000
BASELINE_CORRECTION: BASELINE REMOVED
FILTER_TYPE: BUTTERWORTH
FILTER_ORDER: 2
LOW_CUT_FREQUENCY_HZ: 0.030
HIGH_CUT_FREQUENCY_HZ: 40.000
LATE/NORMAL_TRIGGERED: NT
DATABASE_VERSION: 0.5
HEADER_FORMAT: DYNA 1.2
DATA_TYPE: ACCELERATION
PROCESSING: manual (Paolucci et al., 2011)
DATA_TIMESTAMP_YYYYMMDD_HHMMSS: 20251106_223019.800
DATA_LICENSE: D (network default license)
DATA_CITATION: Luzi L., Lanzano G., Felicetta C., D Amico M. C., Russo E., Sgobba S., Pacor, F., & ORFEUS Working Group 5 (2020). Engineering Strong Motion Database (ESM) (Version 2.0). Istituto Nazionale di Geofisica e Vulcanologia (INGV). https://doi.org/10.13127/ESM.2
DATA_CREATOR: ESM working group
ORIGINAL_DATA_MEDIATOR_CITATION: afad
ORIGINAL_DATA_MEDIATOR: afad
ORIGINAL_DATA_CREATOR_CITATION: Disaster And Emergency Management Authority. (1973). Turkish National Strong Motion Network. Department of Earthquake, Disaster and Emergency Management Authority. https://doi.org/10.7914/SN/TK http://www.fdsn.org/networks/detail/TK/
ORIGINAL_DATA_CREATOR: network: TK (Turkish National Strong Motion Network (TNSMN)); owner: Disaster and Emergency Management Authority (AFAD)
USER1: 
USER2: 
USER3: 
USER4: 
USER5: 
[...]
9.243366
14.334621
19.408905
23.761484
26.989141
29.106937
30.499954
31.612911
32.644312
33.515784
34.008970
34.031305
33.785761
33.600411
33.688778
34.083776
34.706318
35.552386
36.801932
38.630258
40.948869
43.293645
44.874726
44.893982
42.900960
38.985196
33.811004
28.377602
23.694987
20.479742
18.938014
18.770309
19.284087
19.614818
18.959628
16.761194
12.840910
7.430460
1.153110
-5.078852
-10.233269
-13.448179
-14.334788
-13.143704
-10.751342
-8.281938
-6.662479
-6.370062
-7.372642
-9.364139
-12.006856
-14.951239
-17.780157
-20.020096
-21.245503
-21.294055
-20.400799
-19.009242
-17.496418
-16.018981
-14.499606
-12.822629
-11.020711
-9.260152
-7.757550
-6.717146
-6.280580
-6.467340
-7.135114
-8.044474
-9.006282
-10.083264
-11.633785
-13.905490
-16.597602
-18.871885
-19.705794
-18.595856
-16.045872
-13.158339
-10.938882
-9.795745
-9.389498
-9.115407
-8.643258
-8.021193
-7.529242
-7.353578
-7.313955
-6.888818
-5.439385
-2.661861
1.018580
4.503117
6.424035
5.985113
3.648103
0.914040
-0.382776
0.888669
4.403444
8.696387
11.930102
12.799969
11.166891
7.891007
4.349718
1.844458
1.116007
2.197986
4.448138
6.811424
8.196427
7.939414
6.133139
3.444921
0.676692
-1.794707
-4.319462
-7.506911
-11.576404
-16.069570
-19.984358
-22.553623
-23.949141
-25.143947
-27.354587
-31.286525
-36.626293
-42.306941
-47.016694
-49.627365
-49.483616
-46.488852
-41.141357
-34.513258
-28.078674
-23.165749
-20.384011
-19.450358
-19.364700
-19.085610
-18.164684
-16.790970
-15.530165
-14.873191
-14.892547
-15.285550
-15.520201
-14.918648
-12.750594
-8.487414
-2.115929
5.664093
13.509536
20.077065
24.683149
27.389225
28.715715
29.047729
28.253704
26.080091
22.697588
18.810168
15.408403
13.166343
12.026299
11.565598
11.554155
12.172656
13.899008
16.980585
21.001938
25.074954
28.259063
29.927139
29.940375
28.456711
25.703748
21.976502
17.719193
13.525725
9.996150
7.374237
5.285974
2.998652
-0.099756
-4.038427
-8.085939
-11.260358
-12.947322
-13.119685
-12.278918
-11.127551
-10.293684
-10.326457
-11.662174
-14.281183
-17.402066
-19.725309
-20.025182
-17.972944
-14.599329
-11.576973
-10.173955
-10.598733
-11.895809
-12.795566
-12.631406
-11.539550
-10.239784
-9.495731
-9.675520
-10.763806
-12.486758
-14.308049
-15.375293
-14.619655
-11.093878
-4.704024
3.203063
10.174448
13.552855
11.872185
5.908043
-1.735392
-7.728243
-9.488773
-6.321687
0.646764
9.092122
16.520450
21.247515
22.891137
22.418061
21.397732
21.084882
21.855057
23.117533
24.072936
24.485689
24.686469
25.176901
26.074166
26.823931
26.660914
25.186185
22.504826
19.091294
15.453100
11.861167
8.380427
4.995710
1.708992
-1.387723
-4.068497
-6.009060
-7.006655
-7.180725
-6.888947
-6.452021
-5.744334
-4.004292
-0.360294
5.455088
12.697497
19.626696
24.319226
25.622755
23.683164
20.033443
16.881275
16.106516
18.278324
22.083817
24.949637
24.225611
18.641512
9.294413
-0.935427
-8.649678
-11.459983
-9.107919
-3.268400
3.261797
7.803460
8.881009
6.523241
2.061304
-2.694633
-6.288844
-7.954048
-7.657028
-5.878729
-3.384854
-1.084448
0.167085
-0.046254
-1.430211
-3.267229
-4.903738
-6.123347
-7.206651
-8.392463
-9.407382
-9.754492
-9.268636
-8.464593
-8.466301
-10.166808
-13.427548
-17.172455
-19.949106
-20.741762
-19.536135
-17.055679
-14.216563
-11.651985
-9.456187
-7.378386
-5.154008
-2.786863
-0.693913
0.466128
0.103033
-1.941462
-5.165205
-8.618466
-11.322589
-12.764846
-13.193330
-13.307125
-13.745247
-14.677164
-15.662858
-16.061893
-15.497565
-13.953157
-11.677527
-9.016182
-6.330846
-4.090572
-2.842378
-2.753424
-3.206334
-3.081995
-1.429184
1.709408
4.936568
6.474791
5.399315
2.131073
-1.743648
-4.548313
-5.507079
-4.753472
-2.972452
-1.065520
0.069089
-0.324972
-2.636008
-6.496599
-10.623859
-13.466422
-14.029995
-12.273181
-9.056623
-5.442301
-2.053073
0.842461
2.988937
3.954168
3.237310
0.855613
-2.178079
-4.196849
-3.633473
0.066581
5.902670
11.904138
16.094207
17.305140
15.563830
11.595903
6.198899
0.067843
-6.133955
-11.639792
-15.616205
-17.592757
-17.850491
-17.269881
-16.921908
-17.566375
-19.300840
-21.680465
-24.046152
-25.938773
-27.372536
-28.648663
-29.961396
-30.983928
-30.756447
-28.342514
-23.572579
-17.184710
-10.514969
-4.722772
-0.216640
3.036603
5.008184
5.502034
4.319653
1.577195
-2.158843
-6.264919
-10.487711
-14.915648
-19.731013
-24.889378
-29.886854
-33.829192
-35.711707
-34.976497
-32.026369
-28.227881
-25.435649
-24.835015
-26.003916
-27.295564
-26.829578
-23.650170
-18.378810
-12.490591
-7.280704
-3.346967
-0.492248
1.911235
4.555742
8.110568
13.152336
19.854728
27.660032
35.277461
40.967308
43.248761
41.607638
36.741278
30.429603
24.824830
21.623462
21.490702
23.821281
27.188801
30.021640
31.239460
30.661511
28.848519
26.717439
25.065903
24.202896
23.929024
23.692767
22.910126
21.281723
18.948051
16.487464
14.626684
13.881629
14.317622
15.504798
16.859178
18.024222
18.971814
19.902913
20.953486
21.987187
22.751313
23.093793
22.949705
22.175010
20.322466
16.620823
10.518685
2.307431
-6.715002
-14.519098
-19.281603
-20.306824
-18.218501
-14.661733
-11.439491
-9.677694
-9.567118
-10.449816
-11.268174
-11.042324
-9.161163
-5.556934
-0.717468
4.419658
8.807210
11.699956
12.970131
13.187815
13.158073
13.351395
13.641297
13.383224
12.025522
9.676834
7.028008
4.937549
3.843218
3.383115
2.698038
0.960927
-2.160713
-6.225436
-10.141528
-12.482216
-11.985703
-8.051778
-1.012074
7.864442
16.894817
24.620620
30.223879
33.679727
35.442413
36.037679
35.832489
34.975879
33.575794
31.877333
30.214200
28.801293
27.413399
25.245128
21.385706
15.497757
8.293029
1.534353
-2.974130
-4.504860
-3.718382
-2.316877
-1.857817
-2.684918
-3.951523
-4.169318
-2.026827
2.981443
10.553839
19.779990
29.323689
37.603317
43.107642
44.797410
42.525016
37.289195
30.940581
25.590939
22.779625
22.792507
24.706148
26.904267
28.108709
28.227530
28.182267
29.215648
31.913758
35.574637
38.712463
39.924917
38.567977
35.037420
30.290907
25.213864
20.257503
15.305729
9.852601
3.280192
-4.815493
-14.319304
-24.441574
-33.768824
-40.782385
-44.516281
-45.036985
-43.536989
-41.572268
-40.139315
-39.250882
-38.052165
-35.768791
-32.581135
-29.493844
-27.715773
-27.852794
-29.416542
-31.246653
-32.169595
-31.429346
-28.931924
-25.259843
-21.530627
-18.946339
-18.246404
-19.311554
-21.146584
-22.675225
-23.536825
-24.044604
-24.694924
-25.490603
-25.639704
-24.304545
-21.501244
-18.271719
-16.306626
-16.945139
-20.264143
-25.019548
-29.117829
-30.648250
-28.838627
-24.240823
-18.370961
-12.702354
-7.801487
-3.433325
0.918049
5.455624
9.753311
13.106966
14.978087
15.092085
13.429948
10.327251
6.581578
3.341752
1.802949
2.663226
5.703360
9.942490
14.010448
16.579104
16.805516
14.733609
11.448163
8.484973
6.940250
6.694927
6.268726
4.142049
0.178910
-4.265394
-7.127215
-7.221269
-5.376551
-3.701027
-4.246668
-8.003249
-14.453330
-22.094036
-29.121232
-33.787203
-34.669782
-31.096252
-23.547682
-13.653749
-3.818225
3.723167
7.818635
8.649667
7.545166
6.273270
6.282807
8.253472
11.900638
16.200613
19.786916
21.460689
20.628715
17.424330
12.632790
7.364453
2.686727
-0.635869
-2.284265
-2.300147
-0.906086
1.692531
5.372106
9.815672
14.216146
17.349869
17.981838
15.670931
11.348568
6.837291
3.904898
3.254901
3.989102
4.350317
2.847278
-0.899425
-5.813013
-10.034596
-11.903298
-10.769307
-7.393735
-3.397130
-0.352310
1.107844
1.752604
3.090725
6.354880
11.698568
17.877299
22.954364
25.250909
23.973661
19.480174
12.946922
5.889007
-0.228596
-4.269730
-5.550688
-3.918145
0.211920
5.869616
11.718414
16.347461
18.677972
18.331502
15.744667
12.092199
8.886490
7.460766
8.465645
11.554468
15.616567
19.263235
21.437930
21.841319
20.776048
18.818685
16.571749
14.507202
12.899982
11.770606
10.873010
9.842119
8.659508
7.973370
8.663186
11.130644
14.777261
17.984342
19.139662
17.713112
14.374983
10.520373
7.296600
4.856282
2.617056
-0.086239
-3.359537
-6.434916
-8.144659
-7.629895
-4.850487
-0.694037
3.705796
7.717491
11.330690
14.840417
18.155336
20.375316
20.371385
17.601385
12.472062
6.258864
0.431584
-3.971295
-6.367372
-6.489580
-4.421504
-0.714028
3.629211
7.386860
9.713825
10.602096
10.611887
10.342849
10.016590
9.353451
7.998610
5.936653
3.374992
0.443248
-2.958377
-7.059302
-11.739154
-16.177350
-19.225593
-20.034068
-18.532639
-15.567739
-12.344782
-9.784414
-8.308907
-7.892298
-8.323816
-9.430017
-11.072120
-13.101026
-15.401423
-17.924422
-20.575609
-23.088960
-25.076924
-26.247995
-26.792246
-27.554532
-29.471357
-32.829321
-36.925110
-40.251136
-41.563584
-40.878492
-39.362583
-38.626472
-39.653118
-42.059874
-44.517481
-45.556503
-44.264965
-40.697472
-35.719931
-30.675533
-26.991839
-25.740093
-27.121183
-30.118072
-32.838767
-33.303247
-30.616000
-25.741894
-20.782733
-17.671931
-16.983944
-17.500668
-17.489989
-16.155517
-13.842899
-11.521653
-9.835075
-8.536995
-7.116524
-5.536436
-4.127318
-3.190110
-2.807251
-2.852193
-3.170972
-3.726274
-4.595707
-6.055677
-8.833180
-13.932177
-21.323919
-28.914767
-33.597752
-33.206673
-28.266351
-22.302388
-18.905466
-18.736166
-19.692191
-18.684865
-14.035573
-6.829309
0.612563
6.724801
11.139264
14.296533
16.692583
18.302342
18.567713
16.605625
11.603519
3.417213
-6.634719
-15.542334
-20.166274
-19.211278
-14.173836
-8.984638
-7.412038
-10.502694
-16.431026
-21.814579
-24.203299
-23.837776
-22.607053
-22.248266
-23.400698
-25.539798
-27.892152
-29.980150
-30.760308
-28.139780
-20.827179
-10.382909
-0.845046
3.421859
1.274411
-3.483036
-6.060745
-5.203851
-3.159958
-3.048612
-5.157486
-5.545095
-0.697798
7.788739
14.694183
15.363837
9.659837
3.107810
1.914585
7.705970
17.580178
26.806784
32.362560
34.787676
35.748163
35.211491
31.865596
25.164108
17.405295
13.853558
18.492273
30.091161
43.637865
54.090378
59.848408
63.481537
66.902854
67.481994
61.685048
50.282153
38.884571
34.598549
39.248872
46.010980
47.084118
42.008536
36.181544
34.905558
37.740823
37.543204
29.166067
17.066918
10.756540
16.495473
32.767046
50.407207
59.571930
56.520367
43.965632
28.787480
18.934217
19.961627
31.258891
44.550184
49.347532
40.119644
20.007933
-0.115572
-10.332694
-9.446677
-3.104913
1.538286
0.102972
-6.990497
-16.268825
-23.803658
-26.994309
-25.678184
-21.919475
-18.150915
-13.204822
-1.134394
21.269860
47.168373
62.921646
57.115773
31.156444
2.434586
-11.324863
-7.926700
2.112862
6.781785
3.737613
3.439831
15.182439
34.138071
47.270116
45.209397
28.489278
6.895081
-10.252595
-21.730224
-29.648647
-32.776702
-27.824605
-14.263332
2.097860
9.638580
-0.648068
-27.153256
-58.914126
-81.534366
-85.325910
-71.045346
-47.614202
-26.507944
-15.399486
-14.385673
-18.986401
-24.607264
-28.476331
-29.817658
-28.794459
-26.072757
-23.926148
-26.087991
-33.502114
-41.176971
-42.295776
-34.089910
-19.739515
-6.018702
4.122987
15.648904
33.081374
51.186274
57.041200
38.804298
-2.396122
-47.009778
-70.547633
-60.898871
-25.545011
10.692630
21.490349
-4.544404
-58.861032
-116.107878
-147.664231
-136.158809
-82.909520
-8.774581
56.472603
88.172104
78.428144
41.320494
2.584311
-15.968481
-9.303968
7.007387
12.739680
0.923613
-19.405330
-30.837363
-23.952298
-7.417797
4.234571
6.351869
5.608353
12.232665
26.780437
34.050018
18.395247
-18.543676
-56.972736
-69.471708
-41.235535
15.534055
71.428376
98.665154
87.767546
54.023888
21.515827
3.831976
-1.292084
-6.458750
-18.116025
-25.681360
-13.875350
20.100621
62.115328
87.632972
80.339322
45.918854
3.280985
-29.729138
-42.590992
-33.261895
-6.673817
25.810846
46.315001
35.579539
-10.262490
-68.344983
-104.953972
-99.262773
-56.244078
-4.150368
32.261004
53.093289
69.283018
80.405627
70.601882
19.850150
-70.922286
-166.346894
-223.345427
-223.163517
-175.330137
-105.662395
-36.443227
24.167808
68.433417
77.532326
37.999827
-37.493589
-112.109167
-143.250105
-114.081615
-51.823124
-1.122058
11.577886
-9.669258
-36.477476
-41.947918
-21.956669
10.769721
40.955054
59.197083
63.842701
55.572786
33.115891
-2.713898
-42.859923
-69.184053
-60.666715
-10.549083
59.866821
109.914770
101.363339
27.496173
-72.420172
-142.831078
-150.410875
-99.006346
-23.595776
40.951787
84.330687
108.663162
110.325084
83.209730
30.750162
-28.034782
-64.023654
-60.958772
-31.060954
3.047403
30.496332
50.577857
61.834781
56.300993
23.531231
-32.171711
-82.434434
-96.440256
-65.066531
-0.046538
76.322892
138.798173
163.018822
129.042624
31.409506
-101.504402
-203.152497
-212.494933
-121.637840
20.813570
136.748555
172.523631
135.977108
68.369240
1.570362
-56.648422
-115.453870
-174.489567
-206.676757
-179.002827
-81.881470
59.813268
191.940611
258.020031
227.947504
110.722290
-46.806047
-183.449989
-251.583550
-235.089358
-154.826935
-50.954518
39.099645
92.989937
107.674358
92.875011
62.767578
31.132871
8.772848
2.618310
14.676144
40.424885
68.481115
85.040639
80.400857
54.629094
18.342959
-17.218833
-49.028468
-77.743445
-98.887871
-99.533951
-64.062533
6.592026
82.937852
126.789236
118.331374
66.421085
2.602529
-45.373283
-73.783929
-90.375358
-95.164271
-78.714661
-31.834795
38.800001
103.980464
131.645009
110.432481
55.290385
-0.092373
-25.425375
-14.303588
14.514332
29.566221
13.761707
-16.143005
-24.849764
12.450359
85.250486
143.713015
139.754556
68.483155
-34.949033
-120.252035
-153.803950
-136.680404
-87.544161
-22.556683
41.922376
82.904197
80.759932
34.211866
-35.098945
-90.743914
-107.517122
-90.263166
-58.743974
-26.529930
1.340976
22.020772
29.771568
17.411442
-12.474544
-41.841701
-53.272748
-46.653767
-34.502927
-29.228714
-33.872777
-40.288092
-39.575459
-31.585875
-21.515762
-13.198683
-7.151968
-0.944488
10.011452
30.578722
61.096701
93.887481
117.045898
121.359783
106.428074
81.353637
54.289689
24.384375
-10.320432
-43.078461
-61.443229
-57.037297
-35.485272
-17.028751
-16.511237
-26.218605
-26.805870
-7.267701
23.962602
41.572295
27.577780
-8.346294
-39.239245
-42.078085
-13.611928
25.550893
48.751083
43.157330
14.350752
-18.341134
-34.441935
-24.009641
9.187848
49.571028
77.581036
78.804010
50.933735
6.435726
-34.747474
-55.393478
-48.670530
-20.898997
15.343108
49.110879
72.931760
81.904676
72.875559
45.543366
6.264330
-30.705667
-51.067265
-49.365241
-30.487340
-6.281478
12.026305
19.360545
14.445520
-3.433759
-32.617045
-66.260071
-93.580531
-103.918319
-92.520449
-63.507572
-24.850736
16.724696
53.760121
74.895144
67.695978
26.104624
-39.515704
-99.429258
-122.438557
-97.152109
-38.473580
19.380640
47.682124
44.229477
27.570829
19.976147
29.985217
44.618548
44.253769
21.072471
-15.775302
-44.876823
-47.693108
-21.666914
20.987469
60.988787
82.288936
79.621432
57.675838
27.217825
0.619199
-11.798993
-3.980936
23.756886
62.818980
96.676486
108.055962
88.428360
44.845882
0.207199
-21.153253
-9.925285
22.594223
49.191781
46.187782
11.267174
-37.665320
-73.715690
-78.475626
-54.390457
-18.809364
8.709936
18.280517
15.557954
13.824443
22.350489
39.142393
50.773126
44.914986
22.734524
-2.175692
-12.842528
-2.879187
15.972664
26.115776
19.479870
0.579513
-18.572835
-29.524432
-34.056741
-36.605098
-36.091030
-29.837941
-20.486288
-15.931486
-23.406093
-39.231276
-45.122186
-24.209661
21.612612
72.332262
101.063051
91.916627
51.268737
-2.414074
-53.215048
-92.915314
-119.744684
-132.674511
-128.075801
-104.266138
-66.028835
-21.487717
22.665016
61.578131
90.164599
101.233634
87.492448
51.005629
9.264379
-15.545970
-11.933077
13.110576
36.807982
40.199440
24.843997
5.896568
-3.107931
-0.791809
1.340731
-5.335055
-13.516765
-9.185477
12.597346
40.448708
50.660852
27.976918
-17.178824
-57.252830
-66.436903
-37.976252
9.243262
47.761175
61.638563
51.309475
28.541536
3.544331
-23.839245
-57.265934
-93.933541
-122.966771
-129.856469
-106.144849
-56.617590
4.226840
59.188976
94.220727
102.519413
85.784251
53.502396
18.709658
-7.050464
-17.249022
-11.650538
6.273525
31.448403
55.636798
66.986793
56.512984
25.810688
-11.420629
-34.672744
-31.664948
-9.728700
12.194476
18.273563
6.649974
-8.546866
-11.871303
-1.337569
12.796781
17.150327
6.786656
-8.824458
-15.051118
-4.447812
18.356868
38.495293
41.438339
22.981481
-10.294112
-45.506319
-70.939846
-81.530128
-77.507957
-61.278288
-36.215683
-6.909386
20.155701
37.526182
41.391298
35.342071
27.644862
25.686153
30.551063
35.061486
30.234113
13.151251
-10.236916
-26.667825
-23.237708
4.372373
48.399231
90.051005
108.560018
92.262032
46.072173
-7.805703
-43.544652
-47.436115
-23.815444
7.923074
28.503507
32.324161
25.711613
18.958198
18.304835
22.119818
25.864175
27.848134
29.082624
30.700940
31.954393
29.939052
22.326353
10.229681
-1.733480
-7.475093
-3.680197
7.047931
18.302310
24.386238
24.902756
25.915032
33.017678
44.461155
52.899310
51.453877
40.642135
30.804483
33.247230
50.500961
75.731912
97.139467
105.080078
97.022511
75.703374
46.093411
15.183882
-7.918292
-15.031605
-3.315603
21.513985
45.526432
54.791294
44.148922
18.928928
-8.358418
-26.613931
-33.027089
-31.037444
-25.336916
-18.471924
-10.370657
-2.145654
1.405524
-3.874916
-16.297748
-28.666799
-32.322424
-23.714310
-7.903205
7.427615
18.980239
27.875829
36.190520
43.023026
43.696458
35.737845
23.822153
15.493295
14.434160
17.899551
18.445007
10.963837
-2.179854
-15.287747
-25.295868
-32.788356
-39.872890
-46.411747
-48.324861
-41.767533
-27.583190
-10.580984
3.327453
9.927882
8.492977
1.625351
-5.524520
-6.696287
2.922376
22.410970
42.786576
52.136683
43.106895
18.011818
-10.636267
-28.698645
-29.793855
-17.609693
-3.344372
2.124655
-4.429021
-17.466969
-25.573450
-18.770983
4.605949
36.810620
63.975236
74.848411
68.111034
50.673877
32.036630
18.066914
8.128074
0.017895
-4.892418
-3.446747
4.953415
15.826751
20.661150
13.865885
-1.681274
-18.296734
-29.772206
-34.425315
-34.556722
-31.523643
-22.534340
-5.200804
17.007090
35.588719
41.627439
32.325555
14.264796
-2.889843
-14.095919
-20.436571
-26.475293
-34.398756
-40.347966
-38.664258
-27.790441
-12.038124
0.213455
2.523841
-4.499773
-14.384051
-18.869538
-13.038337
1.254707
17.152801
26.681651
