,event_id,event_time,ISC_ev_id,ev_latitude,ev_longitude,ev_depth_km,fm_type_code,ML,Mw,Ms,es_strike,es_dip,es_rake,es_z_top,es_length,es_width,network_code,station_code,st_latitude,st_longitude,st_elevation,vs30_m_sec,vs30_meas_type,z1pt0 (m),z2pt5 (km),epi_dist,JB_dist,rup_dist,Rx_dist,Ry0_dist,U_hp,V_hp,W_hp,U_lp,V_lp,W_lp,provided_IMCs,shortest_usable_period,longest_usable_period,orig_db,orig_db_license,orig_db_doi,orig_db_rec_identifier,ev_info_updated_from_gem_gcat_flag,ev_info_homog_flag,st_info_homog_flag,distances_recomputed_flag,event_trt_from_db,event_trt_from_classifier,event_id_original,station_code_original,U_pga,V_pga,W_pga,rotD50_pga,rotD100_pga,rotD00_pga,U_pgv,V_pgv,W_pgv,rotD50_pgv,rotD100_pgv,rotD00_pgv,U_pgd,V_pgd,W_pgd,rotD50_pgd,rotD100_pgd,rotD00_pgd,U_CAV,V_CAV,W_CAV,rotD50_CAV,rotD100_CAV,rotD00_CAV,U_ia,V_ia,W_ia,rotD50_ia,rotD100_ia,rotD00_ia,U_T0_010,U_T0_025,U_T0_040,U_T0_050,U_T0_070,U_T0_100,U_T0_150,U_T0_200,U_T0_250,U_T0_300,U_T0_350,U_T0_400,U_T0_450,U_T0_500,U_T0_600,U_T0_700,U_T0_750,U_T0_800,U_T0_900,U_T1_000,U_T1_200,U_T1_400,U_T1_600,U_T1_800,U_T2_000,U_T2_500,U_T3_000,U_T3_500,U_T4_000,U_T4_500,U_T5_000,U_T6_000,U_T7_000,U_T8_000,U_T9_000,U_T10_000,V_T0_010,V_T0_025,V_T0_040,V_T0_050,V_T0_070,V_T0_100,V_T0_150,V_T0_200,V_T0_250,V_T0_300,V_T0_350,V_T0_400,V_T0_450,V_T0_500,V_T0_600,V_T0_700,V_T0_750,V_T0_800,V_T0_900,V_T1_000,V_T1_200,V_T1_400,V_T1_600,V_T1_800,V_T2_000,V_T2_500,V_T3_000,V_T3_500,V_T4_000,V_T4_500,V_T5_000,V_T6_000,V_T7_000,V_T8_000,V_T9_000,V_T10_000,W_T0_010,W_T0_025,W_T0_040,W_T0_050,W_T0_070,W_T0_100,W_T0_150,W_T0_200,W_T0_250,W_T0_300,W_T0_350,W_T0_400,W_T0_450,W_T0_500,W_T0_600,W_T0_700,W_T0_750,W_T0_800,W_T0_900,W_T1_000,W_T1_200,W_T1_400,W_T1_600,W_T1_800,W_T2_000,W_T2_500,W_T3_000,W_T3_500,W_T4_000,W_T4_500,W_T5_000,W_T6_000,W_T7_000,W_T8_000,W_T9_000,W_T10_000,rotD50_T0_010,rotD50_T0_025,rotD50_T0_040,rotD50_T0_050,rotD50_T0_070,rotD50_T0_100,rotD50_T0_150,rotD50_T0_200,rotD50_T0_250,rotD50_T0_300,rotD50_T0_350,rotD50_T0_400,rotD50_T0_450,rotD50_T0_500,rotD50_T0_600,rotD50_T0_700,rotD50_T0_750,rotD50_T0_800,rotD50_T0_900,rotD50_T1_000,rotD50_T1_200,rotD50_T1_400,rotD50_T1_600,rotD50_T1_800,rotD50_T2_000,rotD50_T2_500,rotD50_T3_000,rotD50_T3_500,rotD50_T4_000,rotD50_T4_500,rotD50_T5_000,rotD50_T6_000,rotD50_T7_000,rotD50_T8_000,rotD50_T9_000,rotD50_T10_000,rotD00_T0_010,rotD00_T0_025,rotD00_T0_040,rotD00_T0_050,rotD00_T0_070,rotD00_T0_100,rotD00_T0_150,rotD00_T0_200,rotD00_T0_250,rotD00_T0_300,rotD00_T0_350,rotD00_T0_400,rotD00_T0_450,rotD00_T0_500,rotD00_T0_600,rotD00_T0_700,rotD00_T0_750,rotD00_T0_800,rotD00_T0_900,rotD00_T1_000,rotD00_T1_200,rotD00_T1_400,rotD00_T1_600,rotD00_T1_800,rotD00_T2_000,rotD00_T2_500,rotD00_T3_000,rotD00_T3_500,rotD00_T4_000,rotD00_T4_500,rotD00_T5_000,rotD00_T6_000,rotD00_T7_000,rotD00_T8_000,rotD00_T9_000,rotD00_T10_000,rotD100_T0_010,rotD100_T0_025,rotD100_T0_040,rotD100_T0_050,rotD100_T0_070,rotD100_T0_100,rotD100_T0_150,rotD100_T0_200,rotD100_T0_250,rotD100_T0_300,rotD100_T0_350,rotD100_T0_400,rotD100_T0_450,rotD100_T0_500,rotD100_T0_600,rotD100_T0_700,rotD100_T0_750,rotD100_T0_800,rotD100_T0_900,rotD100_T1_000,rotD100_T1_200,rotD100_T1_400,rotD100_T1_600,rotD100_T1_800,rotD100_T2_000,rotD100_T2_500,rotD100_T3_000,rotD100_T3_500,rotD100_T4_000,rotD100_T4_500,rotD100_T5_000,rotD100_T6_000,rotD100_T7_000,rotD100_T8_000,rotD100_T9_000,rotD100_T10_000,geometry,trt,st_backarc
35867,EQ_20151205102918_(chile_2025_id),2015-12-05 10:29:18,,-22.5217,-70.3897,21.6,SS,4.7,4.6,3.9,54.76,16.2,153.47,,,,NETWORK_RENADIC,ST_TOCOPILLAGOBERNACION(SMA-1),-22.0931,-70.2011,20.0,605.0,measured,,,51.45608940253912,48.47789670680963,52.92609459634983,-27.08624502740526,40.1956980076549,0.02,0.02,0.122,95.0,95.0,95.0,"Both horizontal components and RotD50, RotD100, RotD00 (rotational measures only for SA). Vertical provided. Missing RotD50 values approximated using Boore and Kishida 2017.",,,chile_2025,Unrestricted non-commercial use with acknowledgement/citation of original dataset (stated Open Data Commons Attribution license on designsafe-ci.org),https://doi.org/10.17603/ds2-6gyp-t353,"chRID011460 (""RecordID"" column in orig. db)",Not updated from global cat.,Event information not homogenised,Homogenised using NGAsub flatfile station info,Computed from OQ finite rupture (event info updated from GEM global catalogue OR event/station relocated during homogenisation),crustal,int,EQ_20151205102918_(chile_2025_id),ST_A14F (chile_2025),9.028793255700004,7.528833574399938,7.915672456199984,8.36336065210847,,,0.1098639689,0.2193877239,0.1090235785,,,,,,,,,,38.160028844985696,32.701791170695,25.9901097405305,,,,0.0011259105657959,0.0008418550052166,0.0005670101745375,,,,9.040896,,,18.32508,,20.56176,,4.691142,,2.915532,,1.793268,,0.983943,,,0.4427253,,,0.364932,,,,,0.08060877,0.04116276,0.03094074,0.02404431,0.0187371,0.0165690899999999,0.01501911,0.0130865399999999,0.01068309,0.009108585,0.007971606,0.006944499,7.532118,,,14.87196,,22.15098,,16.14726,,10.92834,,5.828121,,3.499227,,,1.198782,,,0.5623092,,,,,0.1666719,0.1143846,0.08344386,0.06532479,0.05330754,0.0439487999999999,0.03788622,0.02953791,0.02465253,0.02017917,0.01707921,0.01472481,7.915688999999999,,,22.13136,,11.82105,,11.50713,,3.874950000000001,,1.320426,,0.996696,,,0.3320685,,,0.2029688999999999,,,,,0.05957613,0.04376241,0.03122523,0.02642814,0.02208231,0.01900197,0.01665738,0.01433241,0.01214478,0.01017297,0.009038934,0.008053029,8.45622,,,18.23679,,21.61143,,11.85048,,7.974549,,4.420386,,2.532942,,,0.8800551,,,0.4696047,,,,,0.1262547,0.08498403,0.0626564699999999,0.04877532,0.04018176,0.0332166599999999,0.02877273,0.02245509,0.0187272899999999,0.0153036,0.01299825,0.01121283,7.067124000000001,,,13.51818,,18.91368,,4.121181,,1.941399,,1.292958,,0.9661869,,,0.4300703999999999,,,0.2781135,,,,,0.06473619,0.03706218,0.02839014,0.02149371,0.0180209699999999,0.01635327,0.0148131,0.01257642,0.00984924,0.008596503,0.0076174649999999,0.0068463989999999,10.17297,,,21.00321,,23.92659,,16.44156,,11.29131,,6.028245,,3.601251,,,1.199763,,,0.6168528,,,,,0.1762857,0.1190934,0.0871029899999999,0.06728679,0.05500467,0.04526334,0.0389162699999999,0.03016575,0.02500569,0.0204342299999999,0.01729503,0.01490139,POINT (-70.3897 -22.5217),active,0
35872,EQ_20151205102918_(chile_2025_id),2015-12-05 10:29:18,,-22.5217,-70.3897,21.6,SS,4.7,4.6,3.9,54.76,16.2,153.47,,,,NETWORK_CX,ST_PB05,-22.85283,-70.20235,1150.0,745.0,measured,,,41.53473683877596,40.623422275129485,46.03081994115296,41.76569794325988,2.4183961610395963,0.02,0.02,0.269,47.5,47.5,47.5,"Both horizontal components and RotD50, RotD100, RotD00 (rotational measures only for SA). Vertical provided. Missing RotD50 values approximated using Boore and Kishida 2017.",,,chile_2025,Unrestricted non-commercial use with acknowledgement/citation of original dataset (stated Open Data Commons Attribution license on designsafe-ci.org),https://doi.org/10.17603/ds2-6gyp-t353,"chRID011461 (""RecordID"" column in orig. db)",Not updated from global cat.,Event information not homogenised,Homogenised using NGAsub flatfile station info,Computed from OQ finite rupture (event info updated from GEM global catalogue OR event/station relocated during homogenisation),crustal,int,EQ_20151205102918_(chile_2025_id),ST_PB05 (chile_2025),11.64169198480004,15.200547986600048,7.030878215399952,13.49397176333901,,,0.3863374927,0.4910032572,0.2125268868,,,,,,,,,,19.9878304143631,20.009952580776,16.2150539101034,,,,0.0005199766376539,0.0005322255718661,0.0002522497648595,,,,11.64447,,,16.31403,,23.14179,,32.55939,,16.186500000000002,,7.685154000000001,,4.608738,,,1.59903,,,0.785781,,,,,0.2163105,0.143226,0.1105587,0.08695584,0.07115193,0.0599390999999999,0.05146326,0.03981879,0.0340407,0.02973411,0.0263889,0.0237205799999999,15.2055,,,25.270560000000003,,17.216549999999998,,27.79173,,26.00631,,15.61752,,10.60461,,,3.917133,,,1.963962,,,,,0.5770242,0.3892608,0.2879235,0.2242566,0.1802097,0.1477386,0.1249794,0.09510795,0.07604712,0.06283305,0.05354298,0.04629339,7.031808,,,12.31155,,14.37165,,15.01911,,11.03625,,4.915791,,2.633004,,,1.26549,,,0.7058295,,,,,0.1382229,0.08363025,0.06359823,0.04880475,0.03942639,0.03327552,0.02875311,0.02368134,0.02002221,0.01717731,0.0152349299999999,0.01372419,13.51818,,,24.46614,,19.57095,,30.30309,,21.45447,,11.95839,,7.599807,,,3.077397,,,1.60884,,,,,0.4231053,0.2870406,0.2124846,0.1652004,0.1337103,0.1107549,0.09480384,0.07271172,0.05908563,0.04894209,0.04200642,0.03661092,7.917651,,,16.186500000000002,,9.647154,,17.491229999999998,,8.57394,,5.635845,,4.059378000000001,,,1.217421,,,0.7148547,,,,,0.2114055,0.1415583,0.1084005,0.08512137,0.0701415,0.05911506,0.0511101,0.03981879,0.03271635,0.02757591,0.02384811,0.02101302,17.196930000000002,,,27.42876,,25.37847,,39.96594,,29.27304,,16.775100000000002,,10.78119,,,3.918114,,,2.062062,,,,,0.6010587,0.4078017,0.3013632,0.2352438,0.1896273,0.1560771,0.1328274,0.1026126,0.08271792,0.06883677,0.05897772,0.05128668,POINT (-70.3897 -22.5217),active,0
35875,EQ_20151205102918_(chile_2025_id),2015-12-05 10:29:18,,-22.5217,-70.3897,21.6,SS,4.7,4.6,3.9,54.76,16.2,153.47,,,,NETWORK_Y9,ST_MJS,-23.4698,-70.53325,250.0,605.0,measured,,,106.44291793488328,103.85314327249029,105.93783363281288,78.25339397565382,69.64363472696026,0.269,0.02,0.02,47.5,47.5,47.5,"Both horizontal components and RotD50, RotD100, RotD00 (rotational measures only for SA). Vertical provided. Missing RotD50 values approximated using Boore and Kishida 2017.",,,chile_2025,Unrestricted non-commercial use with acknowledgement/citation of original dataset (stated Open Data Commons Attribution license on designsafe-ci.org),https://doi.org/10.17603/ds2-6gyp-t353,"chRID011454 (""RecordID"" column in orig. db)",Not updated from global cat.,Event information not homogenised,Homogenised using NGAsub flatfile station info,Computed from OQ finite rupture (event info updated from GEM global catalogue OR event/station relocated during homogenisation),crustal,int,EQ_20151205102918_(chile_2025_id),ST_PB10 (chile_2025),0.8671802238999126,0.892570541199903,0.4234398689999376,0.892438051935483,,,0.041857051,0.042300908,0.0259836454,,,,,,,,,,5.57722171151701,5.56442973058246,4.247190168343519,,,,1.20544143350643e-05,1.18433422071695e-05,5.52767393073478e-06,,,,0.8671059,,,0.9484308,,1.870767,,2.954772,,2.963601,,1.375362,,1.591182,,,0.4557726,,,0.1533303,,,,,0.06469695,0.04303647,0.02824299,0.01812888,0.01356723,0.00987867,0.007427151,0.004897152,0.004187889,0.0034374239999999,0.002858634,0.002467215,0.8925138,,,0.9311652,,1.600011,,2.581992,,2.460348,,2.093454,,1.741275,,,0.4488075,,,0.1861938,,,,,0.0369837,0.03268692,0.0231516,0.01582353,0.01182105,0.009722691,0.008041257,0.005399424,0.004062321,0.003240243,0.0029959739999999,0.002836071,0.4234977,,,0.4854969,,1.021221,,1.274319,,1.316502,,1.350837,,1.011411,,,0.2684997,,,0.1255679999999999,,,,,0.02958696,0.02708541,0.0173637,0.01174257,0.00797553,0.006308811,0.005172813,0.003820014,0.00305091,0.002545695,0.002191554,0.001929627,0.8616123,,,0.9352854,,1.679472,,2.594745,,2.68794,,1.840356,,1.666719,,,0.4521428999999999,,,0.1651023,,,,,0.05795748,0.03495303,0.02522151,0.01596087,0.01282167,0.00986886,0.007920594,0.005115915,0.004165326,0.0033707159999999,0.002885121,0.002645757,0.7338861,,,0.8228628,,1.340046,,1.817793,,2.212155,,0.7039656,,0.6220521,,,0.2591802,,,0.1076157,,,,,0.0369837,0.02457405,0.0157941,0.01131093,0.008020656,0.006364728,0.005674104,0.004353678,0.003072492,0.00246231,0.002195478,0.001789344,0.9551997,,,1.0359360000000002,,1.916874,,3.073473,,3.089169,,2.454462,,2.260224,,,0.5855589,,,0.2165067,,,,,0.06618807,0.04422348,0.03214737,0.02152314,0.01743237,0.0133416,0.01044765,0.006825798,0.005093352,0.004009347,0.0033275519999999,0.002996955,POINT (-70.3897 -22.5217),active,0
35880,EQ_20151205102918_(chile_2025_id),2015-12-05 10:29:18,,-22.5217,-70.3897,21.6,SS,4.7,4.6,3.9,54.76,16.2,153.47,,,,NETWORK_CX,ST_PB07,-21.72667,-69.88618,1570.0,745.0,measured,,,102.49487673058852,99.36338629107487,101.48325141279462,-41.49346531702204,90.270780635064,0.02,0.02,0.02,47.5,47.5,47.5,"Both horizontal components and RotD50, RotD100, RotD00 (rotational measures only for SA). Vertical provided. Missing RotD50 values approximated using Boore and Kishida 2017.",,,chile_2025,Unrestricted non-commercial use with acknowledgement/citation of original dataset (stated Open Data Commons Attribution license on designsafe-ci.org),https://doi.org/10.17603/ds2-6gyp-t353,"chRID011456 (""RecordID"" column in orig. db)",Not updated from global cat.,Event information not homogenised,Homogenised using NGAsub flatfile station info,Computed from OQ finite rupture (event info updated from GEM global catalogue OR event/station relocated during homogenisation),crustal,int,EQ_20151205102918_(chile_2025_id),ST_PB07 (chile_2025),2.519290872699924,2.0219241595999464,2.1778413204999314,2.2894107082367925,,,0.0934930939,0.058550215,0.0792303912,,,,,,,,,,13.060718440681098,13.689821285607,14.0983571533797,,,,7.25301617147043e-05,8.23688304750172e-05,8.81918541434296e-05,,,,2.520189,,,3.283407,,4.409595,,4.717629,,2.948886,,2.185668,,2.418165,,,1.38321,,,0.9254754,,,,,0.105948,0.06852285,0.05470056,0.04106466,0.03271635,0.02623194,0.02142504,0.01585296,0.01281186,0.01072233,0.008911404,0.007716546,2.022822,,,4.086846,,5.613282,,5.096295,,2.989107,,3.568878,,2.665377,,,0.7796988,,,0.5575023,,,,,0.0724664699999999,0.05299362,0.0359046,0.02660472,0.01966905,0.0143226,0.01153656,0.0090713069999999,0.007144623,0.006371595,0.005104143,0.0046107,2.17782,,,4.390956,,5.323887,,3.719952,,3.581631,,2.398545,,1.695168,,,1.091853,,,0.4883417999999999,,,,,0.1084005,0.07442847,0.05378823,0.0404073899999999,0.03170592,0.02578068,0.02210193,0.01682415,0.01283148,0.01053594,0.008810361,0.00778914,2.024784,,,3.539448,,4.902057,,4.947183,,2.948886,,3.094074,,2.519208,,,1.075176,,,0.7160319,,,,,0.09396999,0.0611359199999999,0.04578327,0.03204927,0.02490759,0.02024784,0.01683396,0.01278243,0.01028088,0.008737767,0.00724959,0.006350013,1.613745,,,2.39364,,4.126086,,2.882178,,2.075796,,1.935513,,1.468557,,,0.7488954,,,0.5006043,,,,,0.06822855,0.04417443,0.03115656,0.02438766,0.01879596,0.0143226,0.01144827,0.008300241,0.006908202,0.005564232,0.004682313,0.004121181,2.783097,,,4.106465999999999,,6.021378,,6.238179,,3.923019,,3.795489,,3.509037,,,1.437165,,,1.00062,,,,,0.1174257,0.07648857,0.05679009,0.04409595,0.0350903699999999,0.02839995,0.02343609,0.01747161,0.0139302,0.01174257,0.0096569639999999,0.008428752,POINT (-70.3897 -22.5217),active,0
35905,EQ_20151107103119_(chile_2025_id),2015-11-07 10:31:19,,-30.743,-71.4537,32.0,N,4.9,4.9,,13.4,83.25,-77.13,,,,NETWORK_CSN,ST_C18O,-30.2778,-70.6691,1239.0,605.0,measured,,,91.24278072623191,87.96781095581913,93.24506377945244,61.47447613384254,63.13483307143275,0.305,0.83,0.02,95.0,95.0,95.0,"Both horizontal components and RotD50, RotD100, RotD00 (rotational measures only for SA). Vertical provided. Missing RotD50 values approximated using Boore and Kishida 2017.",,,chile_2025,Unrestricted non-commercial use with acknowledgement/citation of original dataset (stated Open Data Commons Attribution license on designsafe-ci.org),https://doi.org/10.17603/ds2-6gyp-t353,"chRID010858 (""RecordID"" column in orig. db)",Not updated from global cat.,Event information not homogenised,Homogenised using NGAsub flatfile station info,Computed from OQ finite rupture (event info updated from GEM global catalogue OR event/station relocated during homogenisation),crustal,int,EQ_20151107103119_(chile_2025_id),ST_C18O (chile_2025),23.62751357769996,20.60187378450003,8.389043473999948,22.380227359279704,,,0.4867091539,0.4275947793,0.1157894884,,,,,,,,,,105.698138017679,77.2698127863757,51.9362237604544,,,,0.0044377386985393,0.0034808556552592,0.0009031953604368,,,,23.63229,,,51.67908,,36.54225,,66.77667000000001,,17.60895,,6.525612,,3.053853,,,1.099701,,,0.734769,,,,,0.1970829,0.1501911,0.1243908,0.1042802999999999,0.08753463,0.0752427,0.06544251,0.05426892,0.04546935,0.0389947499999999,0.03436443,0.03068568,20.601000000000003,,,53.2683,,27.22275,,49.05,,11.01663,,5.448474,,3.213756,,,1.0938150000000002,,,0.5855589,,,,,0.1709883,0.1201725,0.0911348999999999,0.07336899,0.06412797,0.05695686,0.05123763,0.0426735,0.03656187,0.03199041,0.02846862,0.02569239,8.390493,,,15.70581,,17.922870000000003,,9.95715,,3.262806,,1.768743,,1.065366,,,0.453222,,,0.1789344,,,,,0.06344127,0.04230072,0.03294198,0.02363229,0.01887444,0.01615707,0.01446975,0.01202706,0.01028088,0.008978112,0.007969644,0.007164243,22.30794,,,51.48288,,31.94136,,57.65337,,14.2245,,6.191091,,3.082302,,,1.135017,,,0.682776,,,,,0.1866843,0.1350837,0.1091853,0.09050706,0.0761157899999999,0.06552099,0.05667237,0.0463032,0.0388672199999999,0.0337562099999999,0.03007746,0.02719332,14.95044,,,45.047520000000006,,24.26994,,30.5091,,10.9872,,5.309172,,2.406393,,,0.7476201,,,0.4060359,,,,,0.1406753999999999,0.10791,0.07980435,0.06271533,0.0508059899999999,0.04263426,0.03735648,0.02999898,0.0256041,0.02248452,0.01982601,0.0177561,25.73163,,,55.1322,,43.35039,,75.63510000000001,,17.60895,,6.91605,,3.706218,,,1.476405,,,0.8693622,,,,,0.2353419,0.1891368,0.1521531,0.1260585,0.1063404,0.0917235,0.07993188,0.06539346,0.05458284,0.04671522,0.0410058,0.03651282,POINT (-71.4537 -30.743),active,0
