,event_id,event_time,ISC_ev_id,ev_latitude,ev_longitude,ev_depth_km,fm_type_code,ML,Mw,Ms,es_strike,es_dip,es_rake,es_z_top,es_length,es_width,network_code,station_code,st_latitude,st_longitude,st_elevation,vs30_m_sec,vs30_meas_type,z1pt0 (m),z2pt5 (km),epi_dist,JB_dist,rup_dist,Rx_dist,Ry0_dist,U_hp,V_hp,W_hp,U_lp,V_lp,W_lp,provided_IMCs,shortest_usable_period,longest_usable_period,orig_db,orig_db_license,orig_db_doi,orig_db_rec_identifier,ev_info_updated_from_gem_gcat_flag,ev_info_homog_flag,st_info_homog_flag,distances_recomputed_flag,event_trt_from_db,event_trt_from_classifier,event_id_original,station_code_original,U_pga,V_pga,W_pga,rotD50_pga,rotD100_pga,rotD00_pga,U_pgv,V_pgv,W_pgv,rotD50_pgv,rotD100_pgv,rotD00_pgv,U_pgd,V_pgd,W_pgd,rotD50_pgd,rotD100_pgd,rotD00_pgd,U_CAV,V_CAV,W_CAV,rotD50_CAV,rotD100_CAV,rotD00_CAV,U_ia,V_ia,W_ia,rotD50_ia,rotD100_ia,rotD00_ia,U_T0_010,U_T0_025,U_T0_040,U_T0_050,U_T0_070,U_T0_100,U_T0_150,U_T0_200,U_T0_250,U_T0_300,U_T0_350,U_T0_400,U_T0_450,U_T0_500,U_T0_600,U_T0_700,U_T0_750,U_T0_800,U_T0_900,U_T1_000,U_T1_200,U_T1_400,U_T1_600,U_T1_800,U_T2_000,U_T2_500,U_T3_000,U_T3_500,U_T4_000,U_T4_500,U_T5_000,U_T6_000,U_T7_000,U_T8_000,U_T9_000,U_T10_000,V_T0_010,V_T0_025,V_T0_040,V_T0_050,V_T0_070,V_T0_100,V_T0_150,V_T0_200,V_T0_250,V_T0_300,V_T0_350,V_T0_400,V_T0_450,V_T0_500,V_T0_600,V_T0_700,V_T0_750,V_T0_800,V_T0_900,V_T1_000,V_T1_200,V_T1_400,V_T1_600,V_T1_800,V_T2_000,V_T2_500,V_T3_000,V_T3_500,V_T4_000,V_T4_500,V_T5_000,V_T6_000,V_T7_000,V_T8_000,V_T9_000,V_T10_000,W_T0_010,W_T0_025,W_T0_040,W_T0_050,W_T0_070,W_T0_100,W_T0_150,W_T0_200,W_T0_250,W_T0_300,W_T0_350,W_T0_400,W_T0_450,W_T0_500,W_T0_600,W_T0_700,W_T0_750,W_T0_800,W_T0_900,W_T1_000,W_T1_200,W_T1_400,W_T1_600,W_T1_800,W_T2_000,W_T2_500,W_T3_000,W_T3_500,W_T4_000,W_T4_500,W_T5_000,W_T6_000,W_T7_000,W_T8_000,W_T9_000,W_T10_000,rotD50_T0_010,rotD50_T0_025,rotD50_T0_040,rotD50_T0_050,rotD50_T0_070,rotD50_T0_100,rotD50_T0_150,rotD50_T0_200,rotD50_T0_250,rotD50_T0_300,rotD50_T0_350,rotD50_T0_400,rotD50_T0_450,rotD50_T0_500,rotD50_T0_600,rotD50_T0_700,rotD50_T0_750,rotD50_T0_800,rotD50_T0_900,rotD50_T1_000,rotD50_T1_200,rotD50_T1_400,rotD50_T1_600,rotD50_T1_800,rotD50_T2_000,rotD50_T2_500,rotD50_T3_000,rotD50_T3_500,rotD50_T4_000,rotD50_T4_500,rotD50_T5_000,rotD50_T6_000,rotD50_T7_000,rotD50_T8_000,rotD50_T9_000,rotD50_T10_000,rotD00_T0_010,rotD00_T0_025,rotD00_T0_040,rotD00_T0_050,rotD00_T0_070,rotD00_T0_100,rotD00_T0_150,rotD00_T0_200,rotD00_T0_250,rotD00_T0_300,rotD00_T0_350,rotD00_T0_400,rotD00_T0_450,rotD00_T0_500,rotD00_T0_600,rotD00_T0_700,rotD00_T0_750,rotD00_T0_800,rotD00_T0_900,rotD00_T1_000,rotD00_T1_200,rotD00_T1_400,rotD00_T1_600,rotD00_T1_800,rotD00_T2_000,rotD00_T2_500,rotD00_T3_000,rotD00_T3_500,rotD00_T4_000,rotD00_T4_500,rotD00_T5_000,rotD00_T6_000,rotD00_T7_000,rotD00_T8_000,rotD00_T9_000,rotD00_T10_000,rotD100_T0_010,rotD100_T0_025,rotD100_T0_040,rotD100_T0_050,rotD100_T0_070,rotD100_T0_100,rotD100_T0_150,rotD100_T0_200,rotD100_T0_250,rotD100_T0_300,rotD100_T0_350,rotD100_T0_400,rotD100_T0_450,rotD100_T0_500,rotD100_T0_600,rotD100_T0_700,rotD100_T0_750,rotD100_T0_800,rotD100_T0_900,rotD100_T1_000,rotD100_T1_200,rotD100_T1_400,rotD100_T1_600,rotD100_T1_800,rotD100_T2_000,rotD100_T2_500,rotD100_T3_000,rotD100_T3_500,rotD100_T4_000,rotD100_T4_500,rotD100_T5_000,rotD100_T6_000,rotD100_T7_000,rotD100_T8_000,rotD100_T9_000,rotD100_T10_000,geometry,trt,st_backarc
34614,EQ_20220312122747_(chile_2025_id),2022-03-12 12:27:47,,-27.4896,-71.1744,13.5,N,,4.8,4.3,8.06,70.4,-80.48,,,,NETWORK_CSN,ST_A03C,-27.2616,-70.7736,205.0,762.0,measured,,,47.0136512539815,47.22,55.06,,,0.098,0.02,0.02,95.0,95.0,95.0,"Both horizontal components and RotD50, RotD100, RotD00 (rotational measures only for SA). Vertical provided. Missing RotD50 values approximated using Boore and Kishida 2017.",,,chile_2025,Unrestricted non-commercial use with acknowledgement/citation of original dataset (stated Open Data Commons Attribution license on designsafe-ci.org),https://doi.org/10.17603/ds2-6gyp-t353,"chRID040034 (""RecordID"" column in orig. db)",Not updated from global cat.,Event information not homogenised,Station information not homogenised,Distances not recomputed (event info not updated/homogenised and station info not homogenised),crustal,int,EQ_20220312122747_(chile_2025_id),ST_A03C (chile_2025),50.800057056399964,42.77869350949995,38.49882231580003,47.28767710117236,,,1.4474425411,0.8917510063,0.7258167909,,,,,,,,,,66.6373819938511,67.470185593579,50.8784494557567,,,,0.0090452085117286,0.0083948521444644,0.0048551701974416,,,,50.80599,,,102.4164,,125.4699,,112.9131,,56.79009,,16.421940000000003,,8.640648,,,3.480588,,,1.722636,,,,,0.6124383000000001,0.4261464,0.3228471,0.2628099,0.2268072,0.1989468,0.1751085,0.1519569,0.1166409,0.1135998,0.1086948,0.0866909699999999,42.78141,,,119.5839,,90.78174,,82.73754,,28.17432,,11.63466,,6.143022,,,2.999898,,,1.694187,,,,,0.4772565,0.3005784,0.2262186,0.1830546,0.1560771,0.1351818,0.1211535,0.1013373,0.0811973699999999,0.0728784899999999,0.06867981,0.05822235,38.50425,,,114.4827,,66.44313,,67.97349,,28.67463,,9.430353,,6.1803,,,4.30659,,,2.449557,,,,,0.65727,0.4631301,0.3350115,0.2602592999999999,0.2096396999999999,0.1734407999999999,0.1457766,0.1095777,0.08673021,0.07322184,0.06379443,0.05535783,46.75446,,,113.1093,,106.5366,,94.62726,,46.33263,,13.95963,,7.336899000000001,,,3.068568,,,1.727541,,,,,0.4994270999999999,0.3608118,0.2764458,0.2213136,0.1815831,0.1524474,0.133416,0.1132074,0.09037953,0.08336538,0.07884297,0.06361785,37.866600000000005,,,88.57449,,73.19241,,79.35309000000001,,21.23865,,7.947081000000001,,4.060359,,,2.434842,,,1.376343,,,,,0.4125105,0.2736009,0.2034594,0.1596087,0.1321407,0.1097739,0.09718767,0.0750072599999999,0.06505011,0.0510119999999999,0.05333697,0.0414963,50.86485,,,133.8084,,138.12480000000002,,115.9542,,60.34131,,16.4808,,8.757387,,,3.5316,,,2.103264,,,,,0.6516783,0.4513581,0.336483,0.2708541,0.2327913,0.2036556,0.1790324999999999,0.1537227,0.1184067,0.1142865,0.1089891,0.08739729,POINT (-71.1744 -27.4896),active,0
34782,EQ_20210119024621_(chile_2025_id),2021-01-19 02:46:21,,-31.849,-68.9185,18.6,SS,,6.2,6.5,226.96,57.09,174.66,,,,NETWORK_CSN,ST_C21O,-31.8987,-71.4928,0.0,715.0,measured,,,243.642761704126,238.743061169786,240.713829418586,,,0.146,0.159,0.02,95.0,95.0,95.0,"Both horizontal components and RotD50, RotD100, RotD00 (rotational measures only for SA). Vertical provided. Missing RotD50 values approximated using Boore and Kishida 2017.",,,chile_2025,Unrestricted non-commercial use with acknowledgement/citation of original dataset (stated Open Data Commons Attribution license on designsafe-ci.org),https://doi.org/10.17603/ds2-6gyp-t353,"chRID035733 (""RecordID"" column in orig. db)",Not updated from global cat.,Event information not homogenised,Station information not homogenised,Distances not recomputed (event info not updated/homogenised and station info not homogenised),crustal,unknown,EQ_20210119024621_(chile_2025_id),ST_C21O (chile_2025),15.517690119899967,20.79761183790001,7.89021581939993,18.22310569321374,,,1.9611998839,1.6807074555,0.7025400007,,,,,,,,,,124.624410463351,141.724662206729,67.03191854247021,,,,0.0072333607334511,0.0081098744876234,0.0015681315077278,,,,15.51942,,,16.0884,,18.001350000000002,,44.71398,,51.41421,,40.39758,,40.75074,,,63.92196,,,30.09708,,,,,4.215357,2.921418,2.92338,2.83509,2.88414,2.103264,1.646118,0.9703071,0.6509916,0.4759812,0.361989,0.278604,20.7972,,,21.36618,,24.99588,,38.73969,,37.55268,,38.39634,,47.80413,,,56.13282,,,16.65738,,,,,4.287951,2.994012,1.590201,1.009449,0.6308811,0.5429835,0.4235957999999999,0.3093093,0.2617308,0.1829565,0.1675548,0.146169,7.890182999999999,,,8.266887,,13.01787,,17.68743,,18.92349,,21.74877,,14.41089,,,22.71015,,,7.542909,,,,,2.666358,1.728522,1.028088,0.8854506000000001,0.8942796000000001,0.6653142,0.6078276,0.3382487999999999,0.2133675,0.1228212,0.09410733,0.0756351,17.60895,,,18.001350000000002,,20.601000000000003,,41.99661,,44.81208,,38.53368,,43.38963,,,59.08563,,,26.49681,,,,,4.324248,2.939076,2.439747,2.221965,2.1160170000000003,1.621593,1.22625,0.7442846999999999,0.5097276000000001,0.3839634,0.3036195,0.2406393,15.28398,,,15.823529999999998,,17.29503,,36.30681,,36.16947,,33.85431,,34.28595,,,51.86547,,,16.52004,,,,,3.069549,2.2484520000000003,1.340046,0.9105642,0.6291153,0.5264046,0.4196718,0.2705597999999999,0.2101302,0.1745198999999999,0.1428335999999999,0.1228212,20.8953,,,21.47409,,24.99588,,45.53802,,51.7968,,48.01014,,47.82375,,,63.93177000000001,,,30.39138,,,,,5.217939,3.164706,2.938095,2.848824,2.885121,2.112093,1.647099,0.9725634,0.6577605,0.4795127999999999,0.3733686,0.2994012,POINT (-68.9185 -31.849),active,0
34784,EQ_20210119024621_(chile_2025_id),2021-01-19 02:46:21,,-31.849,-68.9185,18.6,SS,,6.2,6.5,226.96,57.09,174.66,,,,NETWORK_C,ST_GO04,-30.1727,-70.7993,2076.0,605.0,measured,,,258.5850542134886,256.20250354135374,256.7153408735711,260.81538699202605,0.0,0.11,0.11,0.11,47.5,47.5,47.5,"Both horizontal components and RotD50, RotD100, RotD00 (rotational measures only for SA). Vertical provided. Missing RotD50 values approximated using Boore and Kishida 2017.",,,chile_2025,Unrestricted non-commercial use with acknowledgement/citation of original dataset (stated Open Data Commons Attribution license on designsafe-ci.org),https://doi.org/10.17603/ds2-6gyp-t353,"chRID035739 (""RecordID"" column in orig. db)",Not updated from global cat.,Event information not homogenised,Homogenised using NGAsub flatfile station info,Computed from OQ finite rupture (event info updated from GEM global catalogue OR event/station relocated during homogenisation),crustal,unknown,EQ_20210119024621_(chile_2025_id),ST_GO04 (chile_2025),29.054257054100027,15.44258331879998,11.77736005339996,21.48656474011669,,,2.3342139578,1.6934339843,0.7073194661,,,,,,,,,,241.370255198968,200.02593726838,85.8187744261394,,,,0.0197612351294079,0.0117872715865533,0.0023322483979656,,,,29.04741,,,29.3319,,33.79545,,44.56683,,47.68641,,87.49539,,97.01109,,,55.31859,,,20.91492,,,,,9.83943,6.728679,4.761774,2.7860400000000003,2.363229,1.5764669999999998,1.519569,1.493082,0.9344025,0.7472277,0.6630579,0.5775147,15.44094,,,16.04916,,19.26684,,34.75683,,35.48277,,72.83924999999999,,45.48897,,,28.09584,,,17.44218,,,,,9.607914,7.85781,4.68918,3.623814,2.90376,1.830546,1.754028,1.820736,1.497987,1.115397,0.8254134,0.6206787,11.772,,,12.01725,,14.01849,,22.50414,,28.48824,,23.42628,,19.53171,,,8.566092,,,6.549156,,,,,3.043062,2.394621,1.617669,1.49112,1.0908719999999998,0.8920233000000001,0.6137136000000001,0.3861216,0.3925962,0.3404069999999999,0.1779533999999999,0.113796,22.19022,,,22.65129,,25.506,,41.86908,,41.05485,,79.89264,,70.99497000000001,,,45.43992,,,20.21841,,,,,9.768798,7.227027,5.213034,3.142143,2.665377,1.884501,1.5970680000000002,1.620612,1.347894,0.9300861,0.7548795,0.6015492,14.47956,,,14.60709,,18.07983,,32.18661,,33.01065,,53.24868,,43.56621,,,25.63353,,,15.05835,,,,,6.774786,5.79771,4.302666,2.319084,1.940418,1.562733,1.485234,1.489158,0.7375157999999999,0.540531,0.3878874,0.2820375,30.411,,,30.862260000000003,,35.5122,,44.70417,,53.20944,,90.9387,,98.2962,,,55.985670000000006,,,22.40604,,,,,13.40046,7.882335,5.590719,3.66894,2.904741,2.220003,1.928646,1.898235,1.541151,1.1222640000000002,0.8677926,0.7186806,POINT (-68.9185 -31.849),active,0
34786,EQ_20210119024621_(chile_2025_id),2021-01-19 02:46:21,,-31.849,-68.9185,18.6,SS,,6.2,6.5,226.96,57.09,174.66,,,,NETWORK_C1,ST_VA03,-32.7637,-70.5508,1053.0,937.0,inferred from extrapolated Vs profile with max depth less than 30 km,,,184.05744485653256,175.29620194769026,176.38956308250334,31.14864116842091,173.24470025554004,0.02,0.02,0.02,47.5,47.5,47.5,"Both horizontal components and RotD50, RotD100, RotD00 (rotational measures only for SA). Vertical provided. Missing RotD50 values approximated using Boore and Kishida 2017.",,,chile_2025,Unrestricted non-commercial use with acknowledgement/citation of original dataset (stated Open Data Commons Attribution license on designsafe-ci.org),https://doi.org/10.17603/ds2-6gyp-t353,"chRID035741 (""RecordID"" column in orig. db)",Not updated from global cat.,Event information not homogenised,Homogenised using NGAsub flatfile station info,Computed from OQ finite rupture (event info updated from GEM global catalogue OR event/station relocated during homogenisation),crustal,unknown,EQ_20210119024621_(chile_2025_id),ST_VA03 (chile_2025),41.991547784000005,34.61707932379998,7.897061867499957,38.67481771255645,,,3.3239930395,2.2632956339,0.7615781671,,,,,,,,,,140.98204395160602,157.740369971221,86.5308723890613,,,,0.0138928949962873,0.0131351353244899,0.0026617692792049,,,,41.9868,,,42.22224,,45.64593,,71.29907999999999,,79.96131,,90.43839,,80.95212,,,47.59812,,,30.17556,,,,,4.88538,3.77685,3.03129,1.322388,1.173276,0.8556282,0.7167186,0.6252894,0.4380165,0.2940057,0.3969126,0.3873969,34.60968,,,35.88498,,37.85679,,77.99931,,75.37022999999999,,103.5936,,67.24755,,,29.09646,,,20.05164,,,,,3.077397,1.892349,1.845261,1.28511,0.8265906,0.7818569999999999,0.7703793,0.6948423,0.4082922,0.5295438,0.4257539999999999,0.3332457,7.89705,,,8.881974,,13.55742,,30.20499,,22.43547,,21.57219,,20.2086,,,15.53904,,,10.45746,,,,,2.1326940000000003,1.773648,0.7631199,0.6032169000000001,0.5549517,0.5456322,0.5588757,0.3135276,0.2806641,0.2437785,0.2698731,0.2168991,35.40429,,,36.30681,,38.09223,,73.2807,,72.07406999999999,,94.91175,,78.88221,,,40.91751,,,25.41771,,,,,4.195737,2.695788,2.358324,1.330236,0.8823114,0.8364006,0.7469334,0.6398082,0.4127067,0.4403709,0.4168269,0.3594384,20.76777,,,21.46428,,28.02717,,58.810950000000005,,54.1512,,64.41246,,53.79804,,,19.64943,,,17.57952,,,,,2.827242,1.833489,1.06929,1.110492,0.617049,0.5757489,0.4452759,0.4465512,0.325692,0.2808603,0.2677149,0.2868444,43.00704,,,43.43868,,45.65574,,81.31509000000001,,80.02017000000001,,105.5556,,87.13242,,,50.31549,,,30.17556,,,,,4.915791,3.797451,3.203946,1.704978,1.174257,0.9567693,0.8545491,0.7152471,0.471861,0.5298381,0.4789242,0.4889304,POINT (-68.9185 -31.849),active,0
34787,EQ_20210119024621_(chile_2025_id),2021-01-19 02:46:21,,-31.849,-68.9185,18.6,SS,,6.2,6.5,226.96,57.09,174.66,,,,NETWORK_C1,ST_CO03,-30.8389,-70.6891,1003.0,704.0,inferred from extrapolated Vs profile with max depth less than 30 km,,,202.2058481285152,198.09481369398,198.9885766755841,198.73459961596265,39.2315077445324,0.02,0.02,0.02,47.5,47.5,47.5,"Both horizontal components and RotD50, RotD100, RotD00 (rotational measures only for SA). Vertical provided. Missing RotD50 values approximated using Boore and Kishida 2017.",,,chile_2025,Unrestricted non-commercial use with acknowledgement/citation of original dataset (stated Open Data Commons Attribution license on designsafe-ci.org),https://doi.org/10.17603/ds2-6gyp-t353,"chRID035730 (""RecordID"" column in orig. db)",Not updated from global cat.,Event information not homogenised,Homogenised using NGAsub flatfile station info,Computed from OQ finite rupture (event info updated from GEM global catalogue OR event/station relocated during homogenisation),crustal,unknown,EQ_20210119024621_(chile_2025_id),ST_CO03 (chile_2025),11.901555194999956,12.999083344899974,5.052948440399946,12.617123208846063,,,1.0693968056,0.9282808391,0.3448265598,,,,,,,,,,94.1703485804037,104.255988433809,61.9566003719872,,,,0.00349299328811,0.0042665573346043,0.0012045921344364,,,,11.89953,,,13.87134,,26.25156,,30.9015,,20.31651,,16.71624,,21.46428,,,17.84439,,,8.650457999999999,,,,,6.835608000000001,4.017195,3.460968,2.141523,1.574505,1.714788,1.7363700000000002,1.266471,0.7560567,0.6517764,0.6128307,0.5322906,12.99825,,,15.2055,,29.871450000000003,,27.44838,,31.686300000000003,,37.58211,,25.74144,,,9.637344,,,6.585453,,,,,7.277058,4.151592,2.5584480000000003,1.828584,1.58922,1.333179,1.243908,0.7281963,0.5058035999999999,0.312939,0.3084264,0.302148,5.054112,,,6.419664,,14.14602,,15.05835,,12.14478,,8.005941,,8.607294000000001,,,6.453999,,,4.317381,,,,,1.482291,1.374381,1.478367,1.08891,0.8600427,0.6624693,0.6088086,0.6358842,0.4363488,0.3202965,0.2014974,0.1507797,12.99825,,,15.04854,,28.24299,,29.7243,,26.91864,,27.96831,,25.00569,,,14.03811,,,7.96572,,,,,7.099497,3.979917,3.074454,2.19744,1.583334,1.501911,1.485234,1.047708,0.6708078000000001,0.5360184,0.4673484,0.4252635,11.19321,,,12.91977,,24.6231,,26.03574,,19.94373,,16.27479,,20.18898,,,8.519985,,,6.110649,,,,,4.0005180000000005,2.711484,1.869786,1.600011,1.220364,0.8896689,0.9575541,0.7027884,0.4265388,0.2987145,0.2865501,0.2352438,13.91058,,,16.157069999999997,,30.27366,,39.58335,,31.76478,,38.27862,,31.980599999999995,,,17.96211,,,9.29988,,,,,8.654382,4.367412,4.170230999999999,2.8154700000000004,1.97181,1.862919,1.870767,1.266471,0.7825437000000001,0.6839532,0.6223464000000001,0.5374899000000001,POINT (-68.9185 -31.849),active,0
34791,EQ_20210119024621_(chile_2025_id),2021-01-19 02:46:21,,-31.849,-68.9185,18.6,SS,,6.2,6.5,226.96,57.09,174.66,,,,NETWORK_CSN,ST_C12O,-31.39823914,-71.45839691,273.0,742.0,inferred from extrapolated Vs profile with max depth less than 30 km,,,245.6479353647512,238.8481885029378,239.4606329284485,201.27617253967668,135.2725861822527,0.293,0.146,0.024,95.0,95.0,95.0,"Both horizontal components and RotD50, RotD100, RotD00 (rotational measures only for SA). Vertical provided. Missing RotD50 values approximated using Boore and Kishida 2017.",,,chile_2025,Unrestricted non-commercial use with acknowledgement/citation of original dataset (stated Open Data Commons Attribution license on designsafe-ci.org),https://doi.org/10.17603/ds2-6gyp-t353,"chRID035722 (""RecordID"" column in orig. db)",Not updated from global cat.,Event information not homogenised,Homogenised using NGAsub flatfile station info,Computed from OQ finite rupture (event info updated from GEM global catalogue OR event/station relocated during homogenisation),crustal,unknown,EQ_20210119024621_(chile_2025_id),ST_C12O (chile_2025),10.073489587000026,8.62445174399993,8.795036185499963,9.45491963076267,,,1.1521231671,0.7675389143,0.9624587138,,,,,,,,,,66.3764205700148,64.8262702871856,49.1555098945613,,,,0.0019099572078663,0.001626488230524,0.0010714725319672,,,,10.07487,,,11.5758,,23.181030000000003,,25.56486,,28.92969,,18.42318,,18.07002,,,15.68619,,,14.99949,,,,,3.741534,4.271274,3.31578,2.949867,2.445633,2.022822,1.590201,0.9459783,0.7160319,0.5641731000000001,0.4519467,0.3133314,8.624951999999999,,,9.469593,,17.94249,,20.35575,,20.94435,,22.98483,,19.73772,,,7.760691,,,8.929062,,,,,6.269571,3.279483,2.455443,2.175858,1.600011,1.184067,0.9163521,0.5794767,0.3887702999999999,0.2652624,0.1890387,0.1552923,8.795646,,,9.367569,,9.632439,,16.68681,,20.57157,,14.90139,,19.49247,,,7.499745,,,15.37227,,,,,5.791824,2.539809,1.302768,0.9346968,0.731826,0.5350374,0.41202,0.2644776,0.1858995,0.1437165,0.1152675,0.09469593,9.029124,,,10.38879,,18.01116,,22.08231,,23.56362,,22.09212,,18.56052,,,13.47894,,,10.95777,,,,,5.266989,3.73761,2.934171,2.610441,2.086587,1.686339,1.296882,0.8113851,0.5810463,0.4420386,0.3497265,0.2480949,8.382645,,,9.460764,,15.48999,,18.07983,,18.31527,,16.745669999999997,,16.90263,,,7.744994999999999,,,5.940936,,,,,3.624795,2.142504,1.329255,0.8693622,0.7425189,0.6002738999999999,0.5208128999999999,0.2763477,0.1930608,0.177561,0.133416,0.1007487,10.64385,,,12.43908,,23.27913,,26.1927,,28.96893,,23.87754,,20.434230000000003,,,15.7941,,,15.18588,,,,,6.903297,4.852026,4.0221,3.484512,2.907684,2.328894,1.808964,1.101663,0.8145243,0.6232293,0.4889304,0.3487455,POINT (-68.9185 -31.849),active,0
