,esm_event_id,event_time,isc_event_id,usgs_event_id,ingv_event_id,emsc_event_id,ev_nation_code,ev_latitude,ev_longitude,ev_depth_km,ev_hyp_ref,fm_type_code,ml,ml_ref,mw,mw_ref,ms,ms_ref,emec_mw,emec_mw_type,emec_mw_ref,es_strike,es_dip,es_rake,es_strike_dip_rake_ref,z_top,es_z_top_ref,es_length,es_width,es_geometry_ref,network_code,station_code,location_code,instrument_code,sensor_depth_m,proximity,hounsing,installation,st_nation_code,st_latitude,st_longitude,st_elevation,ec8_code,ec8_code_method,ec8_code_from_topography,ec8_code_ref,vs30_m_s,vs30_ref,vs30_calc_method,vs30_meas_type,slope_deg,vs30_m_s_wa,epi_dist,epi_az,jb_dist,rup_dist,rx_dist,ry0_dist,instrument_type_code,late_triggered_event_01,u_channel_code,u_azimuth_deg,v_channel_code,v_azimuth_deg,w_channel_code,u_hp,v_hp,w_hp,u_lp,v_lp,w_lp,u_pga,v_pga,w_pga,rotd50_pga,rotd100_pga,rotd00_pga,u_pgv,v_pgv,w_pgv,rotd50_pgv,rotd100_pgv,rotd00_pgv,u_pgd,v_pgd,w_pgd,rotd50_pgd,rotd100_pgd,rotd00_pgd,u_t90,v_t90,w_t90,rotd50_t90,rotd100_t90,rot_d00_t90,u_housner,v_housner,w_housner,rotd50_housner,rotd100_housner,rotd00_housner,u_cav,v_cav,w_cav,rotd50_cav,rotd100_cav,rotd00_cav,u_ia,v_ia,w_ia,rotd50_ia,rotd100_ia,rotd00_ia,u_t0_010,u_t0_025,u_t0_040,u_t0_050,u_t0_070,u_t0_100,u_t0_150,u_t0_200,u_t0_250,u_t0_300,u_t0_350,u_t0_400,u_t0_450,u_t0_500,u_t0_600,u_t0_700,u_t0_750,u_t0_800,u_t0_900,u_t1_000,u_t1_200,u_t1_400,u_t1_600,u_t1_800,u_t2_000,u_t2_500,u_t3_000,u_t3_500,u_t4_000,u_t4_500,u_t5_000,u_t6_000,u_t7_000,u_t8_000,u_t9_000,u_t10_000,v_t0_010,v_t0_025,v_t0_040,v_t0_050,v_t0_070,v_t0_100,v_t0_150,v_t0_200,v_t0_250,v_t0_300,v_t0_350,v_t0_400,v_t0_450,v_t0_500,v_t0_600,v_t0_700,v_t0_750,v_t0_800,v_t0_900,v_t1_000,v_t1_200,v_t1_400,v_t1_600,v_t1_800,v_t2_000,v_t2_500,v_t3_000,v_t3_500,v_t4_000,v_t4_500,v_t5_000,v_t6_000,v_t7_000,v_t8_000,v_t9_000,v_t10_000,w_t0_010,w_t0_025,w_t0_040,w_t0_050,w_t0_070,w_t0_100,w_t0_150,w_t0_200,w_t0_250,w_t0_300,w_t0_350,w_t0_400,w_t0_450,w_t0_500,w_t0_600,w_t0_700,w_t0_750,w_t0_800,w_t0_900,w_t1_000,w_t1_200,w_t1_400,w_t1_600,w_t1_800,w_t2_000,w_t2_500,w_t3_000,w_t3_500,w_t4_000,w_t4_500,w_t5_000,w_t6_000,w_t7_000,w_t8_000,w_t9_000,w_t10_000,rotd50_t0_010,rotd50_t0_025,rotd50_t0_040,rotd50_t0_050,rotd50_t0_070,rotd50_t0_100,rotd50_t0_150,rotd50_t0_200,rotd50_t0_250,rotd50_t0_300,rotd50_t0_350,rotd50_t0_400,rotd50_t0_450,rotd50_t0_500,rotd50_t0_600,rotd50_t0_700,rotd50_t0_750,rotd50_t0_800,rotd50_t0_900,rotd50_t1_000,rotd50_t1_200,rotd50_t1_400,rotd50_t1_600,rotd50_t1_800,rotd50_t2_000,rotd50_t2_500,rotd50_t3_000,rotd50_t3_500,rotd50_t4_000,rotd50_t4_500,rotd50_t5_000,rotd50_t6_000,rotd50_t7_000,rotd50_t8_000,rotd50_t9_000,rotd50_t10_000,rotd100_t0_010,rotd100_t0_025,rotd100_t0_040,rotd100_t0_050,rotd100_t0_070,rotd100_t0_100,rotd100_t0_150,rotd100_t0_200,rotd100_t0_250,rotd100_t0_300,rotd100_t0_350,rotd100_t0_400,rotd100_t0_450,rotd100_t0_500,rotd100_t0_600,rotd100_t0_700,rotd100_t0_750,rotd100_t0_800,rotd100_t0_900,rotd100_t1_000,rotd100_t1_200,rotd100_t1_400,rotd100_t1_600,rotd100_t1_800,rotd100_t2_000,rotd100_t2_500,rotd100_t3_000,rotd100_t3_500,rotd100_t4_000,rotd100_t4_500,rotd100_t5_000,rotd100_t6_000,rotd100_t7_000,rotd100_t8_000,rotd100_t9_000,rotd100_t10_000,rotd00_t0_010,rotd00_t0_025,rotd00_t0_040,rotd00_t0_050,rotd00_t0_070,rotd00_t0_100,rotd00_t0_150,rotd00_t0_200,rotd00_t0_250,rotd00_t0_300,rotd00_t0_350,rotd00_t0_400,rotd00_t0_450,rotd00_t0_500,rotd00_t0_600,rotd00_t0_700,rotd00_t0_750,rotd00_t0_800,rotd00_t0_900,rotd00_t1_000,rotd00_t1_200,rotd00_t1_400,rotd00_t1_600,rotd00_t1_800,rotd00_t2_000,rotd00_t2_500,rotd00_t3_000,rotd00_t3_500,rotd00_t4_000,rotd00_t4_500,rotd00_t5_000,rotd00_t6_000,rotd00_t7_000,rotd00_t8_000,rotd00_t9_000,rotd00_t10_000
1653,EMSC-20200923_0000200,2020-09-23T23:25:00,,,,,AL,41.0002,19.8487,26.7,,TF,,,4.2,,4.2,,4.2,,,,,,,,,,,,HI,LMS2,,D,0,,,,GR,40.834985,21.141815,923,,topography,,,,,,,2.32,451.3,110.4651026,99.13676291,,,,,D,0,E,90,N,0,Z,0.1,0.1,0.1,40,40,40,0.252982,-0.263816,0.095118,0.259397,0.291455,0.191016,-0.013454,-0.009156,-0.005362,0.0124938,0.0152196,0.0091054,0.00205,-0.000905,-0.001039,0.00145733,0.00205367,0.0091054,26.28,24.935,26.825,25.315,26.89,24.83,0.0448775,0.0293125,0.022906,0.037356047,0.045526749,0.028753414,1.25395012,1.604720429,0.59407681,1.442687641,1.621633729,1.230455085,0.000106224,0.000168381,2.22E-05,0.000137303,0.000175261,9.93E-05,0.253904,0.259766,0.273338,0.285686,0.319372,0.452108,1.12379,0.698857,0.631919,0.480974,0.46066,0.389932,0.307738,0.37267,0.411651,0.337487,0.320638,0.305536,0.246684,0.168635,0.099822,0.078668,0.044258,0.031841,0.027451,0.013063,0.010111,0.008323,0.005787,0.004545,0.003934,0.003072,0.0023,0.001804,0.001592,0.001286,0.264393,0.268039,0.273455,0.276987,0.325531,0.47073,1.03264,0.714607,0.492204,0.581691,0.484534,0.267088,0.241343,0.284876,0.244508,0.300193,0.225653,0.139176,0.080561,0.067276,0.054952,0.034529,0.031114,0.024084,0.020828,0.013084,0.007234,0.004627,0.004097,0.00331,0.002151,0.001618,0.001191,0.000961,0.000831,0.00074,0.095135,0.098591,0.105307,0.113295,0.173465,0.255788,0.294197,0.283915,0.219711,0.240247,0.159085,0.166166,0.147387,0.165214,0.158442,0.149908,0.145338,0.121235,0.102833,0.081821,0.064496,0.039007,0.029322,0.025418,0.021897,0.011057,0.007437,0.004547,0.003366,0.00361,0.003309,0.001694,0.001132,0.000776,0.000677,0.000616,0.2598875,0.263903,0.273397,0.2810165,0.3224515,0.4487605,1.046095,0.70656,0.505042,0.5443855,0.443903,0.292632,0.270699,0.325672,0.34187,0.321795,0.2732625,0.2371435,0.1940385,0.130928,0.08121115,0.0588818,0.0404143,0.0292538,0.02171035,0.0129143,0.009309375,0.00689636,0.00494992,0.003855425,0.003073705,0.002267065,0.00170831,0.00135589,0.00119677,0.000987383,0.292935,0.298812,0.312961,0.32515,0.353836,0.487969,1.42521,0.76135,0.654564,0.62147,0.490123,0.392015,0.349286,0.397939,0.439131,0.363508,0.359194,0.327575,0.252707,0.175751,0.101795,0.0786679,0.0460324,0.0344229,0.0297952,0.0153027,0.0108961,0.00837614,0.0060668,0.00475978,0.00400939,0.00308074,0.00229609,0.00180867,0.0015943,0.00130087,0.194066,0.198369,0.205131,0.212259,0.247972,0.341173,0.623378,0.578203,0.464046,0.367255,0.395318,0.225465,0.177702,0.208835,0.200961,0.237461,0.163476,0.117751,0.080561,0.0653851,0.0525474,0.0341844,0.0295302,0.023334,0.0171294,0.0089242,0.00645959,0.00443651,0.00373896,0.00289493,0.00215132,0.00147483,0.00113109,0.000927873,0.000820937,0.000739366
1654,EMSC-20200923_0000200,2020-09-23T23:25:00,,,,,AL,41.0002,19.8487,26.7,,TF,,,4.2,,4.2,,4.2,,,,,,,,,,,,HL,JAN,0,D,0,,,,GR,39.65616,20.84874,526,,topography,,,,,,,2.53,466.6,171.7419294,150.0157525,,,,,D,0,E,90,N,0,Z,0.1,0.1,0.1,40,40,40,-0.114746,0.123154,-0.075271,0.115378,0.144518,0.0928722,0.008054,0.007557,-0.004968,0.00748962,0.00809136,0.00697676,-0.001625,-0.001288,-0.001042,0.001503995,0.00186638,0.00697676,33.44,40.355,40.365,37.745,40.37,33.43,0.034374,0.0257522,0.0181823,0.03053962,0.034593781,0.024430578,0.925351,0.89079541,0.614224245,0.910306471,0.932488183,0.886175734,4.39E-05,3.62E-05,1.63E-05,4.01E-05,4.39E-05,3.62E-05,0.114755,0.114805,0.120206,0.126402,0.139907,0.203643,0.33388,0.384536,0.423996,0.554764,0.4196,0.330971,0.430077,0.252549,0.18777,0.135192,0.097627,0.10897,0.085049,0.111856,0.083924,0.051372,0.058583,0.039869,0.035536,0.023997,0.013917,0.010467,0.007427,0.006383,0.004783,0.002948,0.002251,0.001551,0.00119,0.000998,0.123547,0.12451,0.128867,0.133893,0.151667,0.178694,0.389608,0.271823,0.315092,0.321423,0.311551,0.414183,0.383556,0.271584,0.154301,0.166923,0.160168,0.124564,0.091472,0.080236,0.051994,0.04245,0.027878,0.024191,0.019584,0.014561,0.008613,0.004799,0.003537,0.003712,0.002933,0.001597,0.001353,0.000954,0.000967,0.000736,0.075457,0.076959,0.07873,0.076223,0.084811,0.114185,0.205888,0.176563,0.300395,0.2131,0.164039,0.191925,0.173201,0.132377,0.103753,0.075434,0.08467,0.07374,0.062944,0.061935,0.042175,0.031977,0.024568,0.022042,0.013849,0.01164,0.008981,0.005462,0.00486,0.004532,0.003728,0.002038,0.001241,0.000677,0.000768,0.000595,0.1162515,0.1167475,0.1219485,0.126501,0.146201,0.2031965,0.3431305,0.332332,0.325569,0.4857145,0.3355685,0.3436595,0.386998,0.2597335,0.1706365,0.1468745,0.126491,0.120006,0.0900639,0.09875315,0.06621715,0.0438706,0.04531005,0.03313895,0.0281791,0.02031665,0.0120621,0.00828435,0.006149175,0.005350805,0.004047965,0.00245287,0.001824575,0.00131685,0.00115216,0.000905771,0.145522,0.147358,0.150176,0.154876,0.20453,0.234259,0.422412,0.400929,0.436782,0.560637,0.419601,0.416711,0.434841,0.274851,0.198899,0.172256,0.166816,0.128541,0.0963425,0.12115,0.0872735,0.0566494,0.0586781,0.0398973,0.0355354,0.0253249,0.0154564,0.0110427,0.00787742,0.00707692,0.00539049,0.00322088,0.00225715,0.0015548,0.00136926,0.00108266,0.0941968,0.0947254,0.109163,0.0992465,0.112027,0.159707,0.29306,0.244493,0.281781,0.318703,0.311551,0.301314,0.358208,0.241211,0.127368,0.127417,0.0976275,0.105023,0.0728915,0.0741517,0.0464839,0.0393568,0.0278782,0.0178934,0.0177107,0.0079747,0.00527521,0.00408264,0.00311127,0.00223279,0.00163075,0.00114891,0.00109469,0.000770756,0.000751443,0.000542072
1655,EMSC-20200923_0000200,2020-09-23T23:25:00,,,,,AL,41.0002,19.8487,26.7,,TF,,,4.2,,4.2,,4.2,,,,,,,,,,,,MN,PDG,,D,5,,,,ME,42.4297,19.2608,40,,geology,,S4_2007-2009_DiCapua_et_al_2011,,,,,1.21,372.7,166.1371269,343.0686057,,,,,D,0,E,90,N,0,Z,0.1,0.1,0.1,40,40,40,0.058435,0.05535,-0.058268,0.0557832,0.0595107,0.0516639,0.003236,0.003142,-0.002608,0.00302241,0.00323603,0.00259464,-0.000677,-0.000402,-0.000363,0.000533196,0.000674744,0.00259464,38.365,37.9,39.34,37.9925,38.365,37.545,0.0104773,0.00971464,0.00870494,0.010042279,0.011003999,0.009126351,0.456735055,0.43323488,0.431316915,0.445072802,0.468263686,0.41850631,9.80E-06,8.69E-06,8.41E-06,9.24E-06,1.01E-05,8.34E-06,0.058627,0.059894,0.063709,0.075383,0.090604,0.149053,0.184593,0.20297,0.199753,0.14744,0.135516,0.140815,0.085855,0.108778,0.06267,0.035265,0.033685,0.030447,0.032352,0.039063,0.025686,0.016089,0.011006,0.009094,0.008883,0.007657,0.008526,0.004985,0.004818,0.003469,0.002104,0.001923,0.001341,0.000803,0.000531,0.000371,0.055356,0.056739,0.062062,0.061303,0.087601,0.109912,0.180991,0.15986,0.18859,0.128869,0.15223,0.174668,0.166001,0.114659,0.068977,0.043178,0.041248,0.033449,0.030537,0.026976,0.015858,0.014586,0.009047,0.008187,0.008271,0.007319,0.004585,0.002718,0.002073,0.00141,0.000974,0.000715,0.000493,0.000577,0.000352,0.000307,0.058541,0.060365,0.061213,0.064716,0.100092,0.111776,0.168823,0.217024,0.137554,0.106427,0.141494,0.145858,0.101351,0.062533,0.071991,0.041182,0.045827,0.042111,0.030941,0.024742,0.016843,0.014356,0.011669,0.005871,0.004742,0.005364,0.00422,0.003381,0.003237,0.00223,0.001067,0.001298,0.000834,0.000647,0.000388,0.000262,0.0575417,0.0581597,0.06203795,0.0715459,0.09027665,0.121621,0.176676,0.191893,0.1920145,0.14137,0.1364605,0.149569,0.1357135,0.1146955,0.06638815,0.0412975,0.03682325,0.0338536,0.0323448,0.0329538,0.02166555,0.01497795,0.009330915,0.00862155,0.008622405,0.007469355,0.006582645,0.003880955,0.003641905,0.002600675,0.00184368,0.001468575,0.000951545,0.000706632,0.000446524,0.000336683,0.060863,0.0620887,0.0657869,0.0755908,0.0994386,0.150554,0.198132,0.216187,0.251434,0.153129,0.174147,0.178695,0.169932,0.118938,0.0806454,0.0435327,0.0446466,0.037466,0.0354674,0.0391133,0.0259897,0.0204441,0.0113525,0.0109636,0.010537,0.00792012,0.00865649,0.00503521,0.00492189,0.00347014,0.00214909,0.0019262,0.00134495,0.00081433,0.00055599,0.000409843,0.0519725,0.0533909,0.0579274,0.0602211,0.0783593,0.103991,0.144021,0.151737,0.141746,0.121938,0.11641,0.12621,0.0836037,0.0994612,0.0534729,0.0333437,0.0278174,0.0296652,0.026365,0.0247507,0.0126531,0.00975678,0.00629161,0.00670459,0.00524034,0.0063171,0.00428185,0.00271735,0.00174786,0.00140823,0.000971123,0.000716353,0.000480287,0.000535565,0.000337981,0.00028378
777,EMSC-20151214_0000085,2015-12-14T21:13:00,,,,,GR,39,20.64,26,,SS,4.1,,4.2,,4.2,,4.2,,,,,,,,,,,,AC,FIER,0,D,,Inside structure,Building,Building floor,AL,40.7174,19.5669,,B,vs_profile,,,374,AC,,MASW,1.68,406.3,211.6387778,334.6293582,,,,,D,0,E,90,N,0,Z,0.2,0.2,0.2,25,25,25,0.048573,0.040573,-0.023313,0.0448625,0.050652,0.036965,0.0046,-0.004369,-0.002678,0.00432017,0.00465071,0.00361259,0.001157,-0.00124,-0.000506,0.001126795,0.00123721,0.00361259,78.345,66.45,97.795,73.8275,78.625,65.29,0.0242591,0.0199773,0.0122754,0.0214428,0.025027,0.0190887,0.801483025,0.704345445,0.469979495,0.75734964,0.848173265,0.658257815,1.49E-05,1.32E-05,4.65E-06,1.41E-05,1.66E-05,1.16E-05,0.048582,0.048807,0.049308,0.0503,0.051299,0.054509,0.079561,0.149643,0.134382,0.140684,0.125743,0.137495,0.128843,0.128989,0.106104,0.122225,0.102602,0.101251,0.09457,0.067367,0.054837,0.053141,0.043672,0.037218,0.035747,0.018652,0.015875,0.009196,0.00602,0.004372,0.003461,0.002302,0.001642,0.001009,0.000682,0.000546,0.040629,0.040894,0.042069,0.043813,0.045411,0.055144,0.131633,0.194225,0.160189,0.162063,0.130959,0.102382,0.128399,0.104966,0.098884,0.089142,0.069182,0.083681,0.068168,0.05786,0.037684,0.045645,0.03358,0.0317,0.020423,0.022994,0.016124,0.007635,0.006012,0.005559,0.003887,0.002303,0.001467,0.000973,0.000711,0.000543,0.023373,0.023658,0.024031,0.025308,0.025847,0.042384,0.050282,0.052213,0.061135,0.072026,0.065672,0.062253,0.051788,0.056219,0.056637,0.080821,0.06147,0.048405,0.04953,0.043131,0.024336,0.028451,0.0187,0.019729,0.022397,0.010254,0.0055,0.006078,0.004264,0.003734,0.00184,0.000866,0.000655,0.000516,0.00038,0.000284,0.044931,0.0452755,0.0458105,0.047351,0.048073,0.0549345,0.105152,0.1621375,0.1427535,0.1499025,0.1278335,0.1248115,0.128621,0.117491,0.1028595,0.0974545,0.0827525,0.086376,0.082682,0.061873,0.047942,0.0456715,0.0389645,0.033508,0.027036,0.0213655,0.0155455,0.007827,0.00602,0.0051705,0.0036215,0.002302,0.001438,0.001011,0.0006975,0.0005765,0.050662,0.050863,0.051129,0.054617,0.055696,0.066149,0.139599,0.195441,0.163205,0.181094,0.142107,0.138793,0.144574,0.134157,0.118168,0.123484,0.10311,0.101376,0.109052,0.069676,0.055549,0.053443,0.049046,0.041548,0.036806,0.023715,0.016875,0.009743,0.006279,0.005569,0.003901,0.002635,0.001716,0.0011,0.000818,0.000662,0.036968,0.037239,0.037742,0.038384,0.038935,0.04442,0.073852,0.138001,0.121458,0.095189,0.115778,0.086175,0.101597,0.104194,0.093617,0.081928,0.066762,0.070999,0.055907,0.051443,0.035102,0.035585,0.031933,0.027325,0.019164,0.017008,0.013793,0.006589,0.005556,0.004372,0.002329,0.001438,0.001252,0.000899,0.000646,0.000514
778,EMSC-20151214_0000085,2015-12-14T21:13:00,,,,,GR,39,20.64,26,,SS,4.1,,4.2,,4.2,,4.2,,,,,,,,,,,,AC,HIMA,0,D,,No information,Small masonry building,Building floor,AL,40.089,19.7582,,A,vs_profile,,,1178,AC,,MASW,10.34,821.1,142.7002187,328.1957242,,,,,D,0,E,90,N,0,Z,0.15,0.15,0.15,30,30,30,-0.143435,0.140293,0.065124,0.1389325,0.155781,0.097976,0.007002,-0.006785,-0.003192,0.00694362,0.00786542,0.00422547,0.001205,-0.001289,0.000764,0.00122895,0.00161929,0.00422547,40.655,42.84,39.805,41.9375,47.785,37.72,0.0209434,0.0216642,0.0133869,0.02127485,0.0233878,0.0191024,0.836919825,0.742578311,0.599802905,0.795009222,0.852466615,0.71736481,3.26E-05,2.44E-05,1.63E-05,2.85E-05,3.63E-05,2.07E-05,0.143668,0.145618,0.152863,0.157653,0.202712,0.206259,0.520987,0.48985,0.296114,0.210404,0.238469,0.213038,0.182983,0.184689,0.177478,0.156262,0.107864,0.083713,0.075256,0.067517,0.049895,0.031035,0.024479,0.017202,0.016146,0.011771,0.008338,0.008333,0.007546,0.006628,0.005627,0.003648,0.002273,0.001733,0.001399,0.001209,0.140623,0.142704,0.147025,0.150178,0.177237,0.226563,0.371936,0.401867,0.352075,0.260758,0.309853,0.261995,0.213443,0.173539,0.110692,0.111005,0.121253,0.121734,0.078796,0.062869,0.045014,0.038274,0.029601,0.022194,0.017559,0.010943,0.007938,0.006587,0.006263,0.006651,0.004146,0.002765,0.002277,0.001754,0.001192,0.000812,0.065538,0.067252,0.072312,0.085688,0.114437,0.160245,0.316958,0.278898,0.14206,0.152588,0.118618,0.111805,0.122518,0.103545,0.06677,0.058373,0.069492,0.063436,0.064984,0.056576,0.029036,0.021039,0.015427,0.014638,0.012253,0.010062,0.007983,0.00684,0.005552,0.0056,0.00468,0.002689,0.002008,0.001382,0.000868,0.000778,0.1393295,0.141059,0.1469785,0.149868,0.1769265,0.221072,0.454209,0.4566065,0.3350525,0.232256,0.273417,0.229832,0.1984625,0.1810195,0.140048,0.123546,0.118899,0.111115,0.0798365,0.0656,0.046649,0.036664,0.0252325,0.019912,0.017216,0.0114735,0.0082665,0.0075725,0.006884,0.0065565,0.005003,0.003192,0.0022305,0.0016375,0.0012455,0.0010435,0.156322,0.158779,0.165148,0.168978,0.203771,0.280482,0.56471,0.49257,0.393803,0.279896,0.370951,0.2962,0.266846,0.207636,0.178304,0.158549,0.136525,0.126702,0.088663,0.070915,0.049938,0.040078,0.031596,0.022595,0.017947,0.01453,0.009586,0.008945,0.008658,0.007443,0.00647,0.004015,0.002633,0.001771,0.001664,0.001277,0.098024,0.099908,0.102859,0.109405,0.137623,0.159514,0.266679,0.338471,0.241999,0.180305,0.158178,0.164452,0.12237,0.12049,0.108216,0.104734,0.098014,0.079743,0.06512,0.056838,0.044684,0.031035,0.022211,0.014705,0.011982,0.007777,0.006075,0.004972,0.004232,0.00421,0.003794,0.002718,0.002019,0.001395,0.001116,0.000666
779,EMSC-20151214_0000085,2015-12-14T21:13:00,,,,,GR,39,20.64,26,,SS,4.1,,4.2,,4.2,,4.2,,,,,,,,,,,,AC,TPE,0,D,,Inside structure,Building,Building floor,AL,40.2948,20.0155,367,B,vs_profile,,,686,AC,,MASW,11.84,860.3,153.4254844,339.7502703,,,,,D,0,E,90,N,0,Z,0.2,0.2,0.2,30,30,30,-0.081812,0.074401,-0.053053,0.0811045,0.088705,0.073328,-0.005745,-0.00756,-0.004045,0.007123385,0.00771779,0.00529728,0.001398,-0.001567,0.000786,0.00145164,0.00160647,0.00529728,47.78,48.21,44.255,47.8925,49.27,46.585,0.0257979,0.0348247,0.0226581,0.0316751,0.0353855,0.0257979,0.852980665,0.787836515,0.549771435,0.81661895,0.864852235,0.779461005,2.70E-05,2.31E-05,1.12E-05,2.50E-05,2.73E-05,2.28E-05,0.081906,0.085171,0.087579,0.096158,0.111978,0.226157,0.22444,0.260629,0.201459,0.211641,0.266569,0.232087,0.123669,0.139358,0.152877,0.11123,0.132927,0.143102,0.120701,0.076218,0.057687,0.041613,0.064267,0.03494,0.022341,0.015737,0.009982,0.006373,0.005851,0.006973,0.00374,0.002253,0.001704,0.001215,0.00096,0.000761,0.074508,0.075569,0.078518,0.0809,0.102243,0.219844,0.221381,0.247676,0.212422,0.24247,0.191604,0.131042,0.152329,0.181635,0.117517,0.121692,0.104486,0.102175,0.105276,0.128388,0.109267,0.09635,0.049292,0.059829,0.061205,0.020924,0.011455,0.00709,0.004446,0.003964,0.002713,0.002093,0.001464,0.001214,0.000962,0.000803,0.05307,0.053248,0.056165,0.056453,0.063817,0.119113,0.136252,0.134416,0.103367,0.121452,0.136693,0.105922,0.095004,0.102352,0.094557,0.111785,0.14002,0.120672,0.081419,0.064426,0.055196,0.036971,0.051174,0.039925,0.029857,0.01711,0.008173,0.00444,0.003269,0.002578,0.001897,0.001101,0.000894,0.000659,0.000562,0.000466,0.081116,0.0824735,0.087854,0.088584,0.1201765,0.218995,0.2242075,0.2419555,0.200457,0.2292065,0.2365145,0.1844365,0.1344675,0.162827,0.117721,0.1144775,0.1199005,0.1295825,0.114095,0.116723,0.089941,0.0773415,0.06139,0.0510245,0.0449475,0.016132,0.010366,0.006423,0.0052925,0.0053715,0.00328,0.002052,0.001454,0.00118,0.0009375,0.0007785,0.088706,0.090702,0.093417,0.096402,0.133613,0.237414,0.238035,0.261322,0.224896,0.306928,0.282788,0.236459,0.160617,0.189683,0.15702,0.129067,0.134698,0.144399,0.123015,0.132859,0.109816,0.096926,0.0733,0.065619,0.063408,0.020924,0.011865,0.007166,0.006048,0.007295,0.004401,0.002313,0.001858,0.001346,0.001065,0.000864,0.073648,0.074884,0.078518,0.078971,0.095852,0.180391,0.187716,0.208526,0.177496,0.173099,0.171041,0.131042,0.117988,0.109648,0.091698,0.080892,0.094494,0.095251,0.088355,0.074681,0.057687,0.041613,0.049292,0.032802,0.022341,0.013746,0.007268,0.005417,0.004403,0.003967,0.002314,0.001697,0.001008,0.000841,0.000701,0.000595
