,esm_event_id,event_time,isc_event_id,usgs_event_id,ingv_event_id,emsc_event_id,ev_nation_code,ev_latitude,ev_longitude,ev_depth_km,ev_hyp_ref,fm_type_code,ml,ml_ref,mw,mw_ref,ms,ms_ref,emec_mw,emec_mw_type,emec_mw_ref,es_strike,es_dip,es_rake,es_strike_dip_rake_ref,z_top,es_z_top_ref,es_length,es_width,es_geometry_ref,network_code,station_code,location_code,instrument_code,sensor_depth_m,proximity,hounsing,installation,st_nation_code,st_latitude,st_longitude,st_elevation,ec8_code,ec8_code_method,ec8_code_from_topography,ec8_code_ref,vs30_m_s,vs30_ref,vs30_calc_method,vs30_meas_type,slope_deg,vs30_m_s_wa,epi_dist,epi_az,jb_dist,rup_dist,rx_dist,ry0_dist,instrument_type_code,late_triggered_event_01,u_channel_code,u_azimuth_deg,v_channel_code,v_azimuth_deg,w_channel_code,u_hp,v_hp,w_hp,u_lp,v_lp,w_lp,u_pga,v_pga,w_pga,rotd50_pga,rotd100_pga,rotd00_pga,u_pgv,v_pgv,w_pgv,rotd50_pgv,rotd100_pgv,rotd00_pgv,u_pgd,v_pgd,w_pgd,rotd50_pgd,rotd100_pgd,rotd00_pgd,u_t90,v_t90,w_t90,rotd50_t90,rotd100_t90,rot_d00_t90,u_housner,v_housner,w_housner,rotd50_housner,rotd100_housner,rotd00_housner,u_cav,v_cav,w_cav,rotd50_cav,rotd100_cav,rotd00_cav,u_ia,v_ia,w_ia,rotd50_ia,rotd100_ia,rotd00_ia,u_t0_010,u_t0_025,u_t0_040,u_t0_050,u_t0_070,u_t0_100,u_t0_150,u_t0_200,u_t0_250,u_t0_300,u_t0_350,u_t0_400,u_t0_450,u_t0_500,u_t0_600,u_t0_700,u_t0_750,u_t0_800,u_t0_900,u_t1_000,u_t1_200,u_t1_400,u_t1_600,u_t1_800,u_t2_000,u_t2_500,u_t3_000,u_t3_500,u_t4_000,u_t4_500,u_t5_000,u_t6_000,u_t7_000,u_t8_000,u_t9_000,u_t10_000,v_t0_010,v_t0_025,v_t0_040,v_t0_050,v_t0_070,v_t0_100,v_t0_150,v_t0_200,v_t0_250,v_t0_300,v_t0_350,v_t0_400,v_t0_450,v_t0_500,v_t0_600,v_t0_700,v_t0_750,v_t0_800,v_t0_900,v_t1_000,v_t1_200,v_t1_400,v_t1_600,v_t1_800,v_t2_000,v_t2_500,v_t3_000,v_t3_500,v_t4_000,v_t4_500,v_t5_000,v_t6_000,v_t7_000,v_t8_000,v_t9_000,v_t10_000,w_t0_010,w_t0_025,w_t0_040,w_t0_050,w_t0_070,w_t0_100,w_t0_150,w_t0_200,w_t0_250,w_t0_300,w_t0_350,w_t0_400,w_t0_450,w_t0_500,w_t0_600,w_t0_700,w_t0_750,w_t0_800,w_t0_900,w_t1_000,w_t1_200,w_t1_400,w_t1_600,w_t1_800,w_t2_000,w_t2_500,w_t3_000,w_t3_500,w_t4_000,w_t4_500,w_t5_000,w_t6_000,w_t7_000,w_t8_000,w_t9_000,w_t10_000,rotd50_t0_010,rotd50_t0_025,rotd50_t0_040,rotd50_t0_050,rotd50_t0_070,rotd50_t0_100,rotd50_t0_150,rotd50_t0_200,rotd50_t0_250,rotd50_t0_300,rotd50_t0_350,rotd50_t0_400,rotd50_t0_450,rotd50_t0_500,rotd50_t0_600,rotd50_t0_700,rotd50_t0_750,rotd50_t0_800,rotd50_t0_900,rotd50_t1_000,rotd50_t1_200,rotd50_t1_400,rotd50_t1_600,rotd50_t1_800,rotd50_t2_000,rotd50_t2_500,rotd50_t3_000,rotd50_t3_500,rotd50_t4_000,rotd50_t4_500,rotd50_t5_000,rotd50_t6_000,rotd50_t7_000,rotd50_t8_000,rotd50_t9_000,rotd50_t10_000,rotd100_t0_010,rotd100_t0_025,rotd100_t0_040,rotd100_t0_050,rotd100_t0_070,rotd100_t0_100,rotd100_t0_150,rotd100_t0_200,rotd100_t0_250,rotd100_t0_300,rotd100_t0_350,rotd100_t0_400,rotd100_t0_450,rotd100_t0_500,rotd100_t0_600,rotd100_t0_700,rotd100_t0_750,rotd100_t0_800,rotd100_t0_900,rotd100_t1_000,rotd100_t1_200,rotd100_t1_400,rotd100_t1_600,rotd100_t1_800,rotd100_t2_000,rotd100_t2_500,rotd100_t3_000,rotd100_t3_500,rotd100_t4_000,rotd100_t4_500,rotd100_t5_000,rotd100_t6_000,rotd100_t7_000,rotd100_t8_000,rotd100_t9_000,rotd100_t10_000,rotd00_t0_010,rotd00_t0_025,rotd00_t0_040,rotd00_t0_050,rotd00_t0_070,rotd00_t0_100,rotd00_t0_150,rotd00_t0_200,rotd00_t0_250,rotd00_t0_300,rotd00_t0_350,rotd00_t0_400,rotd00_t0_450,rotd00_t0_500,rotd00_t0_600,rotd00_t0_700,rotd00_t0_750,rotd00_t0_800,rotd00_t0_900,rotd00_t1_000,rotd00_t1_200,rotd00_t1_400,rotd00_t1_600,rotd00_t1_800,rotd00_t2_000,rotd00_t2_500,rotd00_t3_000,rotd00_t3_500,rotd00_t4_000,rotd00_t4_500,rotd00_t5_000,rotd00_t6_000,rotd00_t7_000,rotd00_t8_000,rotd00_t9_000,rotd00_t10_000
1462,EMSC-20190921_0000067,2019-09-21T14:15:00,,,,,AL,41.3365,19.501,28.8,,TF,5.2,,5.14,,5.14,,5.14,,,,,,,,,,,,MN,PDG,,D,5,,,,ME,42.4297,19.2608,40,,geology,,S4_2007-2009_DiCapua_et_al_2011,,,,,1.21,372.7,123.0485808,350.7555056,,,,,D,0,E,90,N,0,Z,0.1,0.1,0.1,40,40,40,0.949851,-0.613797,0.747142,0.803914,0.953835,0.547286,0.054951,-0.048658,-0.038727,0.0519906,0.0662833,0.0336911,0.007245,0.005993,-0.012432,0.006718685,0.00788957,0.0336911,29.31,36.115,40.13,33.3675,36.115,28.855,0.156112,0.126939,0.155812,0.143750661,0.172203224,0.109527521,4.36054037,3.840693095,3.72068083,4.080538689,4.491272968,3.689160835,0.001193945,0.000749592,0.000699926,0.000971769,0.001246425,0.000697112,0.949862,0.966237,0.983849,1.06146,1.22099,1.7604,2.36423,3.63873,3.08106,2.49172,1.55772,2.03359,1.94851,1.82758,1.03332,0.583793,0.501421,0.485718,0.465362,0.496584,0.446005,0.26349,0.171221,0.128229,0.107617,0.083385,0.067411,0.045912,0.03719,0.028472,0.017752,0.010713,0.008369,0.006381,0.005111,0.004635,0.616447,0.632629,0.657861,0.713947,1.17409,1.26518,1.69163,1.45556,1.88162,2.39371,1.81902,0.93071,1.02723,1.17621,0.907361,1.01496,0.971386,0.924052,0.607396,0.466731,0.256159,0.196234,0.114841,0.081583,0.077226,0.066247,0.049016,0.03037,0.020963,0.020602,0.017897,0.010639,0.008885,0.006611,0.005424,0.004421,0.748029,0.756697,0.803901,0.777503,0.991166,1.4922,1.7369,2.26984,1.61694,1.53912,1.60143,1.15345,0.820484,0.666923,0.656917,0.763658,0.76063,0.66499,0.421933,0.34376,0.325239,0.336289,0.254923,0.238421,0.217915,0.141727,0.120817,0.079285,0.054993,0.039844,0.027402,0.01725,0.011931,0.009179,0.007494,0.006081,0.8167845,0.8237325,0.84403,0.9437225,1.18974,1.484075,1.778175,2.694555,2.71004,2.422715,1.648075,1.594765,1.523855,1.51805,0.959999,0.792511,0.762873,0.7154895,0.5185395,0.4767945,0.3856775,0.2372305,0.1349285,0.1096245,0.0962094,0.07840655,0.058184,0.0369367,0.02945635,0.0243519,0.017807,0.01067675,0.00854787,0.006490095,0.00516977,0.00447842,0.954639,0.970493,0.991352,1.06146,1.22383,1.80191,2.37032,3.64904,3.39145,2.71176,2.24823,2.1706,2.0536,2.06554,1.12755,1.05984,0.985222,0.933673,0.640525,0.647614,0.471867,0.265166,0.173353,0.133114,0.125806,0.105862,0.0796883,0.0501889,0.0415917,0.0336904,0.0234492,0.0128952,0.0106102,0.00798677,0.00625961,0.00511942,0.556243,0.566791,0.613458,0.651625,1.08068,1.2434,1.58073,1.23901,1.88162,1.89226,1.07397,0.842195,0.623582,0.723242,0.592589,0.558357,0.461463,0.452075,0.380185,0.352195,0.206899,0.187589,0.0977271,0.0772226,0.0531045,0.0423733,0.0296921,0.0184843,0.0138826,0.011218,0.0101156,0.00734749,0.00506277,0.00466297,0.00433092,0.00329186
46,GR-1985-0005,1985-08-31T06:03:00,,,,,GR,39.1386,20.6784,28.1651,,SS,,,5.14,,,,,,,,,,,,,,,,HI,LEF1,0,A,0,Close to structure,Building basement,,GR,38.831967,20.703844,,C,vs_profile,,,273,Stewart_et_al_2014,,CH,0.71,331.4,34.11223601,176.286543,,,,,A,0,3,335,2,65,Z,0.2,0.2,0.2,25,25,25,59.812075,-71.442811,-21.563807,67.497841,72.485062,49.685848,2.9198,3.40782,-0.983416,3.051935,3.53048,2.60659,0.611369,-0.426831,0.233765,0.503909,0.63084,2.60659,13.105,11.84,15.545,12.09,13.26,11.76,8.11007,8.214,3.6423,8.198175,8.6747,7.97596,165.9385844,155.2754867,60.64999184,159.8897759,168.5515084,151.7555639,4.188176897,4.135960858,0.470656446,4.162069051,4.355089552,3.969048389,59.8617,61.1157,69.6759,68.7767,70.0496,89.0217,106.891,142.439,192.899,199.125,180.444,112.775,118.15,102.046,49.3391,44.5695,35.697,27.8281,20.8742,17.7592,17.504,12.1478,9.47255,7.01894,5.68837,3.37928,3.95771,3.91116,2.60138,2.57343,2.25382,1.19294,0.801388,0.587973,0.452271,0.364082,71.5481,72.1587,72.3547,75.8863,83.8529,76.1183,100.896,160.749,226.319,220.65,183.246,149.47,102.201,74.399,61.8579,41.5636,34.5529,30.3268,19.5043,17.4945,12.5604,13.178,9.01118,7.04456,5.26322,4.38197,3.78293,2.70968,1.54555,1.18365,0.985335,0.740074,0.57312,0.458802,0.378117,0.319816,21.6971,22.2257,25.4518,26.4545,46.7135,44.8367,43.9112,41.903,43.2967,41.2063,36.7463,26.0985,39.2676,33.4933,23.0998,21.9798,18.9914,18.3782,11.4686,9.16918,8.97505,7.68102,4.01034,3.28683,3.4297,2.42887,1.7654,1.58521,1.25649,1.13956,1.09315,0.594272,0.319703,0.212745,0.178572,0.17091,67.50265,68.14095,70.7108,72.10805,73.8749,78.76575,103.893,152.5475,213.106,209.2675,181.834,132.695,112.592,87.9131,56.4998,42.36255,35.2053,30.36905,20.19195,18.11535,16.655,12.6893,9.2644,7.02413,5.6685,3.949265,3.8826,3.10676,2.294395,2.00227,1.607705,0.946613,0.647036,0.484522,0.381861,0.326589,72.4997,72.6746,79.6431,76.2779,83.8531,109.869,144.158,199.709,276.749,226.978,223.671,155.938,122.551,106.248,68.3107,55.3081,41.2194,38.8408,23.3767,19.8156,19.3731,15.6273,11.3506,9.43956,6.84833,4.91897,4.90763,4.07772,2.71644,2.67261,2.25943,1.17607,0.862258,0.610705,0.479094,0.396133,49.72,50.3136,51.1214,51.6002,55.958,57.5572,86.7565,91.0818,158.736,181.432,132.724,92.2305,94.0331,64.0304,43.1455,31.3318,30.3264,21.5222,16.4974,17.0476,11.3542,9.28363,6.21431,6.24233,4.92522,3.36396,2.50118,2.2453,1.43161,1.15122,0.906737,0.625057,0.481513,0.380416,0.323804,0.270914
47,GR-1985-0005,1985-08-31T06:03:00,,,,,GR,39.1386,20.6784,28.1651,,SS,,,5.14,,,,,,,,,,,,,,,,HL,LEFA,0,A,,,,,GR,38.83319,20.70437,4,,topography,,,,,,,0.37,300.4,33.9797392,176.1949282,,,,,A,0,3,295,2,25,Z,0.3,0.3,0.3,25,25,25,-69.6162,81.936399,19.025416,75.567261,97.707855,43.437973,-3.55629,-3.882573,0.985873,3.68325,4.86074,2.13103,0.232021,0.327945,0.133929,0.266699,0.37717,2.13103,10.455,9.725,10.09,9.9825,10.47,9.68,9.17161,8.41191,3.35284,8.94498,10.306,7.45362,144.2812629,153.2117855,55.7892535,148.4989831,173.0172123,125.2982538,4.703647205,5.038888937,0.583950532,4.871268305,6.662710035,3.079826355,69.6941,69.9232,71.2624,72.0739,71.4252,85.4517,107.653,146.913,199.399,214.534,223.112,150.768,121.446,107.773,62.118,50.3616,46.6297,39.6141,34.7127,19.7405,18.605,10.8101,8.96279,8.66059,6.0811,2.92777,2.08681,1.64667,1.18692,0.956573,0.684778,0.522741,0.435132,0.371326,0.322473,0.284571,81.9536,82.2692,84.2611,82.0937,94.8394,93.825,128.913,185.67,261.058,266.317,224.452,160.305,120.974,90.2698,67.4591,46.74,37.5923,30.1149,19.7984,17.851,11.3378,12.8175,7.78462,5.90371,4.8482,3.10174,2.69255,1.55319,1.19259,0.994218,0.786603,0.574599,0.448378,0.366254,0.308879,0.266827,19.0587,19.517,21.2454,21.9427,31.3641,46.9093,65.4662,61.5812,44.5645,50.1387,36.4025,36.2483,34.7315,29.4191,34.9686,15.384,13.8893,12.9511,9.46032,10.2827,8.43236,6.11242,4.98145,2.58733,2.05117,2.35418,1.58446,0.891117,0.588511,0.521185,0.375539,0.263786,0.185995,0.141772,0.113999,0.096588,75.62985,75.9705,77.33735,76.38865,83.26195,89.3812,113.8085,166.619,228.9405,241.61,223.968,155.1745,121.054,105.2745,62.11395,48.77375,42.8267,35.462,26.5118,19.06005,13.65445,13.0205,8.412105,7.511525,5.681355,3.25133,2.516655,1.771175,1.14304,0.882041,0.6976575,0.523107,0.4158505,0.3457705,0.295127,0.257475,97.8652,98.4125,99.4747,101.759,103.404,102.051,143.048,200.723,298.102,321.964,292.26,212.733,160.431,123.159,80.0387,58.4424,48.8123,41.8615,35.2246,20.993,19.1311,14.5397,9.78549,10.0896,7.58959,3.60835,3.25446,1.85243,1.42773,1.19186,0.943012,0.688096,0.536261,0.44406,0.380519,0.333601,43.4918,43.6142,44.4513,46.3775,52.2051,50.8703,84.6165,136.906,146.144,123.035,163.107,80.4691,75.1801,81.0727,49.9992,40.598,25.8417,22.1679,16.7248,16.5256,9.75149,10.382,7.47157,5.83308,4.77897,2.65645,1.88289,1.54407,0.892274,0.667384,0.532583,0.384001,0.282251,0.222442,0.194204,0.172743
48,GR-1985-0005,1985-08-31T06:03:00,,,,,GR,39.1386,20.6784,28.1651,,SS,,,5.14,,,,,,,,,,,,,,,,HL,PREA,0,A,0,Free-field,Unknown,,GR,38.95548,20.75299,6,E,vs_profile,,,115,Stewart_et_al_2014,,CH,1.55,396.5,21.33017411,162.3551352,,,,,A,0,3,60,2,150,Z,0.3,0.3,0.3,25,25,25,-48.074353,-88.184768,-37.767476,69.360485,90.202972,48.017639,-2.629073,4.472115,1.408482,3.44988,4.52062,2.60635,0.254227,0.358541,-0.198159,0.3181255,0.37281,2.60635,7.045,7.6,6.54,7.49,7.855,6.835,6.54464,8.51692,3.89813,7.6929,8.54273,6.5045,103.881477,109.4424489,67.24420398,107.0279586,118.1220986,95.75915817,3.1661941,3.692076275,1.237382493,3.429135033,4.168790556,2.68948007,48.1483,49.4437,52.7058,61.4303,72.0107,95.1658,119.879,132.156,146.711,214.947,115.541,98.5054,70.5996,47.2031,34.4691,27.0024,24.7853,23.1663,26.5868,28.0056,13.6947,9.62251,6.60731,4.54526,3.67252,3.0291,2.22612,1.35727,0.961946,0.76259,0.558817,0.364104,0.281721,0.229151,0.202999,0.185792,88.2392,89.1858,97.2914,98.9976,101.753,124.808,141.52,194.208,230.653,237.759,186.305,138.819,97.9608,66.4689,39.0593,21.5785,22.4051,26.6462,21.4197,15.147,16.08,11.3837,10.7727,8.28854,8.01215,6.13195,3.23078,2.047,1.4364,1.16021,0.934302,0.702275,0.561533,0.467592,0.40067,0.350239,37.8713,41.506,56.855,75.165,103.291,94.6952,91.197,103.703,92.8572,100.372,53.1247,40.7375,23.051,17.7555,17.0988,15.8952,13.1164,13.1649,12.3238,9.14544,6.99824,6.73529,5.61583,3.96229,3.82748,3.40263,2.87848,1.90553,1.416,1.04469,0.645301,0.369623,0.240383,0.176677,0.141192,0.118608,69.4585,70.0592,71.8549,76.1354,78.6535,98.70455,138.619,163.9975,186.1205,223.375,175.027,115.799,79.1919,57.09275,37.028,23.95825,23.25145,23.0891,24.53045,23.8453,13.8005,10.6317,8.38255,7.65573,6.110895,4.721525,2.79955,1.68619,1.20738,0.9787585,0.776496,0.5687525,0.4440445,0.3655515,0.3116085,0.27203,90.4762,91.6197,98.812,99.2934,110.235,125.385,159.844,202.201,236.334,247.535,196.662,143.497,103.621,74.7889,44.718,27.8522,27.5193,28.3523,29.5357,29.3285,17.8583,11.4032,10.7727,8.63828,7.99469,6.29633,3.53593,2.25959,1.56199,1.19222,0.959984,0.721463,0.575932,0.478816,0.408911,0.356852,48.0193,49.0115,50.9518,61.4296,66.025,77.892,101.716,129.842,113.434,153.788,114.678,98.3345,68.0546,42.7752,23.8438,20.7453,21.0022,19.7084,20.0556,15.243,11.7276,8.3258,6.25816,4.69135,3.58884,2.23713,1.44734,1.01061,0.749379,0.596642,0.45765,0.333188,0.263226,0.215494,0.182022,0.157228
178,A_2009061405120000A,2009-06-14T05:12:00,,,,,ME,41.45,19.75,27.1,,,3.4,,3.98,,,,,,,,,,,,,,,,MSO,HCY,,d ,,Free-Field,,,ME,42.447369,18.493836,319,A,geology ,,,2100,,,,,2100,152,,152,,,,d ,,E,,N,,Z,0.77,0.81,0.68,38,30,32.788,0.123,0.095,0.054,,,,0.002,0.003,0.002,,,,0,0,0,,,,,,,,,,0.005,0.005,0.004,,,,0.55,0.582,0.265,,,,0,0,0,,,,0.125,0.1287,0.1462,0.1743,0.3028,0.3004,0.3492,0.187,0.1126,0.1125,0.0952,0.0819,0.0763,0.0623,0.0436,0.0235,0.0177,0.0137,0.013,0.0088,0.006,0.004,0.003,0.0021,0.0016,0.001,0.0007,0.0005,0.0004,0.0004,0.0003,0.0003,0.0002,0.0002,0.0002,0.0002,0.0962,0.0993,0.1298,0.1759,0.2871,0.2646,0.1839,0.2126,0.2735,0.1509,0.0934,0.075,0.0654,0.0568,0.0419,0.0288,0.0274,0.0205,0.0149,0.011,0.0058,0.0037,0.0027,0.002,0.0017,0.0012,0.0009,0.0007,0.0006,0.0005,0.0005,0.0004,0.0003,0.0003,0.0002,0.0002,0.0546,0.05725,0.0635,0.0652,0.1191,0.1524,0.1335,0.1293,0.1538,0.0785,0.0519,0.0474,0.0369,0.0311,0.0307,0.0325,0.026,0.0216,0.012,0.0074,0.004,0.003,0.0021,0.0014,0.0013,0.0009,0.0006,0.0005,0.0004,0.0003,0.0003,0.0002,0.0002,0.0001,0.0001,0.0001,,,,,,,,,,,,,,,,,,,,,,,,,,,,,,,,,,,,,,,,,,,,,,,,,,,,,,,,,,,,,,,,,,,,,,,,,,,,,,,,,,,,,,,,,,,,,,,,,,,,,,,,,,,,
1652,EMSC-20200923_0000200,2020-09-23T23:25:00,,,,,AL,41.0002,19.8487,26.7,,TF,,,4.2,,4.2,,4.2,,,,,,,,,,,,HI,KRK1,,D,0,,,,GR,39.618861,19.9202,10,,topography,,,,,,,1.41,387.2,153.5050632,177.7076094,,,,,D,0,E,90,N,0,Z,0.1,0.1,0.1,40,40,40,0.702312,0.698041,0.374589,0.736436,0.841446,0.689303,-0.029836,-0.024117,-0.012686,0.0295696,0.0321599,0.0240559,0.002228,0.00194,0.000877,0.002126435,0.00231439,0.0240559,22.55,27.55,27.295,25.075,27.73,22.53,0.0711953,0.0619038,0.0291789,0.067710369,0.072042174,0.060772388,4.315540086,4.141486403,2.07987851,4.210363618,4.319678704,4.086829896,0.001253476,0.001079203,0.000259016,0.00116634,0.001262688,0.001069991,0.702317,0.71185,0.727629,0.751508,0.828671,1.4504,2.06086,3.74226,1.7527,1.19491,0.888744,0.996435,1.10032,0.651905,0.379134,0.322128,0.408553,0.378377,0.325117,0.232873,0.129174,0.08692,0.060006,0.046841,0.036024,0.028394,0.017498,0.013056,0.008102,0.006621,0.005053,0.004284,0.003464,0.002786,0.002446,0.002141,0.698498,0.7087,0.727147,0.748526,0.864778,1.48912,2.52951,2.72276,3.26996,1.35375,1.12478,1.07807,0.778821,0.769266,0.530088,0.386819,0.266464,0.193758,0.163336,0.115101,0.114455,0.061635,0.042123,0.027354,0.025837,0.015327,0.011334,0.007699,0.00641,0.005118,0.004492,0.003864,0.003262,0.002593,0.002057,0.001958,0.377297,0.386881,0.414549,0.415787,0.552744,0.816309,0.925008,1.23302,1.19008,1.00671,0.556747,0.374735,0.302213,0.207884,0.173117,0.176952,0.156167,0.125559,0.101297,0.058349,0.036782,0.03263,0.023906,0.019773,0.014741,0.010081,0.005117,0.003969,0.003929,0.003927,0.003089,0.001981,0.001391,0.001158,0.001035,0.000863,0.7503125,0.761358,0.7936445,0.815293,0.9510495,1.468145,2.23617,3.50467,2.72196,1.294025,1.012615,0.9975785,0.9156665,0.659126,0.467142,0.365981,0.340792,0.310214,0.232383,0.195862,0.113595,0.0698241,0.04942655,0.03628865,0.02805455,0.0201311,0.01543065,0.01089975,0.007090605,0.005606405,0.004568665,0.00387037,0.003305155,0.002765305,0.002408045,0.00203254,0.849716,0.860144,0.888356,0.892561,1.03551,1.64563,2.53781,4.08234,3.39415,1.54203,1.22034,1.16096,1.10032,0.931656,0.573915,0.406458,0.439553,0.399218,0.328527,0.236286,0.131506,0.0911335,0.0612672,0.0471478,0.0360987,0.0284659,0.017498,0.0130534,0.00813584,0.00661692,0.00545612,0.00454848,0.00384651,0.00302923,0.00262542,0.00219646,0.6947,0.704653,0.722781,0.745737,0.828671,1.35165,1.85105,2.61215,1.68314,1.06908,0.885913,0.824946,0.75325,0.499759,0.358365,0.29747,0.248125,0.188909,0.155035,0.113904,0.0934439,0.0530795,0.0378902,0.0238285,0.020732,0.0144984,0.00929251,0.00692016,0.00613404,0.00489335,0.00402517,0.00321282,0.00276331,0.00232883,0.00193553,0.00174893
