,esm_event_id,event_time,isc_event_id,usgs_event_id,ingv_event_id,emsc_event_id,ev_nation_code,ev_latitude,ev_longitude,ev_depth_km,ev_hyp_ref,fm_type_code,ml,ml_ref,mw,mw_ref,ms,ms_ref,emec_mw,emec_mw_type,emec_mw_ref,es_strike,es_dip,es_rake,es_strike_dip_rake_ref,z_top,es_z_top_ref,es_length,es_width,es_geometry_ref,network_code,station_code,location_code,instrument_code,sensor_depth_m,proximity,hounsing,installation,st_nation_code,st_latitude,st_longitude,st_elevation,ec8_code,ec8_code_method,ec8_code_from_topography,ec8_code_ref,vs30_m_s,vs30_ref,vs30_calc_method,vs30_meas_type,slope_deg,vs30_m_s_wa,epi_dist,epi_az,jb_dist,rup_dist,rx_dist,ry0_dist,instrument_type_code,late_triggered_event_01,u_channel_code,u_azimuth_deg,v_channel_code,v_azimuth_deg,w_channel_code,u_hp,v_hp,w_hp,u_lp,v_lp,w_lp,u_pga,v_pga,w_pga,rotd50_pga,rotd100_pga,rotd00_pga,u_pgv,v_pgv,w_pgv,rotd50_pgv,rotd100_pgv,rotd00_pgv,u_pgd,v_pgd,w_pgd,rotd50_pgd,rotd100_pgd,rotd00_pgd,u_t90,v_t90,w_t90,rotd50_t90,rotd100_t90,rot_d00_t90,u_housner,v_housner,w_housner,rotd50_housner,rotd100_housner,rotd00_housner,u_cav,v_cav,w_cav,rotd50_cav,rotd100_cav,rotd00_cav,u_ia,v_ia,w_ia,rotd50_ia,rotd100_ia,rotd00_ia,u_t0_010,u_t0_025,u_t0_040,u_t0_050,u_t0_070,u_t0_100,u_t0_150,u_t0_200,u_t0_250,u_t0_300,u_t0_350,u_t0_400,u_t0_450,u_t0_500,u_t0_600,u_t0_700,u_t0_750,u_t0_800,u_t0_900,u_t1_000,u_t1_200,u_t1_400,u_t1_600,u_t1_800,u_t2_000,u_t2_500,u_t3_000,u_t3_500,u_t4_000,u_t4_500,u_t5_000,u_t6_000,u_t7_000,u_t8_000,u_t9_000,u_t10_000,v_t0_010,v_t0_025,v_t0_040,v_t0_050,v_t0_070,v_t0_100,v_t0_150,v_t0_200,v_t0_250,v_t0_300,v_t0_350,v_t0_400,v_t0_450,v_t0_500,v_t0_600,v_t0_700,v_t0_750,v_t0_800,v_t0_900,v_t1_000,v_t1_200,v_t1_400,v_t1_600,v_t1_800,v_t2_000,v_t2_500,v_t3_000,v_t3_500,v_t4_000,v_t4_500,v_t5_000,v_t6_000,v_t7_000,v_t8_000,v_t9_000,v_t10_000,w_t0_010,w_t0_025,w_t0_040,w_t0_050,w_t0_070,w_t0_100,w_t0_150,w_t0_200,w_t0_250,w_t0_300,w_t0_350,w_t0_400,w_t0_450,w_t0_500,w_t0_600,w_t0_700,w_t0_750,w_t0_800,w_t0_900,w_t1_000,w_t1_200,w_t1_400,w_t1_600,w_t1_800,w_t2_000,w_t2_500,w_t3_000,w_t3_500,w_t4_000,w_t4_500,w_t5_000,w_t6_000,w_t7_000,w_t8_000,w_t9_000,w_t10_000,rotd50_t0_010,rotd50_t0_025,rotd50_t0_040,rotd50_t0_050,rotd50_t0_070,rotd50_t0_100,rotd50_t0_150,rotd50_t0_200,rotd50_t0_250,rotd50_t0_300,rotd50_t0_350,rotd50_t0_400,rotd50_t0_450,rotd50_t0_500,rotd50_t0_600,rotd50_t0_700,rotd50_t0_750,rotd50_t0_800,rotd50_t0_900,rotd50_t1_000,rotd50_t1_200,rotd50_t1_400,rotd50_t1_600,rotd50_t1_800,rotd50_t2_000,rotd50_t2_500,rotd50_t3_000,rotd50_t3_500,rotd50_t4_000,rotd50_t4_500,rotd50_t5_000,rotd50_t6_000,rotd50_t7_000,rotd50_t8_000,rotd50_t9_000,rotd50_t10_000,rotd100_t0_010,rotd100_t0_025,rotd100_t0_040,rotd100_t0_050,rotd100_t0_070,rotd100_t0_100,rotd100_t0_150,rotd100_t0_200,rotd100_t0_250,rotd100_t0_300,rotd100_t0_350,rotd100_t0_400,rotd100_t0_450,rotd100_t0_500,rotd100_t0_600,rotd100_t0_700,rotd100_t0_750,rotd100_t0_800,rotd100_t0_900,rotd100_t1_000,rotd100_t1_200,rotd100_t1_400,rotd100_t1_600,rotd100_t1_800,rotd100_t2_000,rotd100_t2_500,rotd100_t3_000,rotd100_t3_500,rotd100_t4_000,rotd100_t4_500,rotd100_t5_000,rotd100_t6_000,rotd100_t7_000,rotd100_t8_000,rotd100_t9_000,rotd100_t10_000,rotd00_t0_010,rotd00_t0_025,rotd00_t0_040,rotd00_t0_050,rotd00_t0_070,rotd00_t0_100,rotd00_t0_150,rotd00_t0_200,rotd00_t0_250,rotd00_t0_300,rotd00_t0_350,rotd00_t0_400,rotd00_t0_450,rotd00_t0_500,rotd00_t0_600,rotd00_t0_700,rotd00_t0_750,rotd00_t0_800,rotd00_t0_900,rotd00_t1_000,rotd00_t1_200,rotd00_t1_400,rotd00_t1_600,rotd00_t1_800,rotd00_t2_000,rotd00_t2_500,rotd00_t3_000,rotd00_t3_500,rotd00_t4_000,rotd00_t4_500,rotd00_t5_000,rotd00_t6_000,rotd00_t7_000,rotd00_t8_000,rotd00_t9_000,rotd00_t10_000
224,A_2010110707563100A,2010-11-07T07:56:00,,,,,ME,41.81,19.846,30,,,3.9,,4.36,,3.4,,,,,,,,,,,,,,MSO,dRME,,d ,,Free-Field,,,ME,42.18673,19.18427,300,A,geology ,,,2250,,,,,2250,69,,69,,,,d ,,E,,N,,Z,0.59,0.55,0.54,51.23,45.68,44.93,0.371,0.313,0.406,,,,0.009,0.009,0.01,,,,0.001,0.001,0.001,,,,,,,,,,0.02,0.02,0.016,,,,1.403,1.362,1.602,,,,0,0,0,,,,0.3818,0.45125,0.6619,1.0013,1.2969,0.8843,0.4861,0.5995,0.3273,0.3091,0.2766,0.1408,0.1248,0.1034,0.1414,0.1575,0.1393,0.1231,0.0874,0.0721,0.0511,0.0344,0.0194,0.0132,0.0101,0.0058,0.0041,0.0031,0.0024,0.002,0.0017,0.0013,0.001,0.0008,0.0007,0.0006,0.3136,0.3376,0.5281,0.7354,1.0336,0.9147,0.7233,0.5708,0.4452,0.3301,0.2458,0.147,0.1225,0.2032,0.163,0.1219,0.1134,0.0853,0.101,0.0735,0.0465,0.0312,0.0178,0.0129,0.0087,0.0049,0.0033,0.0025,0.0019,0.0016,0.0014,0.0011,0.0009,0.0008,0.0007,0.0006,0.4149,0.50035,0.5884,0.79,1.3413,1.0682,0.6554,0.6349,0.4798,0.4978,0.2787,0.1829,0.1268,0.0954,0.1123,0.0957,0.0792,0.0655,0.0579,0.0395,0.0434,0.0242,0.0131,0.0092,0.007,0.0042,0.003,0.0023,0.0018,0.0015,0.0013,0.001,0.0009,0.0008,0.0007,0.0006,,,,,,,,,,,,,,,,,,,,,,,,,,,,,,,,,,,,,,,,,,,,,,,,,,,,,,,,,,,,,,,,,,,,,,,,,,,,,,,,,,,,,,,,,,,,,,,,,,,,,,,,,,,,
1656,EMSC-20200924_0000189,2020-09-24T19:21:00,,,,,AL,41.007,19.8247,29.1,,SS,4,,4.44,,,,,,,,,,,,,,,,HI,KRK1,,D,0,,,,GR,39.618861,19.9202,10,,topography,,,,,,,1.41,387.2,154.3534525,176.9543404,,,,,D,0,E,90,N,0,Z,0.1,0.1,0.1,40,40,40,0.277241,0.374258,-0.154849,0.355183,0.394728,0.225854,0.01227,0.015174,-0.00497,0.0125485,0.0151739,0.0101316,-0.001303,-0.000823,-0.000399,0.000926579,0.00130705,0.0101316,26.985,25.87,34.71,26.2225,27.08,25.76,0.0342794,0.0282261,0.012339,0.030606618,0.034447649,0.027415285,1.74929586,1.963108794,1.04880121,1.869045053,1.964593905,1.74922238,0.000163418,0.000230906,4.83E-05,0.000197162,0.000231264,0.00016306,0.277243,0.280063,0.288046,0.298488,0.34782,0.614386,0.83768,1.08635,0.676458,0.602004,0.651891,0.470187,0.35999,0.357753,0.231154,0.205737,0.189716,0.16791,0.130234,0.097876,0.074657,0.043558,0.033101,0.022547,0.018795,0.014839,0.011312,0.008072,0.006497,0.005281,0.004033,0.003149,0.001919,0.001535,0.001137,0.00088,0.376724,0.386656,0.40832,0.436596,0.464256,0.806595,1.0016,1.37943,0.990467,0.59762,0.594294,0.354565,0.340234,0.303878,0.264406,0.171837,0.120352,0.101645,0.079541,0.058041,0.039967,0.025274,0.015674,0.013843,0.01241,0.007957,0.005436,0.00425,0.00291,0.002864,0.00232,0.001692,0.001393,0.001184,0.001032,0.000881,0.156046,0.161391,0.166087,0.178312,0.29888,0.368614,0.376709,0.447825,0.378011,0.338374,0.264667,0.202806,0.132145,0.146997,0.075502,0.071867,0.061438,0.056989,0.047084,0.024702,0.017348,0.012015,0.008758,0.0086,0.006853,0.005727,0.00293,0.001846,0.00168,0.001368,0.001143,0.000941,0.000737,0.000631,0.000526,0.000438,0.358012,0.3651945,0.377551,0.403549,0.4357655,0.751045,0.9973385,1.11711,0.869932,0.583905,0.5971195,0.4398395,0.3682175,0.3091515,0.2389545,0.1705775,0.1357765,0.1459695,0.0932222,0.0773328,0.05473035,0.0390098,0.0272918,0.0186908,0.01416065,0.01156,0.00800711,0.006099995,0.00459594,0.003735315,0.002851755,0.00222329,0.001594335,0.00121484,0.00105225,0.000836911,0.397364,0.404158,0.416107,0.436595,0.480846,0.822591,1.11884,1.38499,0.994361,0.631589,0.704787,0.542226,0.390758,0.382006,0.270807,0.208113,0.190725,0.1686,0.130688,0.0994149,0.0758599,0.0449137,0.033498,0.0230991,0.0187946,0.0148391,0.0113118,0.00807488,0.00649467,0.00528061,0.00403066,0.00314207,0.00191004,0.00154655,0.00114621,0.000883965,0.228658,0.232382,0.243186,0.257288,0.307709,0.526754,0.769676,0.880612,0.650957,0.517077,0.373443,0.345829,0.318713,0.239541,0.197029,0.152502,0.113312,0.096601,0.063676,0.0484817,0.0388261,0.0238519,0.0142248,0.0138425,0.011412,0.00795683,0.00506064,0.00402394,0.00291283,0.00253907,0.0021567,0.00154667,0.00139732,0.00111086,0.000920205,0.000685937
1657,EMSC-20200924_0000189,2020-09-24T19:21:00,,,,,AL,41.007,19.8247,29.1,,SS,4,,4.44,,,,,,,,,,,,,,,,HI,LMS2,,D,0,,,,GR,40.834985,21.141815,923,,topography,,,,,,,2.32,451.3,112.5792775,99.33742277,,,,,D,0,E,90,N,0,Z,0.1,0.1,0.1,40,40,40,-0.0738,-0.109331,-0.042899,0.09413055,0.109635,0.073281,0.005757,-0.004024,0.003315,0.004398425,0.005909,0.00367925,0.001005,-0.000434,-0.000721,0.000722417,0.00101088,0.00367925,26.15,25.685,29.99,25.8325,27.385,24.68,0.0173421,0.0100185,0.0112448,0.014253694,0.017411022,0.009997495,0.47352175,0.6482155,0.23375399,0.566379945,0.652795218,0.464056583,1.42E-05,2.73E-05,3.11E-06,2.08E-05,2.79E-05,1.36E-05,0.073863,0.075388,0.079941,0.083786,0.115311,0.127308,0.351129,0.25285,0.147592,0.095017,0.108041,0.159373,0.133504,0.176965,0.133368,0.118469,0.106804,0.104828,0.084888,0.06162,0.046182,0.033053,0.020299,0.016699,0.01361,0.00579,0.004354,0.004007,0.003279,0.003023,0.002152,0.001634,0.000982,0.000787,0.000718,0.000641,0.109968,0.113135,0.119282,0.124499,0.154361,0.254678,0.404365,0.232143,0.141636,0.137137,0.113476,0.096756,0.103751,0.097862,0.071999,0.053173,0.039546,0.028571,0.026867,0.020794,0.019393,0.015339,0.013483,0.009229,0.009883,0.006001,0.004083,0.002605,0.001894,0.001527,0.001178,0.000956,0.000569,0.000589,0.000457,0.000339,0.043074,0.044599,0.048636,0.051895,0.084473,0.078268,0.139303,0.072143,0.060329,0.070697,0.055033,0.05936,0.068545,0.093911,0.069123,0.057531,0.060213,0.051985,0.042842,0.031461,0.029394,0.019281,0.017414,0.016898,0.015874,0.007562,0.004648,0.002384,0.002387,0.0024,0.00149,0.001157,0.000717,0.0006,0.000396,0.000381,0.09519325,0.096159,0.09874315,0.1010865,0.1232995,0.1863825,0.378497,0.243033,0.1446135,0.125326,0.1113825,0.114085,0.1069115,0.137242,0.113944,0.0870382,0.0786543,0.0771046,0.06307085,0.04571755,0.03428495,0.02493455,0.01769095,0.01283245,0.01018015,0.006485455,0.00421953,0.003453285,0.002376235,0.002162625,0.001546435,0.00123156,0.000722454,0.000616564,0.000558713,0.000485057,0.110706,0.113555,0.119281,0.124499,0.154372,0.254678,0.431674,0.268837,0.184312,0.16327,0.122493,0.161097,0.14418,0.178341,0.136326,0.120037,0.109211,0.105285,0.0848881,0.062216,0.0468638,0.0336786,0.0214264,0.0171181,0.0140354,0.00687117,0.00539623,0.00404298,0.00327819,0.00302059,0.00214946,0.00172297,0.000979261,0.000822851,0.000764636,0.000654179,0.0734974,0.0748581,0.0793875,0.0824139,0.11034,0.126512,0.294522,0.189632,0.116298,0.0950177,0.0942803,0.0866004,0.100097,0.0816929,0.0709304,0.0430184,0.0326998,0.0285711,0.0257501,0.0199644,0.0190391,0.0151612,0.013135,0.00845469,0.00761175,0.00542461,0.00283462,0.00208788,0.00175317,0.00126731,0.000980051,0.000817244,0.000518993,0.000523691,0.000431649,0.000334731
1658,EMSC-20200924_0000189,2020-09-24T19:21:00,,,,,AL,41.007,19.8247,29.1,,SS,4,,4.44,,,,,,,,,,,,,,,,MN,PDG,,D,5,,,,ME,42.4297,19.2608,40,,geology,,S4_2007-2009_DiCapua_et_al_2011,,,,,1.21,372.7,164.8353163,343.647646,,,,,D,0,E,90,N,0,Z,0.2,0.2,0.2,40,40,40,0.036552,0.040188,0.029177,0.03750075,0.0407694,0.0313718,0.001935,0.001274,0.001299,0.001554355,0.00194354,0.00127373,0.000403,0.000199,0.000244,0.000305822,0.000430884,0.00127373,43.875,40.86,44.415,42.22,45.97,39.355,0.00666967,0.00602722,0.00521926,0.00614219,0.006686496,0.005875374,0.270795965,0.252101895,0.23187826,0.261365176,0.274245915,0.244968114,3.03E-06,2.66E-06,2.16E-06,2.85E-06,3.04E-06,2.66E-06,0.036615,0.038107,0.043404,0.049652,0.065821,0.106398,0.090461,0.1057,0.08264,0.097575,0.064271,0.040207,0.041409,0.036877,0.034297,0.033673,0.037171,0.026471,0.020905,0.021377,0.016433,0.01425,0.009724,0.008557,0.007383,0.004052,0.00387,0.003245,0.002754,0.001955,0.001296,0.000743,0.000545,0.000389,0.000262,0.000198,0.040243,0.039836,0.046978,0.041743,0.053586,0.073879,0.090624,0.097134,0.123684,0.084361,0.059297,0.041906,0.051613,0.042024,0.033835,0.030612,0.031261,0.026725,0.031249,0.020997,0.012825,0.007316,0.007125,0.006796,0.005632,0.004416,0.002362,0.001608,0.001234,0.001194,0.00084,0.000406,0.000285,0.000209,0.00016,0.000124,0.029219,0.029699,0.03104,0.032479,0.056422,0.094654,0.076024,0.096624,0.080898,0.057255,0.068609,0.04208,0.045328,0.034586,0.032966,0.018911,0.020955,0.020515,0.016494,0.010762,0.009859,0.011936,0.010348,0.006559,0.004732,0.003628,0.003513,0.002574,0.001569,0.001193,0.00081,0.000442,0.000358,0.000223,0.000168,0.000138,0.0380168,0.0388775,0.0452031,0.04459365,0.0612775,0.0997413,0.10422,0.09476685,0.09549415,0.08629365,0.062115,0.0416634,0.0467288,0.03902305,0.03394145,0.03136025,0.03329645,0.02627285,0.0259575,0.020895,0.0151846,0.01093835,0.00804269,0.00761049,0.006542215,0.0043019,0.003480315,0.00265011,0.002270895,0.00167536,0.001107365,0.000607502,0.000419843,0.000301772,0.00019211,0.000159104,0.0413038,0.0417164,0.0493797,0.0546338,0.0735431,0.112025,0.115029,0.107088,0.131233,0.117783,0.0656055,0.0432374,0.0647097,0.0499357,0.0394346,0.035253,0.0376665,0.029499,0.0335583,0.0244054,0.0164329,0.0142499,0.00977323,0.00921888,0.00819773,0.00451425,0.00409237,0.00333295,0.0028767,0.00214727,0.0013866,0.000760791,0.000546343,0.000407473,0.000265259,0.000202276,0.0318602,0.0331671,0.0358652,0.0363139,0.0525451,0.07388,0.0879664,0.0773449,0.0634301,0.0720305,0.0535178,0.0395213,0.0313997,0.0265173,0.0229329,0.0277422,0.0288665,0.0225437,0.0177632,0.0141721,0.011424,0.0069302,0.00643074,0.00456598,0.00390418,0.00343661,0.00236289,0.00152981,0.00117019,0.00104638,0.000655792,0.000370564,0.000242702,0.000196003,0.000152323,0.000123899
1407,EMSC-20190525_0000090,2019-05-25T22:35:00,,,,,GR,40.0511,20.5214,28.8839,,SS,4.1,,4.35,,,,,,,,,,,,,,,,HI,ARG2,,D,0,,,,GR,38.1783,20.4878,6,,topography,,,,,,,1.81,415.1,207.9342346,180.8113862,,,,,D,0,E,90,N,0,Z,0.15,0.15,0.15,40,40,40,0.09789,-0.106558,0.069366,0.1054875,0.113154,0.0931857,-0.004202,0.004986,-0.002425,0.004450945,0.0050149,0.00398238,0.000432,0.000394,0.000324,0.000433008,0.000496287,0.00398238,54.73,50.05,94.16,51.84,55.53,49.945,0.0130305,0.0134674,0.00862946,0.013050473,0.014063075,0.012707635,0.88872685,0.83558398,0.951714905,0.863322751,0.893615432,0.831882022,2.76E-05,2.57E-05,2.16E-05,2.67E-05,2.79E-05,2.54E-05,0.099113,0.116505,0.14106,0.132833,0.176732,0.213161,0.484986,0.280855,0.235842,0.176546,0.175909,0.167272,0.133579,0.142914,0.100765,0.076411,0.061209,0.060561,0.054602,0.030745,0.024781,0.016199,0.013541,0.013837,0.008993,0.005117,0.005519,0.004361,0.002425,0.001616,0.001313,0.000964,0.000614,0.000519,0.000397,0.000336,0.106962,0.11104,0.119309,0.123362,0.132205,0.240436,0.234261,0.351582,0.468731,0.190206,0.149412,0.136015,0.163665,0.200534,0.124642,0.089644,0.084334,0.062895,0.043481,0.035353,0.030003,0.013981,0.010355,0.008005,0.006386,0.004825,0.002944,0.001962,0.001366,0.001231,0.000888,0.000783,0.000657,0.000468,0.000416,0.000378,0.069504,0.0983,0.226963,0.170197,0.131933,0.170871,0.186439,0.139053,0.206943,0.211537,0.131313,0.074666,0.060025,0.052246,0.061127,0.059683,0.056656,0.050862,0.041436,0.028025,0.014205,0.012723,0.011153,0.00683,0.005371,0.004385,0.003797,0.002265,0.001475,0.000914,0.000823,0.000571,0.00046,0.000349,0.000271,0.000228,0.1068825,0.11567,0.122666,0.127691,0.1625065,0.212792,0.4115855,0.3061165,0.361745,0.187109,0.175612,0.1540715,0.146712,0.173516,0.103694,0.0779818,0.06943155,0.0678997,0.05133525,0.0344093,0.0274169,0.01445665,0.01243095,0.01007305,0.008025895,0.00513487,0.004810485,0.0035388,0.00206702,0.0013633,0.001138035,0.000806223,0.00061693,0.000487669,0.000407023,0.000360151,0.114555,0.129477,0.15129,0.14127,0.192657,0.262302,0.487992,0.392867,0.471128,0.206785,0.190732,0.179198,0.17775,0.236224,0.125215,0.0906375,0.0925157,0.0734435,0.0569288,0.0382261,0.0324064,0.0165705,0.0135409,0.0140661,0.00899339,0.0057005,0.00563823,0.00447069,0.00252339,0.00167099,0.0013693,0.00096641,0.000701423,0.000523272,0.000423008,0.000382925,0.0941771,0.106731,0.109469,0.111626,0.129971,0.180666,0.233495,0.243691,0.217462,0.154058,0.147396,0.102905,0.108602,0.1016,0.0843865,0.0673273,0.0550602,0.0555198,0.0434805,0.0281403,0.0239268,0.013262,0.0103549,0.00780488,0.00638615,0.0042873,0.00255466,0.00181213,0.00119281,0.00103582,0.000851482,0.0007023,0.000526741,0.000450221,0.000361865,0.000324959
1408,EMSC-20190525_0000090,2019-05-25T22:35:00,,,,,GR,40.0511,20.5214,28.8839,,SS,4.1,,4.35,,,,,,,,,,,,,,,,HI,KRK1,,D,0,,,,GR,39.618861,19.9202,10,,topography,,,,,,,1.41,387.2,70.36724438,227.1911664,,,,,D,0,E,90,N,0,Z,0.15,0.15,0.15,40,40,40,-1.431274,-2.125482,1.326294,1.71512,2.12548,1.37233,-0.047452,0.06647,0.02689,0.0521772,0.0697616,0.0451003,-0.002763,0.002906,-0.001074,0.00302783,0.00376282,0.0451003,20.7,20.57,19.42,20.635,22.715,18.75,0.107943,0.095226,0.042384,0.102562294,0.111902811,0.091233599,7.310755231,6.990521904,4.554946562,7.14971561,7.496345664,6.71628832,0.004389005,0.004022986,0.001756445,0.004205995,0.004902466,0.003509526,1.44109,1.47859,1.60619,1.79438,2.11877,3.78352,4.87069,6.61647,4.68994,2.44737,1.66958,1.68405,1.2754,1.1871,0.778689,0.712101,0.528928,0.448174,0.344778,0.253055,0.135033,0.097891,0.060595,0.042308,0.034634,0.028153,0.017397,0.012733,0.010613,0.009637,0.007225,0.005667,0.00441,0.003827,0.003359,0.002982,2.12669,2.16797,2.26599,2.39571,3.01076,6.57862,6.50527,5.34054,4.82091,2.26064,1.89079,1.65851,1.14145,0.8286,0.624527,0.670732,0.412669,0.302706,0.261702,0.196923,0.105043,0.066666,0.061086,0.044173,0.042738,0.02713,0.021831,0.016602,0.012544,0.011131,0.009966,0.008113,0.007026,0.006051,0.005269,0.004682,1.35474,1.4737,2.08114,2.51923,3.51482,4.39669,2.03185,2.46626,2.17504,1.55118,0.989477,0.616179,0.359603,0.38429,0.254836,0.178193,0.133406,0.12129,0.095825,0.061967,0.058436,0.039555,0.028834,0.022297,0.016115,0.013742,0.009436,0.007724,0.00639,0.00468,0.00359,0.002971,0.002433,0.002167,0.001931,0.001702,1.782705,1.823695,1.95165,2.01863,2.380915,5.26693,5.41127,6.24737,4.755425,2.417875,1.828435,1.671285,1.19254,1.12853,0.713683,0.690888,0.479541,0.382194,0.2997705,0.228218,0.1182535,0.08713965,0.0608421,0.04446495,0.04069165,0.0297519,0.0201574,0.01509865,0.01173655,0.01031955,0.00843365,0.006549995,0.00538034,0.004629105,0.00402609,0.003566305,2.13467,2.1709,2.27165,2.43456,3.04527,6.57941,6.68425,6.93519,6.06254,2.93033,2.05146,1.9045,1.36856,1.22841,0.910435,0.880275,0.620187,0.51725,0.371736,0.26147,0.151113,0.117624,0.0677079,0.0532152,0.0497166,0.0343219,0.0232223,0.017337,0.0129294,0.0114955,0.0104265,0.00845852,0.00736823,0.0063581,0.00552281,0.00489695,1.4039,1.42071,1.52469,1.65037,1.91808,3.40773,4.39419,3.65449,3.19211,1.92869,1.46229,1.36436,1.05525,0.73464,0.43059,0.349343,0.288211,0.269591,0.158101,0.12595,0.0737447,0.0659716,0.0475556,0.0390314,0.0322665,0.0248315,0.0156788,0.0120684,0.00984452,0.00901308,0.00723915,0.00564024,0.00440744,0.0038017,0.00332421,0.00296058
