,esm_event_id,event_time,isc_event_id,usgs_event_id,ingv_event_id,emsc_event_id,ev_nation_code,ev_latitude,ev_longitude,ev_depth_km,ev_hyp_ref,fm_type_code,ml,ml_ref,mw,mw_ref,ms,ms_ref,emec_mw,emec_mw_type,emec_mw_ref,es_strike,es_dip,es_rake,es_strike_dip_rake_ref,z_top,es_z_top_ref,es_length,es_width,es_geometry_ref,network_code,station_code,location_code,instrument_code,sensor_depth_m,proximity,hounsing,installation,st_nation_code,st_latitude,st_longitude,st_elevation,ec8_code,ec8_code_method,ec8_code_from_topography,ec8_code_ref,vs30_m_s,vs30_ref,vs30_calc_method,vs30_meas_type,slope_deg,vs30_m_s_wa,epi_dist,epi_az,jb_dist,rup_dist,rx_dist,ry0_dist,instrument_type_code,late_triggered_event_01,u_channel_code,u_azimuth_deg,v_channel_code,v_azimuth_deg,w_channel_code,u_hp,v_hp,w_hp,u_lp,v_lp,w_lp,u_pga,v_pga,w_pga,rotd50_pga,rotd100_pga,rotd00_pga,u_pgv,v_pgv,w_pgv,rotd50_pgv,rotd100_pgv,rotd00_pgv,u_pgd,v_pgd,w_pgd,rotd50_pgd,rotd100_pgd,rotd00_pgd,u_t90,v_t90,w_t90,rotd50_t90,rotd100_t90,rot_d00_t90,u_housner,v_housner,w_housner,rotd50_housner,rotd100_housner,rotd00_housner,u_cav,v_cav,w_cav,rotd50_cav,rotd100_cav,rotd00_cav,u_ia,v_ia,w_ia,rotd50_ia,rotd100_ia,rotd00_ia,u_t0_010,u_t0_025,u_t0_040,u_t0_050,u_t0_070,u_t0_100,u_t0_150,u_t0_200,u_t0_250,u_t0_300,u_t0_350,u_t0_400,u_t0_450,u_t0_500,u_t0_600,u_t0_700,u_t0_750,u_t0_800,u_t0_900,u_t1_000,u_t1_200,u_t1_400,u_t1_600,u_t1_800,u_t2_000,u_t2_500,u_t3_000,u_t3_500,u_t4_000,u_t4_500,u_t5_000,u_t6_000,u_t7_000,u_t8_000,u_t9_000,u_t10_000,v_t0_010,v_t0_025,v_t0_040,v_t0_050,v_t0_070,v_t0_100,v_t0_150,v_t0_200,v_t0_250,v_t0_300,v_t0_350,v_t0_400,v_t0_450,v_t0_500,v_t0_600,v_t0_700,v_t0_750,v_t0_800,v_t0_900,v_t1_000,v_t1_200,v_t1_400,v_t1_600,v_t1_800,v_t2_000,v_t2_500,v_t3_000,v_t3_500,v_t4_000,v_t4_500,v_t5_000,v_t6_000,v_t7_000,v_t8_000,v_t9_000,v_t10_000,w_t0_010,w_t0_025,w_t0_040,w_t0_050,w_t0_070,w_t0_100,w_t0_150,w_t0_200,w_t0_250,w_t0_300,w_t0_350,w_t0_400,w_t0_450,w_t0_500,w_t0_600,w_t0_700,w_t0_750,w_t0_800,w_t0_900,w_t1_000,w_t1_200,w_t1_400,w_t1_600,w_t1_800,w_t2_000,w_t2_500,w_t3_000,w_t3_500,w_t4_000,w_t4_500,w_t5_000,w_t6_000,w_t7_000,w_t8_000,w_t9_000,w_t10_000,rotd50_t0_010,rotd50_t0_025,rotd50_t0_040,rotd50_t0_050,rotd50_t0_070,rotd50_t0_100,rotd50_t0_150,rotd50_t0_200,rotd50_t0_250,rotd50_t0_300,rotd50_t0_350,rotd50_t0_400,rotd50_t0_450,rotd50_t0_500,rotd50_t0_600,rotd50_t0_700,rotd50_t0_750,rotd50_t0_800,rotd50_t0_900,rotd50_t1_000,rotd50_t1_200,rotd50_t1_400,rotd50_t1_600,rotd50_t1_800,rotd50_t2_000,rotd50_t2_500,rotd50_t3_000,rotd50_t3_500,rotd50_t4_000,rotd50_t4_500,rotd50_t5_000,rotd50_t6_000,rotd50_t7_000,rotd50_t8_000,rotd50_t9_000,rotd50_t10_000,rotd100_t0_010,rotd100_t0_025,rotd100_t0_040,rotd100_t0_050,rotd100_t0_070,rotd100_t0_100,rotd100_t0_150,rotd100_t0_200,rotd100_t0_250,rotd100_t0_300,rotd100_t0_350,rotd100_t0_400,rotd100_t0_450,rotd100_t0_500,rotd100_t0_600,rotd100_t0_700,rotd100_t0_750,rotd100_t0_800,rotd100_t0_900,rotd100_t1_000,rotd100_t1_200,rotd100_t1_400,rotd100_t1_600,rotd100_t1_800,rotd100_t2_000,rotd100_t2_500,rotd100_t3_000,rotd100_t3_500,rotd100_t4_000,rotd100_t4_500,rotd100_t5_000,rotd100_t6_000,rotd100_t7_000,rotd100_t8_000,rotd100_t9_000,rotd100_t10_000,rotd00_t0_010,rotd00_t0_025,rotd00_t0_040,rotd00_t0_050,rotd00_t0_070,rotd00_t0_100,rotd00_t0_150,rotd00_t0_200,rotd00_t0_250,rotd00_t0_300,rotd00_t0_350,rotd00_t0_400,rotd00_t0_450,rotd00_t0_500,rotd00_t0_600,rotd00_t0_700,rotd00_t0_750,rotd00_t0_800,rotd00_t0_900,rotd00_t1_000,rotd00_t1_200,rotd00_t1_400,rotd00_t1_600,rotd00_t1_800,rotd00_t2_000,rotd00_t2_500,rotd00_t3_000,rotd00_t3_500,rotd00_t4_000,rotd00_t4_500,rotd00_t5_000,rotd00_t6_000,rotd00_t7_000,rotd00_t8_000,rotd00_t9_000,rotd00_t10_000
1531,EMSC-20191127_0000104,2019-11-27T14:45:00,,,,,AL,41.5643,19.5197,25,,TF,5.4,,5.37,,5.37,,5.37,,,,,,,,,,,,IV,MESG,,D,0,Free-field,Box,Pillar,IT,40.589408,17.850423,78,,geology,,S4_2007-2009_DiCapua_et_al_2011,,,,,0.14,244.5,177.1963124,232.8903947,,,,,D,0,E,90,N,0,Z,0.1,0.1,0.1,40,40,40,0.599902,-0.711905,0.232632,0.612328,0.803469,0.520379,-0.027468,-0.048839,0.019709,0.03871555,0.0490601,0.0246535,-0.008141,-0.009258,0.006621,0.00857541,0.0107955,0.0246535,46.75,46.085,53.31,46.3625,46.78,45.225,0.121274,0.186945,0.0875096,0.160372318,0.192836575,0.111645744,4.526756749,4.842364031,2.90432336,4.683480065,4.990310927,4.409779932,0.000818741,0.000958634,0.000286418,0.000888687,0.001013293,0.000764081,0.601467,0.650002,0.687988,0.729737,0.738418,1.37013,1.6992,1.17577,0.879762,1.11193,1.12029,1.10073,0.884723,0.654402,0.731288,0.653714,0.657048,0.604303,0.544704,0.336688,0.32116,0.234361,0.226134,0.15959,0.106874,0.085495,0.060203,0.065403,0.033472,0.038729,0.027026,0.030139,0.021073,0.015377,0.008567,0.005118,0.71428,0.715473,0.754045,0.758904,0.932448,1.66356,1.39619,1.46499,1.76859,1.64281,1.10604,1.09226,1.09435,0.80587,0.885927,0.768908,0.780966,0.971751,1.06942,0.887374,0.645234,0.287336,0.291812,0.231668,0.169354,0.114706,0.087956,0.077656,0.071673,0.073161,0.056323,0.021465,0.018324,0.009937,0.008226,0.005862,0.233139,0.263739,0.358599,0.467501,0.569499,0.690811,0.606842,0.776375,0.545631,0.483516,0.518981,0.505581,0.407184,0.404796,0.297202,0.267302,0.252813,0.227523,0.243655,0.238991,0.166269,0.128839,0.135659,0.154548,0.148848,0.143164,0.092932,0.061375,0.054141,0.042298,0.026751,0.020121,0.018903,0.013577,0.009043,0.007031,0.614284,0.666872,0.719074,0.736278,0.8260345,1.452205,1.577105,1.22828,1.31118,1.30162,1.092735,1.09724,1.02145,0.7761635,0.7461395,0.702803,0.756241,0.8133105,0.793949,0.655108,0.486469,0.2517225,0.260839,0.1980395,0.127873,0.09665885,0.075816,0.06644345,0.053238,0.05597295,0.04229365,0.024944,0.01971815,0.01257185,0.0083946,0.00543203,0.807724,0.820032,0.862873,0.879241,0.981996,1.71892,1.88044,1.64306,1.76859,1.83566,1.16623,1.16315,1.17198,0.867907,0.992584,0.909786,0.807894,1.01502,1.06942,0.900934,0.675166,0.348485,0.368748,0.253391,0.173893,0.12275,0.0912968,0.0780698,0.0727105,0.0772964,0.0587627,0.0340436,0.0256623,0.0174788,0.0103773,0.00696538,0.527603,0.552689,0.606921,0.63182,0.695409,1.06583,1.36563,1.06604,0.785902,0.870095,0.773475,0.900296,0.825125,0.616584,0.655059,0.61487,0.594982,0.469831,0.533541,0.315395,0.185461,0.162564,0.167456,0.135106,0.102071,0.0775251,0.0586343,0.0564161,0.0317953,0.0295824,0.0270263,0.0139006,0.00746519,0.00576953,0.00424333,0.00313339
1532,EMSC-20191127_0000104,2019-11-27T14:45:00,,,,,AL,41.5643,19.5197,25,,TF,5.4,,5.37,,5.37,,5.37,,,,,,,,,,,,MN,PDG,,D,5,,,,ME,42.4297,19.2608,40,,geology,,S4_2007-2009_DiCapua_et_al_2011,,,,,1.21,372.7,98.48708104,347.5063066,,,,,D,0,E,90,N,0,Z,0.1,0.1,0.1,40,40,40,1.092911,-0.973012,0.89593,1.05978,1.13062,0.926108,-0.069656,0.048753,0.067631,0.05341615,0.0716955,0.0442202,0.013766,-0.007276,-0.014248,0.0113437,0.0141012,0.0442202,25.485,27.815,29.875,26.6775,27.88,25.12,0.231908,0.140807,0.217049,0.191303132,0.231949611,0.139585737,6.253915878,5.853951856,5.922543245,6.122422846,6.344390703,5.798831832,0.002504383,0.002061092,0.001971209,0.002282737,0.002508878,0.002056597,1.09689,1.1258,1.25381,1.49118,2.10375,2.8307,3.51932,3.44421,3.08613,3.28215,2.05751,2.7225,1.99061,1.81187,2.08792,1.728,1.19463,0.822757,0.763023,0.783272,0.376806,0.28837,0.245616,0.26928,0.217408,0.208029,0.186477,0.134828,0.109459,0.083743,0.048462,0.028614,0.017119,0.011822,0.0092,0.007206,0.973389,0.986806,1.13114,1.41761,1.57181,1.90828,2.90647,3.23021,2.43781,2.44259,1.991,1.89345,1.82877,1.82892,1.09982,0.784676,0.721893,0.606946,0.581373,0.394582,0.201359,0.206592,0.118765,0.116893,0.123018,0.056798,0.07459,0.069544,0.043492,0.032247,0.026292,0.01248,0.011301,0.009268,0.008437,0.006893,0.897986,0.934077,1.01141,1.17231,1.59247,1.59702,3.31999,2.53884,2.89495,2.41226,1.59336,1.70797,1.36291,1.16472,1.99774,1.93633,1.49067,1.06278,0.773433,0.496675,0.319627,0.257817,0.352542,0.285562,0.257556,0.147489,0.088694,0.072755,0.063266,0.047863,0.034735,0.023841,0.015001,0.012045,0.00972,0.008085,1.075,1.0877,1.220485,1.42368,1.853525,2.57766,3.226365,3.186395,2.67107,2.56858,2.09675,2.2132,1.82112,1.83915,1.72345,1.33189,0.9804685,0.751232,0.630656,0.602079,0.2770265,0.2523735,0.2038865,0.20742,0.181644,0.1519015,0.132672,0.1046675,0.0878638,0.0618215,0.03912935,0.021092,0.012422,0.0101697,0.00836819,0.0071096,1.15553,1.16699,1.31202,1.50791,2.18059,3.01183,3.64483,3.47939,3.13819,3.40533,2.60172,2.75757,2.01436,2.00295,2.18287,1.75125,1.21435,0.828011,0.813367,0.787975,0.377933,0.332339,0.246862,0.27078,0.220738,0.20842,0.186753,0.135682,0.114955,0.0858931,0.0537021,0.0294639,0.0172673,0.0118327,0.0095292,0.00829672,0.950918,0.960561,1.09505,1.34196,1.57181,1.88317,2.90647,2.82139,2.35357,1.95371,1.92555,1.31626,1.69672,1.72116,1.09982,0.735625,0.58227,0.552997,0.433981,0.354045,0.194976,0.127292,0.118765,0.116894,0.113238,0.0554988,0.0745897,0.0635084,0.0286215,0.0209612,0.0155125,0.0124725,0.00997683,0.00787726,0.00647727,0.00499114
1661,EMSC-20201007_0000214,2020-10-07T23:44:00,,,,,AL,41.54,19.43,25,,SS,3.7,,4.39,,,,,,,,,,,,,,,,HI,LMS2,,D,0,,,,GR,40.834985,21.141815,923,,topography,,,,,,,2.32,451.3,163.567085,118.033096,,,,,D,0,E,90,N,0,Z,0.15,0.15,0.15,40,40,40,-0.037459,0.040016,-0.01211,0.0400099,0.0487131,0.0322587,0.001779,-0.001975,0.000845,0.00186091,0.00214784,0.00136115,0.00019,0.000288,0.000161,0.000266598,0.000327748,0.00136115,35.905,33.67,45.645,34.39,39.12,32.535,0.00377265,0.00669587,0.00304913,0.005400098,0.006700101,0.003750366,0.219773205,0.287686235,0.112757255,0.255458309,0.29406288,0.207753209,2.48E-06,4.23E-06,4.92E-07,3.35E-06,4.52E-06,2.19E-06,0.037545,0.038197,0.039353,0.039004,0.04719,0.061672,0.199253,0.07731,0.129037,0.136751,0.055823,0.041453,0.039831,0.024246,0.014758,0.015721,0.015677,0.01512,0.012085,0.008826,0.005497,0.005496,0.003548,0.003117,0.003387,0.001633,0.001399,0.001659,0.001048,0.000751,0.000729,0.000335,0.000269,0.000211,0.000154,0.000132,0.040035,0.040756,0.041772,0.044243,0.051719,0.08394,0.158824,0.095904,0.137009,0.128116,0.10654,0.074878,0.063906,0.050134,0.040326,0.024207,0.022324,0.021723,0.017211,0.0164,0.010114,0.007673,0.009193,0.010189,0.008238,0.004961,0.002626,0.001915,0.001492,0.000974,0.000855,0.00044,0.000396,0.000309,0.000241,0.000196,0.012194,0.013688,0.013412,0.015586,0.023248,0.030891,0.035911,0.025317,0.03804,0.034014,0.031752,0.02895,0.029728,0.017582,0.010405,0.008065,0.010315,0.010557,0.016912,0.010948,0.005417,0.005776,0.006249,0.005026,0.003538,0.002224,0.000882,0.000915,0.000734,0.000557,0.000499,0.000378,0.000201,0.000165,0.000103,9.80E-05,0.04022765,0.04124255,0.04177255,0.043846,0.05289475,0.07253985,0.1627185,0.0919671,0.1315755,0.134387,0.0820244,0.0580533,0.0493692,0.03674935,0.03022115,0.0202948,0.0178974,0.01813715,0.01384785,0.01174935,0.009451055,0.00697447,0.00731559,0.007208995,0.00598738,0.00352004,0.002063695,0.001803425,0.001252105,0.00086153,0.0007607,0.000428732,0.000322932,0.000237516,0.000214559,0.00017396,0.0489434,0.0497968,0.0510499,0.0531414,0.056711,0.0848646,0.208533,0.106345,0.162982,0.156798,0.114741,0.0761872,0.0641996,0.0504557,0.0403259,0.0245718,0.0223637,0.022665,0.0182266,0.0165637,0.0110252,0.00801656,0.00920705,0.0101886,0.0082942,0.00496792,0.00263671,0.00198179,0.00149549,0.000972582,0.000896283,0.000473281,0.000398964,0.00031,0.000252725,0.000204562,0.0326092,0.0330262,0.0339711,0.0340126,0.0433112,0.0568076,0.141481,0.0658087,0.0732504,0.0922719,0.0558236,0.0380923,0.0352604,0.0215923,0.0146174,0.0149881,0.0150406,0.0120785,0.0103289,0.00827246,0.00528329,0.00482557,0.00323652,0.00311252,0.0033166,0.00163268,0.00133645,0.00101774,0.000897765,0.000706903,0.000465234,0.000300329,0.000247447,0.000196621,0.000149677,0.000115572
1662,EMSC-20201007_0000214,2020-10-07T23:44:00,,,,,AL,41.54,19.43,25,,SS,3.7,,4.39,,,,,,,,,,,,,,,,MN,PDG,,D,5,,,,ME,42.4297,19.2608,40,,geology,,S4_2007-2009_DiCapua_et_al_2011,,,,,1.21,372.7,99.81137417,351.9807934,,,,,D,0,E,90,N,0,Z,0.15,0.15,0.15,40,40,40,-0.062532,0.053242,0.051751,0.0585566,0.0665994,0.0493581,-0.001959,0.001776,0.00186,0.00179917,0.00240999,0.00148176,0.000329,-0.000202,-0.00018,0.000273818,0.000328327,0.00148176,43.545,45.07,42.265,44.14,45.1,43.48,0.00615553,0.00509655,0.00418247,0.005681614,0.006161186,0.005094081,0.348104295,0.331014355,0.32616272,0.341894365,0.352088282,0.325997177,6.10E-06,5.45E-06,5.17E-06,5.78E-06,6.31E-06,5.25E-06,0.063138,0.067178,0.08206,0.087237,0.14112,0.136023,0.204975,0.138569,0.093149,0.076572,0.051846,0.053134,0.038754,0.033549,0.033999,0.031713,0.020398,0.017387,0.013378,0.012075,0.011859,0.015927,0.009202,0.006109,0.006962,0.005254,0.00316,0.002082,0.001694,0.001332,0.000879,0.000602,0.000495,0.00029,0.000202,0.000178,0.05333,0.057111,0.063346,0.084828,0.146939,0.141294,0.16872,0.14126,0.11816,0.082237,0.051755,0.040386,0.050956,0.063144,0.047068,0.026,0.021442,0.018872,0.01598,0.016628,0.013795,0.007052,0.004663,0.004246,0.003161,0.001783,0.001225,0.001037,0.000609,0.000526,0.000439,0.000342,0.000297,0.000223,0.000186,0.000144,0.052103,0.055538,0.065788,0.071006,0.122249,0.141745,0.189023,0.088666,0.087097,0.076236,0.031022,0.031856,0.02006,0.024721,0.027294,0.021931,0.020796,0.016342,0.016795,0.012617,0.010828,0.007635,0.005466,0.004505,0.00284,0.00151,0.000796,0.001346,0.00085,0.000795,0.000657,0.00036,0.000265,0.000208,0.000181,0.000151,0.05944715,0.06267495,0.073214,0.0858488,0.1463345,0.1363675,0.1855305,0.137856,0.0997333,0.0817079,0.0518005,0.04111525,0.0463838,0.0516345,0.03838035,0.0266215,0.0196855,0.01680825,0.01338395,0.01440435,0.0121843,0.0128897,0.007755285,0.006263745,0.005373545,0.0038177,0.002261985,0.001607565,0.00146397,0.000964049,0.000705175,0.000437354,0.000375486,0.000236826,0.000201923,0.000146259,0.0668287,0.0685061,0.0820602,0.0959083,0.188446,0.148279,0.220614,0.153005,0.125441,0.0876627,0.0567952,0.0534397,0.051057,0.0631437,0.0473384,0.0317129,0.0218637,0.019222,0.0167294,0.0188931,0.0149506,0.0161437,0.00948528,0.00677631,0.00700342,0.0052581,0.00316591,0.00211531,0.00172064,0.00134325,0.000880446,0.000598858,0.000518369,0.000306248,0.000211132,0.000176715,0.0497087,0.0520803,0.0633447,0.0789915,0.105728,0.115453,0.145519,0.120702,0.0832764,0.0647546,0.0457847,0.0355544,0.0365522,0.0315742,0.0324701,0.0187062,0.016416,0.0128249,0.0123696,0.0106948,0.00883646,0.00576159,0.00421566,0.0042457,0.00316123,0.00176906,0.00111679,0.00103016,0.000607529,0.000451672,0.000402252,0.000319249,0.000269981,0.000207314,0.000167624,0.000127854
478,EMSC-20140308_0000059,2014-03-08T15:06:00,,,,,AL,41.5078,19.4702,24.6424,,SS,,,4,,4,,4,,,,,,,,,,,,AC,FIER,0,D,,Inside structure,Building,Building floor,AL,40.7174,19.5669,,B,vs_profile,,,374,AC,,MASW,1.68,406.3,88.15366885,174.6817405,,,,,D,0,E,90,N,0,Z,0.17,0.17,0.17,30,30,30,0.114396,0.095384,-0.053311,0.098535,0.114987,0.084919,0.006029,0.005589,0.002496,0.005983605,0.00633983,0.00542712,0.000916,0.000735,0.000335,0.000842497,0.00102485,0.00542712,35.83,39.445,46.9,37.82,39.62,35.81,0.0293132,0.0225096,0.0126704,0.026497,0.0298632,0.0222815,0.93473326,0.85425985,0.57339447,0.906835225,0.94503411,0.847914895,4.05E-05,3.16E-05,1.16E-05,3.60E-05,4.07E-05,3.13E-05,0.114429,0.115246,0.118589,0.121155,0.128928,0.175629,0.422576,0.552625,0.347159,0.272762,0.208425,0.183935,0.20779,0.213036,0.137588,0.166405,0.1763,0.138627,0.175546,0.134981,0.07281,0.058741,0.041981,0.032893,0.019748,0.012513,0.007395,0.006148,0.003618,0.003338,0.002018,0.001168,0.000867,0.000749,0.000667,0.000525,0.095384,0.095846,0.097337,0.107644,0.121013,0.168407,0.245849,0.459459,0.248735,0.208845,0.234272,0.181604,0.162931,0.151749,0.176764,0.096871,0.097681,0.101747,0.087928,0.068261,0.072499,0.063354,0.0339,0.0194,0.013103,0.007119,0.007763,0.006852,0.004024,0.002826,0.00229,0.001529,0.000953,0.000734,0.000727,0.000661,0.053482,0.055079,0.07385,0.081425,0.115046,0.178023,0.168121,0.189155,0.150546,0.086932,0.118797,0.091248,0.124847,0.127898,0.087428,0.085805,0.074929,0.074135,0.063557,0.046115,0.033139,0.019673,0.017756,0.011487,0.006851,0.00576,0.002946,0.002696,0.002055,0.001631,0.001237,0.000631,0.000432,0.000379,0.000281,0.000232,0.0986235,0.0999395,0.1041575,0.1117835,0.123085,0.169189,0.307465,0.463895,0.3242275,0.26404,0.2276385,0.20717,0.2174275,0.187055,0.145688,0.1321275,0.1327605,0.1101895,0.1379655,0.1030785,0.0724315,0.0608715,0.036478,0.0260515,0.0173115,0.0111995,0.007337,0.0060815,0.0036385,0.003036,0.002103,0.0013805,0.000955,0.000742,0.00069,0.0005825,0.115023,0.115841,0.12003,0.124693,0.144156,0.185219,0.430061,0.552625,0.352433,0.320666,0.252036,0.228807,0.241544,0.213779,0.178411,0.166405,0.177557,0.139713,0.183053,0.135812,0.086426,0.064969,0.048333,0.033551,0.020741,0.013406,0.007915,0.006852,0.004287,0.003735,0.002974,0.001712,0.000999,0.00092,0.0009,0.000778,0.085096,0.085825,0.089662,0.095387,0.113262,0.154923,0.22536,0.379931,0.247724,0.208845,0.185873,0.166768,0.161653,0.129133,0.134767,0.095543,0.087804,0.092978,0.072867,0.062689,0.068657,0.046564,0.030574,0.0194,0.012883,0.007119,0.006618,0.005164,0.002703,0.002155,0.00169,0.001168,0.000867,0.000643,0.000549,0.000478
479,EMSC-20140308_0000059,2014-03-08T15:06:00,,,,,AL,41.5078,19.4702,24.6424,,SS,,,4,,4,,4,,,,,,,,,,,,AC,SDA,0,D,,No information,Small masonry building,Pillar,AL,42.0505,19.5022,57,A,vs_profile,,,1118,AC,,MASW,10.58,827.4,60.33582382,2.516496211,,,,,D,0,E,90,N,0,Z,0.15,0.15,0.15,30,30,30,0.141505,0.159592,-0.164725,0.1399165,0.163836,0.120412,0.003862,0.004312,-0.003214,0.004329195,0.00466146,0.00386151,-0.000407,-0.000374,-0.000372,0.000384773,0.000452794,0.00386151,17.755,17.86,20.995,17.8825,18.485,17.475,0.0122971,0.0120454,0.0102464,0.01218485,0.012625,0.011907,0.53731426,0.62553553,0.687653085,0.58671941,0.63158423,0.53333738,2.44E-05,3.36E-05,3.70E-05,2.90E-05,3.41E-05,2.39E-05,0.142109,0.148786,0.181637,0.285005,0.333254,0.356496,0.329216,0.47727,0.234197,0.315799,0.206581,0.175745,0.124658,0.100215,0.084434,0.051012,0.054627,0.041915,0.031921,0.036819,0.021612,0.015039,0.011148,0.013126,0.008992,0.006478,0.003386,0.002365,0.002225,0.001506,0.000914,0.000743,0.000557,0.000485,0.000353,0.000338,0.159995,0.166413,0.179548,0.208952,0.360201,0.51234,0.332748,0.45951,0.309167,0.21174,0.165181,0.159332,0.103173,0.075767,0.054159,0.053458,0.042867,0.040019,0.037384,0.030854,0.027229,0.012524,0.016551,0.013685,0.01246,0.005084,0.00433,0.003297,0.002054,0.001866,0.001193,0.001051,0.000666,0.000546,0.00062,0.000515,0.166435,0.180129,0.192731,0.348132,0.518314,0.458073,0.359382,0.228007,0.16031,0.218635,0.141807,0.115715,0.083349,0.094886,0.041527,0.041706,0.035679,0.025988,0.026374,0.019241,0.016665,0.016358,0.018102,0.014112,0.010919,0.004329,0.002924,0.001627,0.001322,0.001266,0.00121,0.000786,0.000504,0.000521,0.000441,0.000286,0.1403775,0.1465775,0.178119,0.242869,0.3501385,0.4392895,0.347027,0.467278,0.293119,0.2637605,0.166459,0.1628195,0.1031785,0.0877805,0.0656175,0.0530565,0.0499635,0.0418065,0.0323975,0.0332595,0.0270345,0.0151945,0.0139705,0.0135125,0.0103785,0.0053945,0.00367,0.002426,0.0020015,0.0015955,0.0011715,0.000862,0.000605,0.000521,0.000475,0.0004175,0.164292,0.170824,0.194961,0.298287,0.377493,0.517421,0.365244,0.523377,0.310849,0.369415,0.219902,0.18732,0.129258,0.108375,0.084971,0.056402,0.056669,0.044889,0.041564,0.043323,0.030119,0.018215,0.01722,0.0162,0.013412,0.006826,0.004342,0.003306,0.002226,0.00185,0.001293,0.001113,0.000687,0.000549,0.000613,0.000526,0.12074,0.124785,0.160189,0.194412,0.310408,0.339451,0.267989,0.37133,0.231813,0.183965,0.149878,0.131901,0.093734,0.071557,0.045936,0.041953,0.036178,0.036424,0.029634,0.025682,0.021497,0.012524,0.009432,0.00805,0.007739,0.004918,0.003022,0.001951,0.001589,0.001409,0.000867,0.000738,0.000538,0.000421,0.000345,0.00032
