,esm_event_id,event_time,isc_event_id,usgs_event_id,ingv_event_id,emsc_event_id,ev_nation_code,ev_latitude,ev_longitude,ev_depth_km,ev_hyp_ref,fm_type_code,ml,ml_ref,mw,mw_ref,ms,ms_ref,emec_mw,emec_mw_type,emec_mw_ref,es_strike,es_dip,es_rake,es_strike_dip_rake_ref,z_top,es_z_top_ref,es_length,es_width,es_geometry_ref,network_code,station_code,location_code,instrument_code,sensor_depth_m,proximity,hounsing,installation,st_nation_code,st_latitude,st_longitude,st_elevation,ec8_code,ec8_code_method,ec8_code_from_topography,ec8_code_ref,vs30_m_s,vs30_ref,vs30_calc_method,vs30_meas_type,slope_deg,vs30_m_s_wa,epi_dist,epi_az,jb_dist,rup_dist,rx_dist,ry0_dist,instrument_type_code,late_triggered_event_01,u_channel_code,u_azimuth_deg,v_channel_code,v_azimuth_deg,w_channel_code,u_hp,v_hp,w_hp,u_lp,v_lp,w_lp,u_pga,v_pga,w_pga,rotd50_pga,rotd100_pga,rotd00_pga,u_pgv,v_pgv,w_pgv,rotd50_pgv,rotd100_pgv,rotd00_pgv,u_pgd,v_pgd,w_pgd,rotd50_pgd,rotd100_pgd,rotd00_pgd,u_t90,v_t90,w_t90,rotd50_t90,rotd100_t90,rot_d00_t90,u_housner,v_housner,w_housner,rotd50_housner,rotd100_housner,rotd00_housner,u_cav,v_cav,w_cav,rotd50_cav,rotd100_cav,rotd00_cav,u_ia,v_ia,w_ia,rotd50_ia,rotd100_ia,rotd00_ia,u_t0_010,u_t0_025,u_t0_040,u_t0_050,u_t0_070,u_t0_100,u_t0_150,u_t0_200,u_t0_250,u_t0_300,u_t0_350,u_t0_400,u_t0_450,u_t0_500,u_t0_600,u_t0_700,u_t0_750,u_t0_800,u_t0_900,u_t1_000,u_t1_200,u_t1_400,u_t1_600,u_t1_800,u_t2_000,u_t2_500,u_t3_000,u_t3_500,u_t4_000,u_t4_500,u_t5_000,u_t6_000,u_t7_000,u_t8_000,u_t9_000,u_t10_000,v_t0_010,v_t0_025,v_t0_040,v_t0_050,v_t0_070,v_t0_100,v_t0_150,v_t0_200,v_t0_250,v_t0_300,v_t0_350,v_t0_400,v_t0_450,v_t0_500,v_t0_600,v_t0_700,v_t0_750,v_t0_800,v_t0_900,v_t1_000,v_t1_200,v_t1_400,v_t1_600,v_t1_800,v_t2_000,v_t2_500,v_t3_000,v_t3_500,v_t4_000,v_t4_500,v_t5_000,v_t6_000,v_t7_000,v_t8_000,v_t9_000,v_t10_000,w_t0_010,w_t0_025,w_t0_040,w_t0_050,w_t0_070,w_t0_100,w_t0_150,w_t0_200,w_t0_250,w_t0_300,w_t0_350,w_t0_400,w_t0_450,w_t0_500,w_t0_600,w_t0_700,w_t0_750,w_t0_800,w_t0_900,w_t1_000,w_t1_200,w_t1_400,w_t1_600,w_t1_800,w_t2_000,w_t2_500,w_t3_000,w_t3_500,w_t4_000,w_t4_500,w_t5_000,w_t6_000,w_t7_000,w_t8_000,w_t9_000,w_t10_000,rotd50_t0_010,rotd50_t0_025,rotd50_t0_040,rotd50_t0_050,rotd50_t0_070,rotd50_t0_100,rotd50_t0_150,rotd50_t0_200,rotd50_t0_250,rotd50_t0_300,rotd50_t0_350,rotd50_t0_400,rotd50_t0_450,rotd50_t0_500,rotd50_t0_600,rotd50_t0_700,rotd50_t0_750,rotd50_t0_800,rotd50_t0_900,rotd50_t1_000,rotd50_t1_200,rotd50_t1_400,rotd50_t1_600,rotd50_t1_800,rotd50_t2_000,rotd50_t2_500,rotd50_t3_000,rotd50_t3_500,rotd50_t4_000,rotd50_t4_500,rotd50_t5_000,rotd50_t6_000,rotd50_t7_000,rotd50_t8_000,rotd50_t9_000,rotd50_t10_000,rotd100_t0_010,rotd100_t0_025,rotd100_t0_040,rotd100_t0_050,rotd100_t0_070,rotd100_t0_100,rotd100_t0_150,rotd100_t0_200,rotd100_t0_250,rotd100_t0_300,rotd100_t0_350,rotd100_t0_400,rotd100_t0_450,rotd100_t0_500,rotd100_t0_600,rotd100_t0_700,rotd100_t0_750,rotd100_t0_800,rotd100_t0_900,rotd100_t1_000,rotd100_t1_200,rotd100_t1_400,rotd100_t1_600,rotd100_t1_800,rotd100_t2_000,rotd100_t2_500,rotd100_t3_000,rotd100_t3_500,rotd100_t4_000,rotd100_t4_500,rotd100_t5_000,rotd100_t6_000,rotd100_t7_000,rotd100_t8_000,rotd100_t9_000,rotd100_t10_000,rotd00_t0_010,rotd00_t0_025,rotd00_t0_040,rotd00_t0_050,rotd00_t0_070,rotd00_t0_100,rotd00_t0_150,rotd00_t0_200,rotd00_t0_250,rotd00_t0_300,rotd00_t0_350,rotd00_t0_400,rotd00_t0_450,rotd00_t0_500,rotd00_t0_600,rotd00_t0_700,rotd00_t0_750,rotd00_t0_800,rotd00_t0_900,rotd00_t1_000,rotd00_t1_200,rotd00_t1_400,rotd00_t1_600,rotd00_t1_800,rotd00_t2_000,rotd00_t2_500,rotd00_t3_000,rotd00_t3_500,rotd00_t4_000,rotd00_t4_500,rotd00_t5_000,rotd00_t6_000,rotd00_t7_000,rotd00_t8_000,rotd00_t9_000,rotd00_t10_000
786,EMSC-20151214_0000085,2015-12-14T21:13:00,,,,,GR,39,20.64,26,,SS,4.1,,4.2,,4.2,,4.2,,,,,,,,,,,,HI,VAS2,,D,0,Close to structure,Building basement,,GR,38.630558,20.608081,5,,topography,,,,,,,0.21,260.7,41.10606502,183.8769868,,,,,D,0,E,90,N,0,Z,0.15,0.15,0.15,40,40,40,3.041781,-2.966406,0.925601,2.800065,3.04542,2.33881,0.14431,0.18648,-0.050762,0.144032,0.186783,0.112008,0.017486,-0.017547,0.005361,0.017016,0.0177069,0.112008,23.35,24.84,29,24.6625,25.51,23.11,0.58846,0.589205,0.208871,0.588832509,0.60760727,0.562203117,12.81150076,14.91669478,8.115466166,13.9801784,15.05746736,12.67462015,0.011238592,0.014407905,0.003598947,0.012823249,0.014493357,0.011153139,3.05416,3.1048,3.30912,3.86582,4.03468,5.56539,9.98591,9.94071,8.57464,4.89523,5.93571,6.89282,4.01196,2.93717,2.60314,2.79574,3.0648,2.66113,1.95359,1.67836,1.79711,1.74041,1.08939,0.588657,0.346573,0.233419,0.125157,0.085589,0.060796,0.04651,0.032447,0.023718,0.018197,0.013769,0.011606,0.010039,2.97251,3.00335,3.09903,3.12341,3.26713,4.75755,6.04695,12.5851,8.83119,5.94139,6.12828,4.98041,4.60342,2.95055,2.97253,3.3554,2.94927,2.76012,3.01123,3.49847,1.62672,0.939553,0.7504,0.504862,0.405324,0.200513,0.112497,0.065399,0.051698,0.047177,0.035157,0.023155,0.018098,0.014906,0.013099,0.011855,0.927688,0.993916,1.5198,1.85494,2.02716,3.07532,2.56038,3.14219,2.78515,2.49237,2.90549,2.6443,3.28378,2.8175,1.50304,1.27628,1.27189,1.03026,0.673745,0.711636,0.425594,0.427223,0.293023,0.159209,0.125402,0.061147,0.034397,0.023844,0.021337,0.01799,0.013952,0.009247,0.006558,0.005269,0.004512,0.003873,2.8841,2.904485,3.048045,3.138155,3.25815,4.724465,7.88931,9.998985,8.86859,5.557685,5.924045,5.939125,4.09301,2.92667,2.661095,2.76862,2.940055,2.706015,2.43695,2.7054,1.72861,1.34796,0.9208875,0.5237665,0.3676815,0.201909,0.1142265,0.0720835,0.05426155,0.04634445,0.0345183,0.02474785,0.01894875,0.01525655,0.0123978,0.0103842,3.05897,3.1109,3.30912,3.86582,4.07881,5.56539,9.98591,12.6733,9.66917,5.97757,6.41523,6.97741,4.76779,3.27137,3.06051,3.3554,3.29504,2.99347,3.41614,3.69815,2.11878,1.74041,1.08958,0.588656,0.441959,0.2358,0.129066,0.087164,0.0647924,0.049972,0.0374615,0.0272002,0.0212074,0.0168027,0.01399,0.012399,2.44534,2.45876,2.54493,2.67023,2.61388,4.24276,6.00461,8.39613,7.61112,4.57169,4.95769,4.44555,3.33848,2.43022,2.24263,2.27269,1.90766,2.20114,1.95359,1.67836,1.46692,0.939553,0.682971,0.445533,0.333266,0.163177,0.0951747,0.0654066,0.0476913,0.0389101,0.0311549,0.0219314,0.0170282,0.0136261,0.0111103,0.00945353
787,EMSC-20151214_0000085,2015-12-14T21:13:00,,,,,GR,39,20.64,26,,SS,4.1,,4.2,,4.2,,4.2,,,,,,,,,,,,HL,DLFA,0,D,0,,,,GR,38.47836,22.49583,570,,topography,,,,,,,36.09,1609,171.4248121,109.1601149,,,,,D,0,E,320,N,230,Z,0.1,0.1,0.1,30,30,30,-0.024473,-0.026156,-0.030299,0.0263675,0.031102,0.023721,-0.003123,-0.002548,0.002822,0.002811515,0.00319111,0.00249956,-0.001005,-0.000576,0.000426,0.000790716,0.00101126,0.00249956,45.225,47.45,49.89,46.445,48.22,44.025,0.0142701,0.0121679,0.0101683,0.013268,0.0150537,0.0113838,0.282912,0.26797603,0.231242885,0.275364985,0.29583003,0.24846482,2.73E-06,2.33E-06,1.70E-06,2.53E-06,3.00E-06,2.07E-06,0.024552,0.024618,0.025205,0.024503,0.026037,0.035766,0.045909,0.0599,0.079473,0.06181,0.066823,0.087843,0.075764,0.081471,0.070588,0.055144,0.047744,0.045065,0.054698,0.077154,0.053834,0.035933,0.026032,0.021331,0.012002,0.010975,0.005806,0.006119,0.003619,0.00271,0.00253,0.002172,0.001447,0.001681,0.000935,0.000738,0.026157,0.026572,0.028434,0.028703,0.032079,0.032451,0.043023,0.065364,0.062462,0.060044,0.04734,0.065867,0.072535,0.068058,0.085097,0.051162,0.048811,0.044015,0.046652,0.033097,0.029056,0.028237,0.032591,0.019542,0.014224,0.008874,0.004706,0.003464,0.001983,0.001944,0.001829,0.001086,0.000984,0.000464,0.000392,0.000423,0.030408,0.030623,0.030529,0.030914,0.031334,0.046573,0.044016,0.061603,0.065494,0.053825,0.060328,0.062758,0.054712,0.057146,0.06377,0.045387,0.040592,0.034182,0.031883,0.032894,0.028583,0.024885,0.018752,0.012414,0.012778,0.007148,0.005882,0.004521,0.002583,0.002008,0.001087,0.000787,0.000615,0.000558,0.000388,0.000346,0.0263845,0.027,0.0283855,0.0285605,0.0307835,0.035393,0.048187,0.060326,0.073975,0.063143,0.058374,0.0715045,0.0716995,0.0757635,0.0748435,0.0552555,0.0537565,0.044543,0.050519,0.060301,0.0440295,0.0282795,0.031028,0.020007,0.0128725,0.009541,0.005308,0.004465,0.002578,0.0020195,0.002101,0.0015995,0.0012495,0.001189,0.000761,0.000621,0.031117,0.031834,0.031981,0.031509,0.032155,0.038277,0.052456,0.076994,0.084298,0.068438,0.073678,0.088729,0.077547,0.081471,0.086307,0.063253,0.066458,0.060443,0.063915,0.081043,0.053963,0.036018,0.032926,0.026332,0.015868,0.010975,0.006286,0.006146,0.00364,0.002734,0.002585,0.002184,0.001504,0.00168,0.000993,0.000784,0.023757,0.02422,0.024914,0.024503,0.026037,0.032262,0.041504,0.044253,0.057593,0.052619,0.0454,0.057041,0.056523,0.065046,0.065533,0.045813,0.040613,0.04177,0.032463,0.024186,0.027671,0.023278,0.024174,0.017173,0.008908,0.008259,0.004626,0.002746,0.001658,0.001663,0.001499,0.001049,0.000848,0.000466,0.000368,0.000418
788,EMSC-20151214_0000085,2015-12-14T21:13:00,,,,,GR,39,20.64,26,,SS,4.1,,4.2,,4.2,,4.2,,,,,,,,,,,,HL,JAN,0,D,0,,,,GR,39.65616,20.84874,526,,topography,,,,,,,2.53,466.6,75.03848581,13.81209372,,,,,D,0,E,90,N,0,Z,0.1,0.1,0.1,30,30,30,-0.430508,0.286977,-0.158362,0.356683,0.431748,0.241319,-0.040424,0.017199,0.014173,0.03083985,0.0407996,0.013458,-0.005263,0.001833,-0.001625,0.003907135,0.00547384,0.013458,20.27,26.85,25.945,23.2675,27.15,20.235,0.11727,0.0498887,0.0382773,0.08814245,0.12161,0.0392499,1.73907355,1.441701079,0.92797668,1.606454963,1.792848066,1.356806446,0.000223967,0.000119578,4.91E-05,0.000171773,0.000238055,0.00010549,0.430608,0.431878,0.445494,0.455053,0.492191,0.550212,0.637966,0.904069,1.4377,1.04116,1.07647,0.931769,0.876782,0.699877,0.707485,0.866761,0.97141,1.00628,0.836144,0.567598,0.307699,0.194753,0.132903,0.099402,0.066673,0.03603,0.029815,0.020243,0.015108,0.013835,0.011267,0.007717,0.005416,0.003857,0.003152,0.002712,0.287047,0.28728,0.299078,0.310118,0.342986,0.330551,0.535485,0.626768,1.01245,0.556806,0.538763,0.424255,0.433269,0.402441,0.236448,0.345573,0.394292,0.388292,0.349279,0.251691,0.113439,0.064187,0.048326,0.045913,0.026848,0.014262,0.009132,0.007014,0.004825,0.004696,0.004833,0.00275,0.002222,0.001764,0.001479,0.001104,0.158427,0.161499,0.172415,0.175995,0.183261,0.29521,0.407757,0.404178,0.497337,0.292295,0.293586,0.321572,0.244344,0.321389,0.264274,0.203473,0.230117,0.255173,0.249801,0.16889,0.098486,0.071539,0.049045,0.031302,0.022772,0.011996,0.008828,0.005288,0.005552,0.004267,0.003587,0.003699,0.002273,0.001531,0.001352,0.000949,0.3567515,0.3595675,0.377253,0.3760225,0.392804,0.445212,0.6387685,0.734369,1.20791,0.8121165,0.8522425,0.6858385,0.6224635,0.5432295,0.521658,0.656172,0.741059,0.7645545,0.621432,0.4346925,0.231619,0.1424695,0.0954615,0.0715225,0.0496305,0.027407,0.0221655,0.0151435,0.0110525,0.010008,0.0081145,0.005563,0.004031,0.003136,0.002437,0.002055,0.431889,0.433156,0.445494,0.457566,0.493689,0.557539,0.693023,0.927951,1.46057,1.14338,1.18855,0.931769,0.876782,0.748521,0.734979,0.91349,1.0187,1.06603,0.875611,0.58978,0.320906,0.198462,0.134615,0.101086,0.067617,0.038029,0.030873,0.021101,0.01563,0.014154,0.011475,0.007861,0.005693,0.00412,0.003305,0.00278,0.241321,0.245254,0.257287,0.260273,0.259537,0.3174,0.52201,0.575019,0.719842,0.554172,0.530901,0.42208,0.433269,0.368333,0.166211,0.184082,0.217107,0.283782,0.16537,0.09452,0.085272,0.055789,0.048028,0.041045,0.021035,0.014262,0.009132,0.007006,0.004689,0.003846,0.003001,0.002752,0.002098,0.001499,0.001191,0.000874
789,EMSC-20151214_0000085,2015-12-14T21:13:00,,,,,GR,39,20.64,26,,SS,4.1,,4.2,,4.2,,4.2,,,,,,,,,,,,HL,KASA,0,D,0,,,,GR,39.74628,19.93542,65,,topography,,,,,,,15.39,955,102.7166657,323.9899046,,,,,D,0,E,45,N,315,Z,0.1,0.1,0.1,30,30,30,-0.103467,-0.095903,0.095829,0.1012665,0.123448,0.090147,0.005512,0.004786,0.004058,0.00525021,0.00579393,0.00349324,-0.000909,-0.000772,-0.000937,0.0008014,0.00091206,0.00349324,36.15,36.29,35.18,36.3175,37.125,36.065,0.0198064,0.0168108,0.0142453,0.0183365,0.0203397,0.0151865,0.853095289,0.79792205,0.66285145,0.82676227,0.89326581,0.75350906,3.31E-05,2.91E-05,2.01E-05,3.11E-05,3.68E-05,2.55E-05,0.103915,0.104621,0.107034,0.111149,0.131248,0.199146,0.299981,0.289134,0.350659,0.302255,0.219498,0.257259,0.251153,0.22004,0.148897,0.108603,0.092144,0.084922,0.103047,0.062148,0.029083,0.025798,0.025783,0.018944,0.013999,0.010249,0.006326,0.007701,0.005797,0.004166,0.002834,0.001744,0.001261,0.0011,0.000869,0.000598,0.09611,0.097245,0.101623,0.106819,0.116379,0.199583,0.348583,0.398765,0.298147,0.272861,0.167078,0.205063,0.180932,0.129765,0.101223,0.145054,0.101368,0.093632,0.065411,0.044288,0.0337,0.025247,0.01446,0.0132,0.014239,0.008143,0.00467,0.003319,0.002929,0.002396,0.002396,0.002232,0.001982,0.001184,0.001083,0.000632,0.096058,0.097427,0.09727,0.10617,0.132209,0.17051,0.41008,0.311971,0.194083,0.213051,0.176226,0.20826,0.138661,0.100819,0.064698,0.080848,0.082787,0.084773,0.064536,0.041541,0.025593,0.019208,0.017541,0.013325,0.012012,0.007401,0.005336,0.003892,0.003308,0.004054,0.003569,0.003435,0.002738,0.001711,0.001376,0.001045,0.1013575,0.103069,0.106318,0.110552,0.1228875,0.1886695,0.3130125,0.351142,0.3418095,0.300293,0.192665,0.2164035,0.2184455,0.169656,0.129995,0.129054,0.096934,0.087005,0.083798,0.0560305,0.0287445,0.0240905,0.0207095,0.0150465,0.014119,0.009093,0.00539,0.005539,0.004687,0.0032535,0.002509,0.0018695,0.0015325,0.001157,0.000945,0.000612,0.123695,0.124931,0.125813,0.132539,0.140769,0.199709,0.370388,0.406743,0.422599,0.322912,0.227083,0.290598,0.284831,0.231357,0.160961,0.173594,0.129458,0.099099,0.104814,0.063047,0.034473,0.02645,0.026665,0.019718,0.016809,0.010981,0.007017,0.007728,0.005992,0.004235,0.002987,0.002546,0.001998,0.001213,0.001122,0.00067,0.090189,0.091653,0.094265,0.09433,0.104839,0.165744,0.244644,0.262364,0.267807,0.230313,0.163664,0.136818,0.104139,0.114722,0.078369,0.077872,0.063083,0.071771,0.059133,0.044112,0.023651,0.017274,0.013346,0.0132,0.012333,0.006971,0.004066,0.003299,0.002696,0.0019,0.002013,0.001392,0.00126,0.001081,0.000848,0.000562
790,EMSC-20151214_0000085,2015-12-14T21:13:00,,,,,GR,39,20.64,26,,SS,4.1,,4.2,,4.2,,4.2,,,,,,,,,,,,HL,LXRA,0,D,,,,,GR,38.19948,20.43735,8,,topography,,,,,,,2.71,479.4,90.60042624,191.2991503,,,,,D,0,E,320,N,230,Z,0.15,0.15,0.15,40,40,40,-0.49862,0.450554,-0.3145,0.4725405,0.507796,0.402863,0.025996,-0.025448,0.011572,0.0238883,0.0259961,0.0200466,-0.002183,-0.002408,0.0014,0.002347065,0.00303103,0.0200466,27.16,25.135,67.625,26.215,28.08,24.505,0.0760513,0.0826869,0.049054,0.080268506,0.083047484,0.074897956,2.774122106,3.022047754,2.929886435,2.900500816,3.040812013,2.772982117,0.000434017,0.000519501,0.00027038,0.000476759,0.000532411,0.000421108,0.500371,0.519195,0.605387,0.590253,0.922448,0.940179,1.60556,1.72678,1.19572,1.10014,1.2829,0.900669,0.615629,0.807743,0.581874,0.365628,0.255524,0.219712,0.202384,0.172401,0.152535,0.110586,0.084255,0.107276,0.079596,0.042166,0.030908,0.017902,0.010503,0.008846,0.006858,0.003802,0.003272,0.002652,0.002185,0.001669,0.453731,0.480682,0.541437,0.5457,0.801342,1.27036,1.31373,1.42317,2.03822,1.05436,1.64138,1.07581,1.06288,0.741306,0.750455,0.551991,0.568604,0.396632,0.270253,0.215711,0.128921,0.125289,0.096832,0.06952,0.050126,0.03459,0.020307,0.017123,0.009811,0.008186,0.006181,0.004777,0.003868,0.003077,0.002617,0.002225,0.318962,0.391966,0.560223,0.495198,0.652528,0.701888,0.823907,0.616494,0.64322,0.544489,0.429738,0.482482,0.377572,0.45808,0.415355,0.252115,0.270283,0.258623,0.183866,0.178831,0.08946,0.11559,0.070462,0.047601,0.043603,0.016719,0.010984,0.007448,0.004811,0.004416,0.003622,0.002274,0.001598,0.001279,0.001076,0.000912,0.474083,0.4985835,0.5656415,0.5777545,0.8292545,0.950871,1.498035,1.51029,1.460695,1.200405,1.45437,0.8973035,0.835617,0.7598985,0.6020255,0.484191,0.4202805,0.317782,0.2210855,0.1774385,0.1449955,0.1338585,0.09839345,0.09004275,0.062235,0.03453455,0.02801465,0.016778,0.009741815,0.008460965,0.00650203,0.004303035,0.00334643,0.00281905,0.00238394,0.00188074,0.510721,0.539411,0.607444,0.669435,0.950986,1.27916,1.98593,1.93107,2.0645,1.41281,1.64354,1.11901,1.07544,0.903524,0.753094,0.58317,0.571552,0.39721,0.271089,0.216715,0.1667,0.161428,0.114334,0.10878,0.0795954,0.0421656,0.0319919,0.0183425,0.0108598,0.00919934,0.00731954,0.00488072,0.00401981,0.00329639,0.00277966,0.00226689,0.412801,0.433176,0.478234,0.483955,0.633226,0.8922,0.917714,1.04852,0.998579,1.03759,0.997474,0.710694,0.582872,0.614811,0.502442,0.364724,0.222751,0.21625,0.159914,0.152546,0.128036,0.0954521,0.0842548,0.0519847,0.0444288,0.0318222,0.0192038,0.0144599,0.00882677,0.00642177,0.00569068,0.00380156,0.00299342,0.00224895,0.00189164,0.00155609
1474,EMSC-20190922_0000105,2019-09-22T20:08:00,,,,,AL,41.4099,19.6933,25.7175,,SS,,,4.3,,,,,,,,,,,,,,,,HI,KRK1,,D,0,,,,GR,39.618861,19.9202,10,,topography,,,,,,,1.41,387.2,199.8123484,174.4034482,,,,,D,0,E,90,N,0,Z,0.15,0.15,0.15,40,40,40,0.271779,-0.312263,-0.199001,0.2861675,0.342525,0.232946,0.009151,0.010506,-0.004752,0.00945359,0.0111857,0.00847124,-0.000547,0.000454,-0.000283,0.000476884,0.000548719,0.00847124,28.475,34.115,36.12,32.1225,35.295,26.955,0.0228699,0.0190805,0.00936018,0.021376921,0.022938898,0.018422855,1.888823425,1.863559755,1.06659349,1.881337065,1.90792924,1.848099513,0.000192945,0.000172997,5.22E-05,0.000182971,0.000203896,0.000162047,0.271853,0.274751,0.287297,0.302158,0.347159,0.664675,0.853664,1.43023,0.643162,0.489956,0.614131,0.478432,0.307053,0.394968,0.162009,0.128877,0.116372,0.089129,0.043021,0.042044,0.032653,0.020568,0.013031,0.008481,0.006969,0.004652,0.003746,0.002944,0.002235,0.001796,0.001604,0.001274,0.000985,0.000893,0.000779,0.000666,0.312266,0.318145,0.326171,0.345807,0.404053,0.635836,0.93499,1.16491,0.779623,0.39382,0.314814,0.291744,0.233097,0.286589,0.19747,0.122413,0.096294,0.07456,0.040406,0.030215,0.026509,0.017527,0.011719,0.009392,0.007767,0.004506,0.003465,0.002785,0.002302,0.001865,0.001541,0.001293,0.001031,0.000863,0.000787,0.000642,0.199297,0.207649,0.204588,0.257658,0.323673,0.504323,0.415902,0.822816,0.376939,0.297251,0.180848,0.144406,0.093282,0.070166,0.066349,0.03674,0.029581,0.022406,0.025764,0.018222,0.012167,0.009557,0.006947,0.006249,0.0047,0.003141,0.001858,0.001635,0.00123,0.001202,0.001399,0.000819,0.00067,0.0004,0.000427,0.000358,0.2883835,0.292082,0.303678,0.315265,0.3703805,0.622524,0.905627,1.38286,0.7571415,0.485802,0.4877005,0.363833,0.28978,0.30225,0.172216,0.124346,0.106039,0.08015425,0.0429281,0.03671825,0.02896545,0.01803225,0.0128746,0.00912398,0.007659385,0.004539735,0.003460845,0.002692495,0.0022625,0.001808675,0.001611665,0.00128362,0.000999737,0.000865481,0.0007827,0.000646744,0.34385,0.349595,0.36092,0.38407,0.436714,0.717843,0.960132,1.48362,0.82868,0.508234,0.621461,0.478939,0.320223,0.413078,0.20135,0.146438,0.118525,0.0915451,0.0443326,0.0467872,0.0385183,0.0240014,0.0166798,0.0109684,0.00911453,0.00495056,0.00377162,0.00298329,0.00253411,0.00207641,0.00176934,0.00148713,0.00112787,0.000932123,0.000846509,0.000707634,0.238359,0.239585,0.251085,0.257429,0.281321,0.46667,0.670269,0.833642,0.606659,0.36295,0.314815,0.279837,0.216772,0.201264,0.158554,0.086403,0.0770818,0.0550638,0.0389745,0.0302153,0.024776,0.0145768,0.0109236,0.00812238,0.00675885,0.00370296,0.00280859,0.00214186,0.0016805,0.00148956,0.00122969,0.00093989,0.00077842,0.00070871,0.000611829,0.000536262
