,esm_event_id,event_time,isc_event_id,usgs_event_id,ingv_event_id,emsc_event_id,ev_nation_code,ev_latitude,ev_longitude,ev_depth_km,ev_hyp_ref,fm_type_code,ml,ml_ref,mw,mw_ref,ms,ms_ref,emec_mw,emec_mw_type,emec_mw_ref,es_strike,es_dip,es_rake,es_strike_dip_rake_ref,z_top,es_z_top_ref,es_length,es_width,es_geometry_ref,network_code,station_code,location_code,instrument_code,sensor_depth_m,proximity,hounsing,installation,st_nation_code,st_latitude,st_longitude,st_elevation,ec8_code,ec8_code_method,ec8_code_from_topography,ec8_code_ref,vs30_m_s,vs30_ref,vs30_calc_method,vs30_meas_type,slope_deg,vs30_m_s_wa,epi_dist,epi_az,jb_dist,rup_dist,rx_dist,ry0_dist,instrument_type_code,late_triggered_event_01,u_channel_code,u_azimuth_deg,v_channel_code,v_azimuth_deg,w_channel_code,u_hp,v_hp,w_hp,u_lp,v_lp,w_lp,u_pga,v_pga,w_pga,rotd50_pga,rotd100_pga,rotd00_pga,u_pgv,v_pgv,w_pgv,rotd50_pgv,rotd100_pgv,rotd00_pgv,u_pgd,v_pgd,w_pgd,rotd50_pgd,rotd100_pgd,rotd00_pgd,u_t90,v_t90,w_t90,rotd50_t90,rotd100_t90,rot_d00_t90,u_housner,v_housner,w_housner,rotd50_housner,rotd100_housner,rotd00_housner,u_cav,v_cav,w_cav,rotd50_cav,rotd100_cav,rotd00_cav,u_ia,v_ia,w_ia,rotd50_ia,rotd100_ia,rotd00_ia,u_t0_010,u_t0_025,u_t0_040,u_t0_050,u_t0_070,u_t0_100,u_t0_150,u_t0_200,u_t0_250,u_t0_300,u_t0_350,u_t0_400,u_t0_450,u_t0_500,u_t0_600,u_t0_700,u_t0_750,u_t0_800,u_t0_900,u_t1_000,u_t1_200,u_t1_400,u_t1_600,u_t1_800,u_t2_000,u_t2_500,u_t3_000,u_t3_500,u_t4_000,u_t4_500,u_t5_000,u_t6_000,u_t7_000,u_t8_000,u_t9_000,u_t10_000,v_t0_010,v_t0_025,v_t0_040,v_t0_050,v_t0_070,v_t0_100,v_t0_150,v_t0_200,v_t0_250,v_t0_300,v_t0_350,v_t0_400,v_t0_450,v_t0_500,v_t0_600,v_t0_700,v_t0_750,v_t0_800,v_t0_900,v_t1_000,v_t1_200,v_t1_400,v_t1_600,v_t1_800,v_t2_000,v_t2_500,v_t3_000,v_t3_500,v_t4_000,v_t4_500,v_t5_000,v_t6_000,v_t7_000,v_t8_000,v_t9_000,v_t10_000,w_t0_010,w_t0_025,w_t0_040,w_t0_050,w_t0_070,w_t0_100,w_t0_150,w_t0_200,w_t0_250,w_t0_300,w_t0_350,w_t0_400,w_t0_450,w_t0_500,w_t0_600,w_t0_700,w_t0_750,w_t0_800,w_t0_900,w_t1_000,w_t1_200,w_t1_400,w_t1_600,w_t1_800,w_t2_000,w_t2_500,w_t3_000,w_t3_500,w_t4_000,w_t4_500,w_t5_000,w_t6_000,w_t7_000,w_t8_000,w_t9_000,w_t10_000,rotd50_t0_010,rotd50_t0_025,rotd50_t0_040,rotd50_t0_050,rotd50_t0_070,rotd50_t0_100,rotd50_t0_150,rotd50_t0_200,rotd50_t0_250,rotd50_t0_300,rotd50_t0_350,rotd50_t0_400,rotd50_t0_450,rotd50_t0_500,rotd50_t0_600,rotd50_t0_700,rotd50_t0_750,rotd50_t0_800,rotd50_t0_900,rotd50_t1_000,rotd50_t1_200,rotd50_t1_400,rotd50_t1_600,rotd50_t1_800,rotd50_t2_000,rotd50_t2_500,rotd50_t3_000,rotd50_t3_500,rotd50_t4_000,rotd50_t4_500,rotd50_t5_000,rotd50_t6_000,rotd50_t7_000,rotd50_t8_000,rotd50_t9_000,rotd50_t10_000,rotd100_t0_010,rotd100_t0_025,rotd100_t0_040,rotd100_t0_050,rotd100_t0_070,rotd100_t0_100,rotd100_t0_150,rotd100_t0_200,rotd100_t0_250,rotd100_t0_300,rotd100_t0_350,rotd100_t0_400,rotd100_t0_450,rotd100_t0_500,rotd100_t0_600,rotd100_t0_700,rotd100_t0_750,rotd100_t0_800,rotd100_t0_900,rotd100_t1_000,rotd100_t1_200,rotd100_t1_400,rotd100_t1_600,rotd100_t1_800,rotd100_t2_000,rotd100_t2_500,rotd100_t3_000,rotd100_t3_500,rotd100_t4_000,rotd100_t4_500,rotd100_t5_000,rotd100_t6_000,rotd100_t7_000,rotd100_t8_000,rotd100_t9_000,rotd100_t10_000,rotd00_t0_010,rotd00_t0_025,rotd00_t0_040,rotd00_t0_050,rotd00_t0_070,rotd00_t0_100,rotd00_t0_150,rotd00_t0_200,rotd00_t0_250,rotd00_t0_300,rotd00_t0_350,rotd00_t0_400,rotd00_t0_450,rotd00_t0_500,rotd00_t0_600,rotd00_t0_700,rotd00_t0_750,rotd00_t0_800,rotd00_t0_900,rotd00_t1_000,rotd00_t1_200,rotd00_t1_400,rotd00_t1_600,rotd00_t1_800,rotd00_t2_000,rotd00_t2_500,rotd00_t3_000,rotd00_t3_500,rotd00_t4_000,rotd00_t4_500,rotd00_t5_000,rotd00_t6_000,rotd00_t7_000,rotd00_t8_000,rotd00_t9_000,rotd00_t10_000
1409,EMSC-20190525_0000090,2019-05-25T22:35:00,,,,,GR,40.0511,20.5214,28.8839,,SS,4.1,,4.35,,,,,,,,,,,,,,,,HL,JAN,0,D,0,,,,GR,39.65616,20.84874,526,,topography,,,,,,,2.53,466.6,52.03448015,147.3241295,,,,,D,0,E,90,N,0,Z,0.15,0.15,0.15,40,40,40,0.569175,0.622048,-0.406925,0.608004,0.679588,0.494773,0.027908,-0.020085,0.014554,0.02498835,0.0279078,0.0179857,-0.003145,0.002011,-0.001624,0.00239811,0.00315678,0.0179857,19.81,19.63,18.865,19.72,20.075,18.705,0.0768509,0.0589324,0.0492697,0.068622014,0.077626361,0.058931782,2.359506571,2.131431285,1.61881391,2.25323397,2.493036547,1.992657944,0.000519072,0.000398319,0.000240383,0.000458695,0.000572177,0.000345213,0.571404,0.581694,0.679271,0.762318,1.27155,2.37381,1.64004,1.44319,1.82433,1.03266,0.709634,0.91891,0.500052,0.351911,0.448866,0.502698,0.464835,0.438662,0.317256,0.197641,0.141534,0.137984,0.110858,0.076813,0.067778,0.036872,0.023164,0.015541,0.012011,0.009914,0.007478,0.005264,0.003828,0.002876,0.002378,0.001993,0.626919,0.659799,0.717148,0.761501,0.983006,0.987452,1.58918,1.70715,1.34828,0.84112,0.600309,0.695571,0.516377,0.451968,0.530426,0.342973,0.391316,0.348283,0.250813,0.154348,0.090132,0.059569,0.041217,0.046873,0.050601,0.028598,0.017195,0.011882,0.007891,0.006771,0.005913,0.003781,0.002834,0.002146,0.001792,0.001551,0.408484,0.425552,0.477712,0.546338,1.05708,1.37405,1.19422,1.15324,1.10101,0.878833,0.629722,0.342662,0.386323,0.378897,0.326604,0.311669,0.309646,0.248671,0.203482,0.170365,0.108617,0.058065,0.057731,0.044342,0.034946,0.022491,0.011929,0.009827,0.006375,0.004934,0.003946,0.002678,0.002251,0.001715,0.001319,0.001118,0.6204865,0.641541,0.7299435,0.7710535,1.271305,1.758765,1.61461,1.704615,1.81428,0.92759,0.626883,0.7970395,0.5109385,0.421838,0.517813,0.3897115,0.3973425,0.3499655,0.258481,0.183091,0.128793,0.11148,0.08752945,0.0688925,0.0548827,0.034916,0.0200601,0.01410135,0.009164855,0.007278175,0.005989955,0.004030705,0.00306639,0.00248848,0.002046655,0.001717415,0.684639,0.696958,0.894608,0.930113,1.40241,2.48727,1.97957,1.81851,1.96411,1.052,0.767056,0.922839,0.612417,0.495622,0.575506,0.544179,0.471589,0.438662,0.317887,0.207635,0.159991,0.137985,0.110858,0.0782513,0.0682619,0.037567,0.0231602,0.0169109,0.0124867,0.0102593,0.00766221,0.00530564,0.00385827,0.00289769,0.00238695,0.00200171,0.513318,0.532059,0.628163,0.634706,0.842785,0.917605,1.0683,1.32666,1.28618,0.703003,0.566425,0.581272,0.468703,0.291494,0.301214,0.330575,0.273965,0.287241,0.210018,0.145541,0.0888116,0.0580758,0.0412184,0.0424875,0.0489107,0.027692,0.0169873,0.0113826,0.00743236,0.00620958,0.00471704,0.00305075,0.00237932,0.0019321,0.00168069,0.00150324
1410,EMSC-20190525_0000090,2019-05-25T22:35:00,,,,,GR,40.0511,20.5214,28.8839,,SS,4.1,,4.35,,,,,,,,,,,,,,,,HP,ANX,,D,0,,,,GR,38.5933,21.9209,1020,,topography,,,,,,,10.77,832.4,201.8812201,142.8442976,,,,,D,0,E,90,N,0,Z,0.15,0.15,0.15,40,40,40,0.028301,-0.030126,0.025509,0.02950025,0.0349119,0.0243364,-0.002591,0.003591,-0.001775,0.00260733,0.00361301,0.00218518,0.000292,-0.000489,-0.00029,0.000377372,0.000493585,0.00218518,60.025,56.96,54.8,58.3475,60.025,56.935,0.00914151,0.0115434,0.00731794,0.010319369,0.011624767,0.009108103,0.357823365,0.39425474,0.254445145,0.375394072,0.406710375,0.347869923,4.26E-06,5.15E-06,2.14E-06,4.70E-06,5.42E-06,3.99E-06,0.028392,0.029134,0.029341,0.030044,0.037249,0.054005,0.073567,0.090392,0.062336,0.095172,0.112291,0.115556,0.105182,0.068076,0.052047,0.051969,0.051669,0.038526,0.033904,0.041772,0.030187,0.018231,0.010892,0.007676,0.006353,0.003422,0.00275,0.001641,0.00117,0.000888,0.000723,0.000501,0.000392,0.000257,0.000214,0.000181,0.030143,0.030544,0.031338,0.030457,0.036478,0.061114,0.053708,0.059905,0.081167,0.115351,0.129605,0.104464,0.093575,0.077575,0.059047,0.050092,0.053598,0.052793,0.064291,0.047608,0.038322,0.025342,0.013539,0.010608,0.00897,0.006278,0.004377,0.002076,0.001587,0.001208,0.000908,0.000865,0.000518,0.000439,0.000335,0.000257,0.025523,0.02668,0.030146,0.035828,0.058883,0.072397,0.050405,0.038978,0.044787,0.046943,0.055966,0.04835,0.039896,0.039476,0.036199,0.032781,0.039061,0.034815,0.029465,0.030566,0.030555,0.014847,0.010347,0.009341,0.00711,0.004722,0.002359,0.001692,0.001179,0.001147,0.0007,0.000756,0.000473,0.000365,0.000231,0.000178,0.0296701,0.0301147,0.03069625,0.03105345,0.0407199,0.05645575,0.0687061,0.0718124,0.0763826,0.09550665,0.1195295,0.1044705,0.09298495,0.06908955,0.0573481,0.0482501,0.0508234,0.0463377,0.0511486,0.04726065,0.03250915,0.02181245,0.0131862,0.00869095,0.00736044,0.00520792,0.00321569,0.001922035,0.001285125,0.001015178,0.000768481,0.000622209,0.000444241,0.000354838,0.00026149,0.000225088,0.0351522,0.0358397,0.0359486,0.0372809,0.0464987,0.0747685,0.0823879,0.0905838,0.0952692,0.119443,0.13127,0.129955,0.114971,0.0806683,0.0654085,0.052173,0.0574074,0.0596255,0.064785,0.0531801,0.0384807,0.0265008,0.0150591,0.0106262,0.00897938,0.00641835,0.00438916,0.00207595,0.00158833,0.00121172,0.000945207,0.000865511,0.000523415,0.000439441,0.000338132,0.00026539,0.0245603,0.0248951,0.0266308,0.028515,0.0354444,0.0466773,0.0492702,0.0580286,0.0590686,0.0849683,0.0949372,0.0897876,0.0783956,0.0583679,0.0509246,0.0380016,0.0400031,0.0358069,0.0292632,0.0392015,0.026165,0.0175129,0.00997395,0.00727626,0.0059704,0.00318233,0.00260723,0.00135179,0.000976331,0.000784407,0.000613553,0.000466518,0.000321765,0.000247982,0.00019762,0.000166209
1458,EMSC-20190921_0000067,2019-09-21T14:15:00,,,,,AL,41.3365,19.501,28.8,,TF,5.2,,5.14,,5.14,,5.14,,,,,,,,,,,,HI,KRK1,,D,0,,,,GR,39.618861,19.9202,10,,topography,,,,,,,1.41,387.2,194.0165169,169.306558,,,,,D,0,E,90,N,0,Z,0.1,0.1,0.1,40,40,40,1.369042,-1.796842,0.663387,1.58694,1.84262,1.2915,-0.060011,-0.07689,-0.037111,0.07034805,0.0772166,0.0588452,0.007024,0.006727,0.003965,0.00706428,0.00809023,0.0588452,35.86,38.675,41.25,37.4375,38.915,35.735,0.229279,0.197115,0.110306,0.217262237,0.229572464,0.194849583,10.78748746,11.82563646,5.634431396,11.38946977,12.02082345,10.50182577,0.005539857,0.006894151,0.001446302,0.006217004,0.007190709,0.0052433,1.36912,1.38384,1.4118,1.44051,1.55928,1.97892,3.64245,5.79915,4.57064,3.54409,3.77959,2.73149,2.97959,2.22538,1.60827,1.15837,1.09172,0.996098,0.594721,0.567411,0.485528,0.422935,0.326542,0.190479,0.139081,0.103837,0.069088,0.05121,0.042234,0.02561,0.018932,0.012947,0.010321,0.0086,0.006036,0.005401,1.79865,1.8149,1.86048,1.89907,1.99631,2.63251,3.6169,5.47116,9.07035,4.07102,2.99131,2.01726,2.8769,2.06809,1.889,1.50669,1.30026,0.93242,0.525809,0.380803,0.236556,0.217817,0.147085,0.156745,0.098971,0.064463,0.059861,0.041414,0.035522,0.025063,0.015601,0.010957,0.009825,0.007847,0.006333,0.005135,0.663392,0.67311,1.21101,0.997487,0.885514,1.31616,1.7762,2.71647,2.82709,3.10097,1.91889,1.15887,1.07937,0.810077,0.566972,0.478567,0.51736,0.458241,0.231411,0.235331,0.212859,0.178982,0.112531,0.111497,0.095831,0.085912,0.051578,0.028111,0.019339,0.018703,0.014882,0.00945,0.008653,0.005003,0.004285,0.003612,1.586995,1.605595,1.635705,1.676645,1.78547,2.12359,3.53056,5.46954,7.34696,3.86251,3.56446,2.36843,2.8132,2.21947,1.751155,1.254845,1.179985,0.9550625,0.6152775,0.455919,0.3918145,0.3357805,0.243399,0.17102,0.1213985,0.0915597,0.0610388,0.04405545,0.0373121,0.02618955,0.01616835,0.0118943,0.009836865,0.008539695,0.006412505,0.00570927,1.86814,1.87885,1.91821,1.95081,2.00125,2.63251,3.79009,5.84574,9.21396,4.99227,3.85099,2.7315,3.08223,2.41527,2.24378,1.55967,1.45856,1.18019,0.714534,0.580021,0.488208,0.450188,0.327275,0.214323,0.145127,0.104885,0.0701677,0.0512118,0.0428792,0.0278354,0.0193881,0.0129469,0.0125949,0.0102351,0.00865627,0.00680244,1.29238,1.30343,1.33334,1.35521,1.47271,1.97892,3.27896,5.04054,4.57064,2.68305,2.86472,1.87281,2.09307,1.92328,1.36507,0.883997,0.816337,0.624437,0.510124,0.362086,0.236557,0.217818,0.127898,0.148254,0.0989708,0.0622132,0.053881,0.038229,0.0312238,0.0247819,0.0141393,0.0107452,0.00946294,0.007618,0.00577265,0.00493426
1459,EMSC-20190921_0000067,2019-09-21T14:15:00,,,,,AL,41.3365,19.501,28.8,,TF,5.2,,5.14,,5.14,,5.14,,,,,,,,,,,,HI,LMS2,,D,0,,,,GR,40.834985,21.141815,923,,topography,,,,,,,2.32,451.3,148.6928416,111.4566882,,,,,D,0,E,90,N,0,Z,0.1,0.1,0.1,40,40,40,0.615268,-1.013725,0.226667,0.8293355,1.14707,0.615268,-0.059751,-0.049684,0.03199,0.05344815,0.0607339,0.0456978,-0.00901,0.005626,-0.010123,0.00714313,0.00901192,0.0456978,30.635,28.635,37.74,29.6425,31.495,27.455,0.171215,0.1537,0.115696,0.16499163,0.17316518,0.151876549,3.400301812,3.913131041,1.975053906,3.65748247,3.987744081,3.302300737,0.00075506,0.001150722,0.000193599,0.000952891,0.001187102,0.00071868,0.615893,0.620049,0.632367,0.637717,0.705705,0.944939,1.66342,2.05847,1.95585,2.10782,1.52075,1.76397,1.45849,0.774164,1.03384,0.866051,0.887543,0.854962,0.670648,0.742899,0.427183,0.314245,0.246402,0.207885,0.151713,0.093373,0.068441,0.044326,0.033292,0.030393,0.020192,0.012303,0.008653,0.007909,0.007031,0.005675,1.01375,1.02193,1.04264,1.05374,1.16165,1.47863,2.36248,2.04556,3.15302,2.97271,2.08542,1.98347,1.3501,1.0861,0.935735,0.807964,0.894345,0.821376,0.528334,0.432263,0.348308,0.291808,0.195924,0.157581,0.109505,0.06869,0.044681,0.027748,0.02348,0.017534,0.014632,0.014147,0.008485,0.00595,0.004836,0.00418,0.226768,0.22834,0.232943,0.244695,0.391954,0.455722,0.521431,0.557582,0.577805,0.607222,0.57352,0.50539,0.590495,0.521474,0.402438,0.47465,0.365866,0.305182,0.369053,0.339745,0.263519,0.298449,0.25536,0.195294,0.164711,0.09714,0.083929,0.06534,0.054888,0.045279,0.031471,0.016263,0.009496,0.007335,0.005825,0.004602,0.833002,0.8418395,0.85857,0.8693695,0.9624055,1.315785,2.111425,2.048485,2.727735,2.722055,2.105775,1.859425,1.41739,0.925303,0.938389,0.8474835,0.889896,0.822199,0.6218615,0.6328915,0.3882225,0.296104,0.2183525,0.178994,0.1283795,0.08769655,0.06006225,0.03725125,0.0281452,0.02445795,0.0173452,0.01322325,0.00888762,0.00722901,0.005803115,0.004976755,1.15568,1.16111,1.18812,1.194,1.30384,1.57314,2.42046,2.43678,3.15755,3.00787,2.39865,2.4038,1.84009,1.08713,1.13565,1.00811,0.931285,0.967747,0.825677,0.774918,0.490859,0.314764,0.278028,0.209853,0.166582,0.0982209,0.0798791,0.0473577,0.0342195,0.031565,0.0210713,0.0180397,0.0102393,0.00791487,0.00703786,0.0056903,0.615893,0.620049,0.632366,0.637716,0.705705,0.861632,1.66342,1.6582,1.29873,1.94849,1.45437,1.29667,0.795345,0.758557,0.675059,0.711328,0.689904,0.660642,0.422238,0.425875,0.263156,0.283324,0.172229,0.106321,0.10354,0.0525926,0.0341082,0.0277452,0.0218042,0.0175319,0.014274,0.0111369,0.00831128,0.00593611,0.00484045,0.00417547
1460,EMSC-20190921_0000067,2019-09-21T14:15:00,,,,,AL,41.3365,19.501,28.8,,TF,5.2,,5.14,,5.14,,5.14,,,,,,,,,,,,HL,JAN,0,D,0,,,,GR,39.65616,20.84874,526,,topography,,,,,,,2.53,466.6,218.7845012,148.0809393,,,,,D,0,E,90,N,0,Z,0.1,0.1,0.1,40,40,40,-0.296743,0.271913,0.153376,0.2687,0.318606,0.191956,-0.028245,-0.022141,-0.019439,0.0245441,0.0334941,0.0176095,-0.004425,-0.006372,0.004128,0.0055526,0.0065961,0.0176095,51.23,57.505,64.98,55.3275,60.51,49.98,0.124194,0.107195,0.076896,0.113956341,0.135546888,0.091731068,2.878379215,2.627106175,1.781556095,2.762676651,2.964067144,2.519690634,0.000286053,0.000214876,9.20E-05,0.000250464,0.000307138,0.000193791,0.296865,0.30075,0.304045,0.315521,0.328874,0.374708,0.4504,0.601622,0.964873,0.813223,0.745768,0.672194,0.77614,0.699354,0.614277,0.675461,0.536413,0.441574,0.476873,0.454872,0.320291,0.313545,0.252648,0.173891,0.141126,0.072685,0.062428,0.059123,0.030163,0.023266,0.020763,0.011564,0.006502,0.004657,0.004524,0.003964,0.272063,0.274064,0.281273,0.288723,0.290156,0.362494,0.487698,0.563336,0.648039,0.722816,0.672227,0.669593,0.542176,0.443267,0.561047,0.505281,0.500825,0.492015,0.399392,0.351322,0.313241,0.256215,0.169322,0.12459,0.118083,0.118203,0.067129,0.048622,0.045153,0.04409,0.026071,0.010933,0.009092,0.005621,0.003863,0.003176,0.153455,0.156446,0.167327,0.16943,0.191783,0.196017,0.248714,0.277524,0.339766,0.373031,0.476863,0.267366,0.30957,0.284465,0.3757,0.371308,0.461515,0.326387,0.274757,0.24653,0.165745,0.139467,0.171943,0.153814,0.121158,0.041577,0.040076,0.033965,0.026236,0.026719,0.019507,0.00985,0.006709,0.004833,0.002989,0.002511,0.2697915,0.2713395,0.2777585,0.285896,0.292755,0.3556685,0.4713435,0.564192,0.845605,0.7937795,0.7197305,0.728768,0.615345,0.5547045,0.5921845,0.5169225,0.497951,0.4809395,0.4537245,0.375098,0.3109435,0.287924,0.2108755,0.1504515,0.125811,0.09233505,0.06477815,0.05499775,0.03535545,0.03313165,0.02321655,0.0110726,0.00745059,0.005153155,0.004027255,0.003539755,0.320223,0.322816,0.333562,0.34081,0.356277,0.384709,0.536035,0.67434,1.06293,0.9376,0.894598,0.820639,0.795769,0.701549,0.644429,0.685243,0.58244,0.555951,0.480955,0.454872,0.381909,0.352977,0.291847,0.19824,0.16758,0.119446,0.0900656,0.067929,0.0470908,0.0466922,0.028411,0.0148149,0.00912199,0.00565415,0.00470956,0.00434222,0.197005,0.199562,0.214524,0.202874,0.220053,0.298863,0.345454,0.446692,0.64804,0.547655,0.617705,0.645708,0.524287,0.431696,0.383111,0.439151,0.422794,0.352797,0.342569,0.302723,0.218767,0.209284,0.12741,0.104785,0.0951059,0.0615567,0.0342489,0.0268809,0.0259365,0.0219433,0.0106999,0.00826484,0.00603188,0.00404001,0.00292468,0.00208527
1461,EMSC-20190921_0000067,2019-09-21T14:15:00,,,,,AL,41.3365,19.501,28.8,,TF,5.2,,5.14,,5.14,,5.14,,,,,,,,,,,,IV,MESG,,D,0,Free-field,Box,Pillar,IT,40.589408,17.850423,78,,geology,,S4_2007-2009_DiCapua_et_al_2011,,,,,0.14,244.5,161.8300458,239.7014701,,,,,D,0,E,90,N,0,Z,0.1,0.1,0.1,40,40,40,-0.549631,-0.54926,0.262043,0.5466305,0.605151,0.438043,-0.03519,0.030896,-0.02044,0.0302275,0.0364368,0.0261572,0.0057,0.008005,-0.007057,0.006420735,0.00869389,0.0261572,46.225,47.68,68.52,47.235,49.455,44.395,0.139059,0.138707,0.0938639,0.138882911,0.145160873,0.130037957,4.96140494,4.6919775,3.070797596,4.829322466,5.073848496,4.572399477,0.000969866,0.000855307,0.000301793,0.000912587,0.001044933,0.00078024,0.552852,0.576307,0.597404,0.648697,0.79002,1.32194,1.46417,1.30353,1.6254,1.46593,1.1454,1.16932,0.894635,0.879751,0.950382,1.06816,0.77838,0.645984,0.518212,0.409993,0.279768,0.250451,0.232587,0.23216,0.129214,0.074668,0.06377,0.032986,0.029993,0.029526,0.019693,0.014513,0.008896,0.006477,0.004052,0.003233,0.552896,0.565365,0.573586,0.565583,0.71996,1.09493,1.89276,1.19086,1.43361,1.48523,1.32479,0.796755,0.865016,0.694834,0.797744,0.719625,0.784981,0.678519,0.58859,0.405576,0.296678,0.203335,0.222148,0.19911,0.155963,0.088737,0.065621,0.051609,0.038633,0.039817,0.024072,0.014574,0.009066,0.00642,0.005078,0.004536,0.262922,0.277944,0.319717,0.417459,0.673187,0.529291,0.798753,0.674554,0.739518,0.8964,0.537893,0.458824,0.526526,0.589298,0.39603,0.357026,0.329941,0.248537,0.212421,0.205544,0.229173,0.183893,0.160364,0.156975,0.123693,0.111475,0.074887,0.034802,0.035783,0.0287,0.021331,0.015214,0.008573,0.005446,0.004179,0.003556,0.5500385,0.566403,0.5917885,0.613477,0.805765,1.18399,1.71059,1.261905,1.63095,1.44526,1.222725,0.929097,0.868253,0.747296,0.828726,0.8916045,0.8610775,0.637402,0.5761655,0.4077845,0.321724,0.2422945,0.2273675,0.1980335,0.1294905,0.0893811,0.0647008,0.0426477,0.0347101,0.0310633,0.0229059,0.013809,0.00897043,0.006546185,0.00468714,0.00356629,0.613774,0.618293,0.678951,0.719864,0.854959,1.50079,1.95619,1.52497,1.7734,1.59522,1.39141,1.16932,0.995695,0.934417,0.950381,1.07346,0.903474,0.701755,0.664735,0.46532,0.34873,0.296166,0.321369,0.23249,0.155971,0.0966905,0.074353,0.0529722,0.0412381,0.0438752,0.0248826,0.0148106,0.0106915,0.00763099,0.00543953,0.00477568,0.43805,0.446614,0.48542,0.480896,0.694334,1.03594,1.21177,1.16397,1.37593,1.06001,0.788083,0.758019,0.641684,0.610767,0.738783,0.7067,0.749818,0.584387,0.471361,0.34474,0.279768,0.199781,0.15651,0.162782,0.11417,0.0675785,0.0484346,0.0316687,0.0268657,0.0243164,0.0181123,0.0115462,0.00687994,0.00579024,0.00375709,0.00271702
