,esm_event_id,event_time,isc_event_id,usgs_event_id,ingv_event_id,emsc_event_id,ev_nation_code,ev_latitude,ev_longitude,ev_depth_km,ev_hyp_ref,fm_type_code,ml,ml_ref,mw,mw_ref,ms,ms_ref,emec_mw,emec_mw_type,emec_mw_ref,es_strike,es_dip,es_rake,es_strike_dip_rake_ref,z_top,es_z_top_ref,es_length,es_width,es_geometry_ref,network_code,station_code,location_code,instrument_code,sensor_depth_m,proximity,hounsing,installation,st_nation_code,st_latitude,st_longitude,st_elevation,ec8_code,ec8_code_method,ec8_code_from_topography,ec8_code_ref,vs30_m_s,vs30_ref,vs30_calc_method,vs30_meas_type,slope_deg,vs30_m_s_wa,epi_dist,epi_az,jb_dist,rup_dist,rx_dist,ry0_dist,instrument_type_code,late_triggered_event_01,u_channel_code,u_azimuth_deg,v_channel_code,v_azimuth_deg,w_channel_code,u_hp,v_hp,w_hp,u_lp,v_lp,w_lp,u_pga,v_pga,w_pga,rotd50_pga,rotd100_pga,rotd00_pga,u_pgv,v_pgv,w_pgv,rotd50_pgv,rotd100_pgv,rotd00_pgv,u_pgd,v_pgd,w_pgd,rotd50_pgd,rotd100_pgd,rotd00_pgd,u_t90,v_t90,w_t90,rotd50_t90,rotd100_t90,rot_d00_t90,u_housner,v_housner,w_housner,rotd50_housner,rotd100_housner,rotd00_housner,u_cav,v_cav,w_cav,rotd50_cav,rotd100_cav,rotd00_cav,u_ia,v_ia,w_ia,rotd50_ia,rotd100_ia,rotd00_ia,u_t0_010,u_t0_025,u_t0_040,u_t0_050,u_t0_070,u_t0_100,u_t0_150,u_t0_200,u_t0_250,u_t0_300,u_t0_350,u_t0_400,u_t0_450,u_t0_500,u_t0_600,u_t0_700,u_t0_750,u_t0_800,u_t0_900,u_t1_000,u_t1_200,u_t1_400,u_t1_600,u_t1_800,u_t2_000,u_t2_500,u_t3_000,u_t3_500,u_t4_000,u_t4_500,u_t5_000,u_t6_000,u_t7_000,u_t8_000,u_t9_000,u_t10_000,v_t0_010,v_t0_025,v_t0_040,v_t0_050,v_t0_070,v_t0_100,v_t0_150,v_t0_200,v_t0_250,v_t0_300,v_t0_350,v_t0_400,v_t0_450,v_t0_500,v_t0_600,v_t0_700,v_t0_750,v_t0_800,v_t0_900,v_t1_000,v_t1_200,v_t1_400,v_t1_600,v_t1_800,v_t2_000,v_t2_500,v_t3_000,v_t3_500,v_t4_000,v_t4_500,v_t5_000,v_t6_000,v_t7_000,v_t8_000,v_t9_000,v_t10_000,w_t0_010,w_t0_025,w_t0_040,w_t0_050,w_t0_070,w_t0_100,w_t0_150,w_t0_200,w_t0_250,w_t0_300,w_t0_350,w_t0_400,w_t0_450,w_t0_500,w_t0_600,w_t0_700,w_t0_750,w_t0_800,w_t0_900,w_t1_000,w_t1_200,w_t1_400,w_t1_600,w_t1_800,w_t2_000,w_t2_500,w_t3_000,w_t3_500,w_t4_000,w_t4_500,w_t5_000,w_t6_000,w_t7_000,w_t8_000,w_t9_000,w_t10_000,rotd50_t0_010,rotd50_t0_025,rotd50_t0_040,rotd50_t0_050,rotd50_t0_070,rotd50_t0_100,rotd50_t0_150,rotd50_t0_200,rotd50_t0_250,rotd50_t0_300,rotd50_t0_350,rotd50_t0_400,rotd50_t0_450,rotd50_t0_500,rotd50_t0_600,rotd50_t0_700,rotd50_t0_750,rotd50_t0_800,rotd50_t0_900,rotd50_t1_000,rotd50_t1_200,rotd50_t1_400,rotd50_t1_600,rotd50_t1_800,rotd50_t2_000,rotd50_t2_500,rotd50_t3_000,rotd50_t3_500,rotd50_t4_000,rotd50_t4_500,rotd50_t5_000,rotd50_t6_000,rotd50_t7_000,rotd50_t8_000,rotd50_t9_000,rotd50_t10_000,rotd100_t0_010,rotd100_t0_025,rotd100_t0_040,rotd100_t0_050,rotd100_t0_070,rotd100_t0_100,rotd100_t0_150,rotd100_t0_200,rotd100_t0_250,rotd100_t0_300,rotd100_t0_350,rotd100_t0_400,rotd100_t0_450,rotd100_t0_500,rotd100_t0_600,rotd100_t0_700,rotd100_t0_750,rotd100_t0_800,rotd100_t0_900,rotd100_t1_000,rotd100_t1_200,rotd100_t1_400,rotd100_t1_600,rotd100_t1_800,rotd100_t2_000,rotd100_t2_500,rotd100_t3_000,rotd100_t3_500,rotd100_t4_000,rotd100_t4_500,rotd100_t5_000,rotd100_t6_000,rotd100_t7_000,rotd100_t8_000,rotd100_t9_000,rotd100_t10_000,rotd00_t0_010,rotd00_t0_025,rotd00_t0_040,rotd00_t0_050,rotd00_t0_070,rotd00_t0_100,rotd00_t0_150,rotd00_t0_200,rotd00_t0_250,rotd00_t0_300,rotd00_t0_350,rotd00_t0_400,rotd00_t0_450,rotd00_t0_500,rotd00_t0_600,rotd00_t0_700,rotd00_t0_750,rotd00_t0_800,rotd00_t0_900,rotd00_t1_000,rotd00_t1_200,rotd00_t1_400,rotd00_t1_600,rotd00_t1_800,rotd00_t2_000,rotd00_t2_500,rotd00_t3_000,rotd00_t3_500,rotd00_t4_000,rotd00_t4_500,rotd00_t5_000,rotd00_t6_000,rotd00_t7_000,rotd00_t8_000,rotd00_t9_000,rotd00_t10_000
1475,EMSC-20190922_0000105,2019-09-22T20:08:00,,,,,AL,41.4099,19.6933,25.7175,,SS,,,4.3,,,,,,,,,,,,,,,,HI,LMS2,,D,0,,,,GR,40.834985,21.141815,923,,topography,,,,,,,2.32,451.3,137.380413,117.2159242,,,,,D,0,E,90,N,0,Z,0.15,0.15,0.15,40,40,40,0.182202,-0.23811,-0.059337,0.1975285,0.238714,0.134763,0.006736,0.007531,-0.002783,0.00700342,0.00757697,0.00458745,0.000369,0.000341,0.000255,0.00035907,0.000401586,0.00458745,26.66,23.79,30.34,25.3025,27.965,23.59,0.0114174,0.0140945,0.00641268,0.013096384,0.014308216,0.011019692,0.7067858,0.940371755,0.3331935,0.835099861,0.968890077,0.67546956,3.55E-05,6.90E-05,6.29E-06,5.23E-05,7.36E-05,3.10E-05,0.182824,0.184818,0.192204,0.193559,0.231163,0.303007,0.541987,0.612913,0.362044,0.329496,0.185468,0.143743,0.180639,0.122004,0.05959,0.040304,0.037005,0.040106,0.032345,0.019358,0.015783,0.012268,0.010921,0.009058,0.00778,0.004959,0.002842,0.002187,0.001473,0.001179,0.001062,0.000721,0.00064,0.00051,0.000442,0.000418,0.238305,0.243423,0.255707,0.267011,0.311234,0.525646,0.918628,0.526614,0.477515,0.45328,0.266855,0.190107,0.144608,0.146846,0.128669,0.073303,0.067441,0.059343,0.046797,0.043479,0.016134,0.010819,0.007951,0.006745,0.00441,0.003299,0.00239,0.001843,0.001459,0.001374,0.001104,0.000872,0.000741,0.000598,0.000519,0.000483,0.059494,0.061142,0.060937,0.062836,0.107247,0.125007,0.12976,0.12535,0.187588,0.146094,0.104982,0.0686,0.081439,0.055635,0.033481,0.022904,0.025526,0.022447,0.021079,0.014959,0.012185,0.012855,0.008744,0.006263,0.004824,0.002824,0.001945,0.001379,0.00092,0.000769,0.000575,0.000431,0.000307,0.00028,0.000236,0.000208,0.199076,0.2006345,0.2104425,0.2198585,0.29039,0.3740325,0.697043,0.5655635,0.431058,0.380983,0.228502,0.185283,0.1525115,0.129802,0.118601,0.05953935,0.0498611,0.0529277,0.0357759,0.03087605,0.0161336,0.01228315,0.01065315,0.008148465,0.00598315,0.00373077,0.00266837,0.00199427,0.001484565,0.001347235,0.00111735,0.000850461,0.000728609,0.000584657,0.00050871,0.00046279,0.239283,0.244445,0.256941,0.268115,0.325168,0.528962,0.918628,0.71827,0.577337,0.528293,0.275261,0.201464,0.180828,0.15676,0.133584,0.0744454,0.0674407,0.0593429,0.0475469,0.0434787,0.0179558,0.0149157,0.0119466,0.00905794,0.00782072,0.00506911,0.00300468,0.00247509,0.00170998,0.00150607,0.00133576,0.000931136,0.000871283,0.000679788,0.000566674,0.000496562,0.134794,0.136114,0.143791,0.154083,0.174469,0.252944,0.444681,0.425998,0.344393,0.230945,0.169283,0.135619,0.11548,0.096216,0.0595898,0.0378923,0.0329889,0.0375392,0.0315441,0.018731,0.013247,0.00968898,0.00630347,0.00524486,0.00440974,0.003246,0.00211327,0.0016105,0.00108061,0.000979023,0.000783956,0.000584532,0.000490269,0.000403754,0.000362176,0.000314948
1476,EMSC-20190922_0000105,2019-09-22T20:08:00,,,,,AL,41.4099,19.6933,25.7175,,SS,,,4.3,,,,,,,,,,,,,,,,MN,PDG,,D,5,,,,ME,42.4297,19.2608,40,,geology,,S4_2007-2009_DiCapua_et_al_2011,,,,,1.21,372.7,118.8167234,342.5688962,,,,,D,0,E,90,N,0,Z,0.15,0.15,0.15,40,40,40,0.057521,-0.047136,0.041179,0.0488602,0.0577188,0.0446269,-0.002992,-0.003042,0.002107,0.00291127,0.00304229,0.00258186,0.000513,-0.000282,-0.000352,0.000388204,0.000528782,0.00258186,37.145,39.355,39.085,38.3425,39.355,37.145,0.0121282,0.00860556,0.00846747,0.010381593,0.012203646,0.008283297,0.39083613,0.3733247,0.36125269,0.381362241,0.410490941,0.359819032,7.09E-06,6.43E-06,5.64E-06,6.76E-06,7.64E-06,5.88E-06,0.057591,0.060719,0.069318,0.072649,0.090755,0.149873,0.117588,0.111254,0.094063,0.08124,0.095716,0.107974,0.094601,0.106641,0.096477,0.062827,0.056746,0.057549,0.054036,0.041778,0.021843,0.016931,0.021304,0.020235,0.012951,0.006371,0.00573,0.004237,0.00259,0.002088,0.001559,0.000917,0.000648,0.000439,0.000391,0.000293,0.047359,0.048663,0.057001,0.071137,0.110314,0.170329,0.110798,0.101693,0.092744,0.116704,0.110607,0.103209,0.087614,0.098105,0.073829,0.044704,0.042576,0.03918,0.033851,0.028686,0.021228,0.00825,0.009698,0.011107,0.006979,0.004155,0.003318,0.002618,0.001487,0.001116,0.000845,0.000436,0.00034,0.000277,0.000279,0.000228,0.041454,0.043678,0.046988,0.060106,0.080657,0.122049,0.120864,0.143198,0.100422,0.09346,0.091037,0.086071,0.076435,0.059623,0.039417,0.055386,0.054187,0.041285,0.030012,0.025908,0.021177,0.016387,0.012583,0.009666,0.00666,0.005181,0.003068,0.00148,0.001188,0.001063,0.000866,0.000594,0.00039,0.000296,0.000244,0.000214,0.04967125,0.0513713,0.06020555,0.07234785,0.09787975,0.1520285,0.116697,0.1092595,0.0961288,0.09391135,0.1049295,0.10694,0.09018535,0.10272695,0.07952335,0.0507235,0.0488503,0.04552755,0.04324975,0.0358622,0.02153555,0.0132731,0.01675045,0.01555365,0.010021155,0.005551255,0.0047126,0.00332415,0.00215267,0.001709465,0.001269685,0.000708771,0.00050438,0.00035955,0.000328865,0.000252685,0.058134,0.0612876,0.0702439,0.0770772,0.131116,0.185657,0.130542,0.124379,0.0997033,0.116705,0.1272,0.12847,0.109797,0.133512,0.0989206,0.0640887,0.0598452,0.0586051,0.0540363,0.0421413,0.0271814,0.0178141,0.0224339,0.0207489,0.0132411,0.00641585,0.0063794,0.00457116,0.0029157,0.00225018,0.00166865,0.000935571,0.000659946,0.000447937,0.000407064,0.000304196,0.0448583,0.0475973,0.0539506,0.0665823,0.0820508,0.115453,0.106438,0.0976507,0.0871476,0.0698969,0.0885119,0.0768009,0.0644491,0.0558267,0.0651632,0.0438528,0.0379492,0.0287381,0.0326161,0.0220837,0.0130599,0.00767266,0.00712591,0.0070703,0.00697899,0.00356365,0.00286165,0.00171735,0.0012393,0.000895782,0.000731046,0.000429065,0.000335355,0.000272219,0.000252938,0.000205922
1527,EMSC-20191127_0000104,2019-11-27T14:45:00,,,,,AL,41.5643,19.5197,25,,TF,5.4,,5.37,,5.37,,5.37,,,,,,,,,,,,AC,TIR1,0,D,,Inside structure,Building,Pillar,AL,41.3357,19.8078,150,C,vs_profile,,,311,AC,,MASW,1.2,372.2,34.98769463,136.4276574,,,,,D,0,E,90,N,0,Z,0.1,0.1,0.1,40,40,40,-13.066067,-9.106787,5.078889,10.104115,13.1229,8.50797,0.532236,0.496733,-0.27035,0.5313475,0.57658,0.466764,0.066612,0.097578,0.053105,0.0931497,0.107721,0.466764,22.17,21.76,26.25,21.8575,22.71,20.815,2.16378,2.51581,1.205,2.312222413,2.534839207,2.108304741,44.46354149,49.29201207,27.28910098,47.23331185,50.96140872,43.72370444,0.154004201,0.175360266,0.047166602,0.164682233,0.183140604,0.146223883,13.1217,13.4601,13.1905,14.5043,15.4831,21.2916,29.9208,33.1579,40.7033,30.122,19.6154,17.538,15.951,13.7795,11.0081,9.58767,10.0835,8.61674,9.47109,8.03791,6.44194,5.40727,2.9483,2.23421,1.65554,1.08436,0.611739,0.397953,0.319343,0.287263,0.182353,0.121054,0.094417,0.063294,0.044436,0.035298,9.17142,9.80601,9.16394,10.7822,15.8468,27.5146,29.7616,23.8681,26.8964,31.5196,23.8036,20.1913,24.1817,18.6565,18.5344,9.51598,11.6034,13.9951,13.0128,11.9692,6.8806,3.93717,2.8166,2.3251,1.80149,1.46243,1.04177,0.718919,0.506468,0.391745,0.240129,0.150336,0.105562,0.079371,0.066283,0.0562,5.09868,5.24287,7.52287,9.7585,11.1185,14.8619,13.5939,18.5051,10.4338,9.15577,6.34201,6.05674,6.26116,9.63715,5.92337,7.27784,8.37881,6.93902,4.30504,4.28995,2.34184,2.36202,1.93731,1.58787,1.23993,0.766999,0.487795,0.437646,0.260802,0.20966,0.167839,0.117871,0.074678,0.060175,0.045312,0.034144,10.30665,10.3114,11.1837,11.82575,14.5559,25.0623,29.8412,29.11345,35.94575,30.8924,22.5856,20.0791,18.1184,15.0851,13.85735,10.15865,10.1215,11.89915,10.312,9.706665,6.355015,4.45475,2.926075,2.25106,1.74746,1.22325,0.873366,0.6080795,0.407538,0.323622,0.2207895,0.130335,0.10108075,0.081932,0.0650191,0.0514833,13.171,13.5481,13.2852,14.6825,16.1656,29.9827,34.4213,34.8457,40.7033,37.0431,25.3677,21.7353,24.1817,19.0277,19.2039,12.2556,11.7673,14.1795,13.1914,12.8281,7.18629,5.82635,3.73545,2.45898,2.42827,1.47133,1.05122,0.763631,0.513372,0.391756,0.252722,0.150375,0.110349,0.0890495,0.0728463,0.0610377,8.76642,8.77963,9.16395,10.0724,12.5113,17.3748,26.0278,22.365,25.7455,26.1105,19.3873,16.359,14.6867,12.4938,10.7809,9.22786,8.60352,8.61674,7.76202,7.15139,4.49132,3.67921,2.37526,2.01001,1.35908,0.858727,0.611739,0.364702,0.264676,0.232004,0.15304,0.104612,0.0816683,0.0603469,0.0426141,0.0352774
1528,EMSC-20191127_0000104,2019-11-27T14:45:00,,,,,AL,41.5643,19.5197,25,,TF,5.4,,5.37,,5.37,,5.37,,,,,,,,,,,,HI,KRK1,,D,0,,,,GR,39.618861,19.9202,10,,topography,,,,,,,1.41,387.2,218.676613,170.9502488,,,,,D,0,E,90,N,0,Z,0.1,0.1,0.1,40,40,40,0.810038,0.956479,-0.409458,0.912569,0.985446,0.801258,-0.035033,-0.037946,-0.016494,0.0352707,0.0385221,0.0338847,0.006513,-0.004179,0.003023,0.005822275,0.00653076,0.0338847,40.725,43.085,47.005,41.92,43.42,40.31,0.129534,0.113344,0.0570176,0.123754896,0.131337041,0.113343853,7.706949361,7.887356959,4.111434216,7.772223567,7.952379771,7.7066488,0.002407596,0.002578237,0.00061637,0.002492916,0.002578237,0.002407596,0.810565,0.824806,0.842337,0.880893,1.016,1.63643,2.16805,4.26872,2.66752,1.89323,1.66037,1.71392,1.95697,1.03772,0.836586,0.633068,0.781294,0.623107,0.397077,0.362373,0.234184,0.203503,0.159925,0.096429,0.096418,0.078699,0.061118,0.035906,0.041797,0.03757,0.024386,0.016848,0.01391,0.01119,0.007342,0.005881,0.959163,0.969469,1.00083,0.998166,1.05867,1.68775,3.1989,3.61895,3.81112,2.15054,1.98548,1.57171,1.48261,1.22474,0.800106,0.534158,0.473829,0.392883,0.374631,0.317972,0.142757,0.146971,0.129593,0.087533,0.063183,0.051663,0.033159,0.031277,0.022795,0.021879,0.013834,0.01114,0.009033,0.005872,0.003963,0.003575,0.411545,0.423765,0.470091,0.507308,0.757256,1.20188,1.19041,1.55204,1.40881,1.04522,0.721639,0.653315,0.348857,0.425609,0.255336,0.27083,0.270289,0.230768,0.152051,0.106633,0.092224,0.095455,0.089962,0.054293,0.066051,0.044906,0.04084,0.030116,0.025746,0.022322,0.012197,0.012369,0.007547,0.004627,0.003222,0.00278,0.9172745,0.927245,0.957638,0.971223,1.064075,1.66209,2.726425,3.84065,3.335595,1.872055,2.12217,1.817845,1.710315,1.177385,0.8325,0.610024,0.5907705,0.508738,0.3846645,0.3643025,0.178705,0.1659595,0.1290795,0.1042015,0.0844612,0.0657306,0.05296085,0.03289025,0.0356431,0.0336878,0.02271845,0.01517175,0.01058955,0.008553835,0.00623578,0.004632775,0.989148,1.00365,1.0364,1.06423,1.12096,1.88712,3.20111,4.57018,4.03502,2.20549,2.42787,1.9719,2.01696,1.38682,0.974137,0.652752,0.781293,0.644652,0.405691,0.392399,0.234184,0.207939,0.159925,0.107334,0.102778,0.0796443,0.0633574,0.0413289,0.0434161,0.0389813,0.0264411,0.0169447,0.0139131,0.0111871,0.007391,0.00589645,0.804242,0.814357,0.834222,0.842481,0.94766,1.48515,2.07749,3.0053,2.63015,1.70576,1.66037,1.53257,1.22991,0.887738,0.675226,0.504227,0.462107,0.382679,0.358541,0.306038,0.14232,0.139835,0.110416,0.087365,0.0631834,0.0500361,0.0307881,0.0290753,0.0180074,0.0184809,0.0132765,0.00907469,0.00845891,0.00507779,0.00396119,0.0035099
1529,EMSC-20191127_0000104,2019-11-27T14:45:00,,,,,AL,41.5643,19.5197,25,,TF,5.4,,5.37,,5.37,,5.37,,,,,,,,,,,,HI,LMS2,,D,0,,,,GR,40.834985,21.141815,923,,topography,,,,,,,2.32,451.3,158.3429899,120.2282968,,,,,D,0,E,90,N,0,Z,0.05,0.05,0.05,40,40,40,0.573037,0.641475,0.220601,0.614181,0.69783,0.47392,0.039998,0.062985,-0.023945,0.04592915,0.0630942,0.0379207,-0.011759,0.012747,0.012325,0.0126411,0.0158117,0.0379207,33.64,30.685,41.865,31.435,33.81,30.255,0.138062,0.197484,0.1186,0.167531571,0.198132362,0.137265051,3.430901821,4.384535071,1.903962921,3.954629974,4.391171733,3.430383946,0.000631823,0.001110841,0.000162069,0.000871332,0.001110841,0.000631823,0.574599,0.583235,0.59396,0.610414,0.630569,0.715041,1.83061,1.81017,1.17398,1.2726,1.26437,1.29592,1.2812,1.1115,0.701453,0.695612,0.640228,0.740938,0.750807,0.530689,0.347317,0.225422,0.149497,0.128462,0.122138,0.094004,0.066119,0.069395,0.057225,0.041786,0.031086,0.01988,0.015423,0.012217,0.011307,0.010789,0.641922,0.654147,0.680473,0.70245,0.856321,1.51025,2.72476,1.99916,1.41274,1.59363,1.36904,1.78325,2.03337,1.31834,1.47707,0.770772,0.681653,0.552424,0.781351,0.619824,0.300963,0.244352,0.342808,0.335326,0.276552,0.141122,0.080625,0.057169,0.046597,0.037733,0.026957,0.01859,0.013456,0.009262,0.00859,0.008257,0.221054,0.223444,0.228603,0.225815,0.310551,0.395437,0.716091,0.515432,0.485784,0.555237,0.459807,0.480308,0.72541,0.776357,0.418641,0.278893,0.292998,0.279351,0.432556,0.393142,0.221346,0.181233,0.224433,0.253105,0.244539,0.094262,0.050872,0.048956,0.055608,0.048073,0.053003,0.031388,0.020356,0.020058,0.016177,0.012859,0.617416,0.626904,0.6444315,0.655345,0.7285915,1.11839,2.144435,1.81004,1.294655,1.516765,1.287505,1.478225,1.603765,1.109345,1.158825,0.702796,0.6338635,0.658916,0.7692085,0.528497,0.3245005,0.2446665,0.2522685,0.250595,0.2158145,0.1201725,0.06607285,0.06166715,0.0519928,0.0404286,0.02909055,0.0186326,0.0136279,0.01087825,0.009878655,0.009029865,0.710187,0.719899,0.745962,0.769745,0.964795,1.5643,2.87836,2.19854,1.62916,1.838,1.54101,1.86671,2.07369,1.31834,1.53832,0.810391,0.718555,0.80605,0.846512,0.653264,0.361103,0.278592,0.344554,0.337081,0.28278,0.144376,0.0831322,0.0777422,0.0714064,0.0509338,0.0353927,0.0199033,0.0156951,0.0126748,0.0113577,0.0109427,0.477587,0.483717,0.500861,0.514723,0.553598,0.715041,1.46062,1.72494,0.967514,1.24336,1.15909,0.997452,1.17926,1.00585,0.593502,0.525651,0.527168,0.451658,0.524078,0.465047,0.295691,0.177341,0.149497,0.0971005,0.0896578,0.0639061,0.053328,0.046165,0.0298512,0.0299518,0.0261589,0.0157111,0.010969,0.00907773,0.00761579,0.0064078
1530,EMSC-20191127_0000104,2019-11-27T14:45:00,,,,,AL,41.5643,19.5197,25,,TF,5.4,,5.37,,5.37,,5.37,,,,,,,,,,,,HL,JAN,0,D,0,,,,GR,39.65616,20.84874,526,,topography,,,,,,,2.53,466.6,239.8852115,151.6052962,,,,,D,0,E,90,N,0,Z,0.1,0.1,0.1,40,40,40,0.239327,0.172308,0.115464,0.2033135,0.239327,0.15641,-0.021942,0.01384,-0.015286,0.01852055,0.0226373,0.0134425,-0.006615,0.004185,0.004906,0.006084425,0.00687054,0.0134425,47.565,61.355,60.305,53.8625,61.355,46.945,0.128722,0.0707141,0.0773483,0.103718309,0.129618644,0.066592593,2.146564325,2.05831244,1.438460975,2.098742695,2.27658303,1.948318876,0.000166939,0.000128054,6.31E-05,0.000147496,0.00017545,0.000119542,0.239817,0.241958,0.266694,0.277647,0.277334,0.340054,0.428032,0.400169,0.606297,0.626914,0.630025,0.6809,0.721899,0.603914,0.406483,0.31581,0.306069,0.325486,0.421139,0.301687,0.42851,0.388342,0.318787,0.281794,0.154025,0.093113,0.073901,0.043508,0.033558,0.019355,0.019305,0.016047,0.010788,0.006434,0.003791,0.003494,0.172411,0.176725,0.194985,0.177104,0.240291,0.275103,0.424085,0.364089,0.385114,0.543867,0.606177,0.415064,0.377177,0.340338,0.34385,0.309446,0.365223,0.280108,0.240056,0.188504,0.176654,0.131091,0.144032,0.107524,0.075281,0.084311,0.058276,0.03436,0.029641,0.028147,0.016006,0.012567,0.008702,0.004971,0.003189,0.002679,0.115643,0.116918,0.117716,0.120015,0.131419,0.20107,0.266008,0.268393,0.319492,0.232094,0.289983,0.233005,0.214088,0.269788,0.233453,0.245128,0.261766,0.294763,0.207115,0.177913,0.199748,0.170096,0.163748,0.174607,0.160883,0.061519,0.038956,0.048094,0.039721,0.025098,0.018193,0.012754,0.007177,0.00478,0.003358,0.002586,0.2068125,0.2097305,0.2137395,0.2194355,0.244712,0.313999,0.4070505,0.3872785,0.4874035,0.5788305,0.597828,0.618823,0.561052,0.482515,0.3740675,0.3085885,0.328071,0.3131975,0.3488645,0.2557955,0.3181205,0.291659,0.2455255,0.2016095,0.123146,0.08320185,0.0657668,0.0382369,0.029694,0.02665195,0.01703095,0.0133648,0.00869448,0.006234085,0.00394909,0.003344185,0.239817,0.241958,0.267133,0.279734,0.279914,0.340055,0.446028,0.405813,0.639037,0.681992,0.636146,0.684332,0.774866,0.613981,0.426804,0.341622,0.378263,0.347034,0.447193,0.34458,0.443283,0.390276,0.319583,0.281794,0.159639,0.0953427,0.0893128,0.0467163,0.0351365,0.0324053,0.0193268,0.0160452,0.0108151,0.00672452,0.00444703,0.00367758,0.157832,0.16196,0.185957,0.164163,0.197147,0.271555,0.302765,0.323889,0.36422,0.524749,0.54704,0.415063,0.33319,0.312293,0.273746,0.239532,0.259266,0.220539,0.217466,0.15515,0.111035,0.12128,0.135987,0.098341,0.0671586,0.0760392,0.0344252,0.0259391,0.0218478,0.0181014,0.0156363,0.0112491,0.00781676,0.00458696,0.00316283,0.00249622
