,esm_event_id,event_time,isc_event_id,usgs_event_id,ingv_event_id,emsc_event_id,ev_nation_code,ev_latitude,ev_longitude,ev_depth_km,ev_hyp_ref,fm_type_code,ml,ml_ref,mw,mw_ref,ms,ms_ref,emec_mw,emec_mw_type,emec_mw_ref,es_strike,es_dip,es_rake,es_strike_dip_rake_ref,z_top,es_z_top_ref,es_length,es_width,es_geometry_ref,network_code,station_code,location_code,instrument_code,sensor_depth_m,proximity,hounsing,installation,st_nation_code,st_latitude,st_longitude,st_elevation,ec8_code,ec8_code_method,ec8_code_from_topography,ec8_code_ref,vs30_m_s,vs30_ref,vs30_calc_method,vs30_meas_type,slope_deg,vs30_m_s_wa,epi_dist,epi_az,jb_dist,rup_dist,rx_dist,ry0_dist,instrument_type_code,late_triggered_event_01,u_channel_code,u_azimuth_deg,v_channel_code,v_azimuth_deg,w_channel_code,u_hp,v_hp,w_hp,u_lp,v_lp,w_lp,u_pga,v_pga,w_pga,rotd50_pga,rotd100_pga,rotd00_pga,u_pgv,v_pgv,w_pgv,rotd50_pgv,rotd100_pgv,rotd00_pgv,u_pgd,v_pgd,w_pgd,rotd50_pgd,rotd100_pgd,rotd00_pgd,u_t90,v_t90,w_t90,rotd50_t90,rotd100_t90,rot_d00_t90,u_housner,v_housner,w_housner,rotd50_housner,rotd100_housner,rotd00_housner,u_cav,v_cav,w_cav,rotd50_cav,rotd100_cav,rotd00_cav,u_ia,v_ia,w_ia,rotd50_ia,rotd100_ia,rotd00_ia,u_t0_010,u_t0_025,u_t0_040,u_t0_050,u_t0_070,u_t0_100,u_t0_150,u_t0_200,u_t0_250,u_t0_300,u_t0_350,u_t0_400,u_t0_450,u_t0_500,u_t0_600,u_t0_700,u_t0_750,u_t0_800,u_t0_900,u_t1_000,u_t1_200,u_t1_400,u_t1_600,u_t1_800,u_t2_000,u_t2_500,u_t3_000,u_t3_500,u_t4_000,u_t4_500,u_t5_000,u_t6_000,u_t7_000,u_t8_000,u_t9_000,u_t10_000,v_t0_010,v_t0_025,v_t0_040,v_t0_050,v_t0_070,v_t0_100,v_t0_150,v_t0_200,v_t0_250,v_t0_300,v_t0_350,v_t0_400,v_t0_450,v_t0_500,v_t0_600,v_t0_700,v_t0_750,v_t0_800,v_t0_900,v_t1_000,v_t1_200,v_t1_400,v_t1_600,v_t1_800,v_t2_000,v_t2_500,v_t3_000,v_t3_500,v_t4_000,v_t4_500,v_t5_000,v_t6_000,v_t7_000,v_t8_000,v_t9_000,v_t10_000,w_t0_010,w_t0_025,w_t0_040,w_t0_050,w_t0_070,w_t0_100,w_t0_150,w_t0_200,w_t0_250,w_t0_300,w_t0_350,w_t0_400,w_t0_450,w_t0_500,w_t0_600,w_t0_700,w_t0_750,w_t0_800,w_t0_900,w_t1_000,w_t1_200,w_t1_400,w_t1_600,w_t1_800,w_t2_000,w_t2_500,w_t3_000,w_t3_500,w_t4_000,w_t4_500,w_t5_000,w_t6_000,w_t7_000,w_t8_000,w_t9_000,w_t10_000,rotd50_t0_010,rotd50_t0_025,rotd50_t0_040,rotd50_t0_050,rotd50_t0_070,rotd50_t0_100,rotd50_t0_150,rotd50_t0_200,rotd50_t0_250,rotd50_t0_300,rotd50_t0_350,rotd50_t0_400,rotd50_t0_450,rotd50_t0_500,rotd50_t0_600,rotd50_t0_700,rotd50_t0_750,rotd50_t0_800,rotd50_t0_900,rotd50_t1_000,rotd50_t1_200,rotd50_t1_400,rotd50_t1_600,rotd50_t1_800,rotd50_t2_000,rotd50_t2_500,rotd50_t3_000,rotd50_t3_500,rotd50_t4_000,rotd50_t4_500,rotd50_t5_000,rotd50_t6_000,rotd50_t7_000,rotd50_t8_000,rotd50_t9_000,rotd50_t10_000,rotd100_t0_010,rotd100_t0_025,rotd100_t0_040,rotd100_t0_050,rotd100_t0_070,rotd100_t0_100,rotd100_t0_150,rotd100_t0_200,rotd100_t0_250,rotd100_t0_300,rotd100_t0_350,rotd100_t0_400,rotd100_t0_450,rotd100_t0_500,rotd100_t0_600,rotd100_t0_700,rotd100_t0_750,rotd100_t0_800,rotd100_t0_900,rotd100_t1_000,rotd100_t1_200,rotd100_t1_400,rotd100_t1_600,rotd100_t1_800,rotd100_t2_000,rotd100_t2_500,rotd100_t3_000,rotd100_t3_500,rotd100_t4_000,rotd100_t4_500,rotd100_t5_000,rotd100_t6_000,rotd100_t7_000,rotd100_t8_000,rotd100_t9_000,rotd100_t10_000,rotd00_t0_010,rotd00_t0_025,rotd00_t0_040,rotd00_t0_050,rotd00_t0_070,rotd00_t0_100,rotd00_t0_150,rotd00_t0_200,rotd00_t0_250,rotd00_t0_300,rotd00_t0_350,rotd00_t0_400,rotd00_t0_450,rotd00_t0_500,rotd00_t0_600,rotd00_t0_700,rotd00_t0_750,rotd00_t0_800,rotd00_t0_900,rotd00_t1_000,rotd00_t1_200,rotd00_t1_400,rotd00_t1_600,rotd00_t1_800,rotd00_t2_000,rotd00_t2_500,rotd00_t3_000,rotd00_t3_500,rotd00_t4_000,rotd00_t4_500,rotd00_t5_000,rotd00_t6_000,rotd00_t7_000,rotd00_t8_000,rotd00_t9_000,rotd00_t10_000
780,EMSC-20151214_0000085,2015-12-14T21:13:00,,,,,GR,39,20.64,26,,SS,4.1,,4.2,,4.2,,4.2,,,,,,,,,,,,CL,AGRP,0,D,0,,,,GR,38.3959,21.72277,282,,geology,,RESIF,,,,,4.06,544.6,115.6258256,125.1093771,,,,,D,0,E,90,N,0,Z,0.1,0.1,0.25,30,30,30,0.137034,-0.118004,0.063249,0.1273175,0.137034,0.116374,0.006863,0.005939,-0.002837,0.005988035,0.00767781,0.00547661,0.000977,0.000852,-0.000489,0.000899816,0.00104632,0.00547661,26.905,28.61,43.26,27.3175,28.8,26.425,0.0224302,0.0221762,0.0148341,0.02224725,0.0230495,0.0212209,0.8488819,0.733938285,0.575389505,0.794729595,0.8488819,0.733938285,4.14E-05,3.10E-05,1.45E-05,3.62E-05,4.14E-05,3.10E-05,0.137035,0.138928,0.144823,0.169933,0.216237,0.407775,0.411797,0.413901,0.522328,0.255791,0.255502,0.301453,0.377777,0.283001,0.159895,0.134721,0.108554,0.097325,0.072524,0.061545,0.039576,0.037396,0.024724,0.01897,0.014516,0.010198,0.008967,0.005347,0.004271,0.003537,0.002799,0.001737,0.001727,0.001132,0.000843,0.000673,0.118022,0.119091,0.12432,0.152564,0.20654,0.294157,0.345455,0.300042,0.482979,0.368326,0.228543,0.267937,0.249495,0.211028,0.197586,0.114408,0.108611,0.080665,0.065238,0.05505,0.039378,0.03536,0.029743,0.020077,0.019169,0.013753,0.008126,0.005111,0.004745,0.003773,0.00274,0.001905,0.001309,0.001211,0.000863,0.000591,0.06332,0.067544,0.111124,0.161569,0.170071,0.162997,0.213545,0.167116,0.214232,0.184251,0.173619,0.108551,0.132679,0.161584,0.140149,0.080051,0.066719,0.054051,0.04732,0.04026,0.032466,0.033844,0.017008,0.016337,0.012644,0.008011,0.004959,0.003225,0.001773,0.001363,0.001165,0.000844,0.00053,0.000405,0.00031,0.000257,0.127417,0.130059,0.1467495,0.1616705,0.213014,0.3194265,0.3712235,0.363287,0.5026505,0.3205395,0.2449935,0.276812,0.32525,0.2625605,0.176687,0.1324245,0.107269,0.0913935,0.0667835,0.05504,0.0396585,0.0355065,0.0273685,0.0192075,0.017326,0.011479,0.0087255,0.005105,0.0045885,0.003662,0.0028045,0.001802,0.0015535,0.0011715,0.0008525,0.0006355,0.137193,0.139347,0.154706,0.174725,0.25206,0.40836,0.416815,0.422497,0.545575,0.380041,0.270227,0.310075,0.382352,0.283889,0.225439,0.143454,0.122835,0.1095,0.076459,0.063872,0.048943,0.04142,0.030406,0.020795,0.020173,0.013912,0.009721,0.005965,0.005136,0.003959,0.003209,0.00194,0.001819,0.001395,0.001116,0.000847,0.116521,0.119091,0.12432,0.138887,0.191936,0.277922,0.314857,0.300042,0.478612,0.214409,0.199169,0.236946,0.226629,0.211028,0.150975,0.100249,0.078241,0.064267,0.051684,0.047595,0.036799,0.025563,0.023605,0.014732,0.01327,0.010049,0.007107,0.004663,0.003451,0.0029,0.002514,0.00156,0.001135,0.000835,0.000588,0.000516
781,EMSC-20151214_0000085,2015-12-14T21:13:00,,,,,GR,39,20.64,26,,SS,4.1,,4.2,,4.2,,4.2,,,,,,,,,,,,CL,ROD3,0,D,0,,,,GR,38.30811,21.89204,448,,geology,,RESIF,,,,,3.13,502,133.3284281,124.7813387,,,,,D,0,E,90,N,0,Z,0.2,0.2,0.2,40,40,40,0.290878,-0.251014,-0.107787,0.2576665,0.313699,0.218535,-0.011782,-0.009292,-0.004088,0.0102055,0.0126065,0.00895036,-0.000921,0.000886,-0.000546,0.000954005,0.00107521,0.00895036,31.63,32.69,34.325,32.125,33.19,29.955,0.0347606,0.0292456,0.0127434,0.0323545,0.0354005,0.0276463,1.651059395,1.710742381,0.83003708,1.671878652,1.7743355,1.55326584,0.000151854,0.000149621,3.53E-05,0.000150738,0.000169105,0.000132371,0.291236,0.292543,0.302956,0.309316,0.373366,0.44675,0.686024,0.786987,1.3178,0.961828,0.565287,0.481173,0.349662,0.257516,0.151071,0.110222,0.113447,0.101706,0.115612,0.100026,0.076418,0.052192,0.053437,0.031637,0.027847,0.012075,0.006705,0.004993,0.003023,0.002961,0.002224,0.001504,0.001107,0.001045,0.000902,0.000779,0.2519,0.255792,0.270673,0.287634,0.350429,0.362776,0.601173,0.821422,0.826291,0.695859,0.431206,0.261459,0.243554,0.233297,0.114961,0.138447,0.120773,0.099776,0.071555,0.058898,0.040161,0.074454,0.046693,0.025528,0.027388,0.016778,0.011248,0.006505,0.003853,0.003061,0.002176,0.001596,0.001219,0.00094,0.000786,0.000729,0.10792,0.111897,0.122083,0.134586,0.162701,0.285669,0.400976,0.420701,0.262669,0.130061,0.128866,0.122706,0.092389,0.089012,0.083244,0.060148,0.059957,0.04918,0.038245,0.033341,0.018803,0.022623,0.02098,0.014052,0.012875,0.007933,0.006228,0.003599,0.002562,0.002463,0.001532,0.000967,0.000706,0.000594,0.000457,0.000372,0.2586975,0.262839,0.277874,0.296293,0.356193,0.4466555,0.6220355,0.797621,1.0739,0.7859235,0.501689,0.3847775,0.30618,0.233966,0.131584,0.114062,0.11518,0.098921,0.0829585,0.0861435,0.054931,0.0639165,0.050643,0.02774,0.0263705,0.014912,0.008871,0.005641,0.0037825,0.00296,0.0022035,0.0016235,0.0012535,0.0010255,0.000857,0.000748,0.313727,0.315544,0.327863,0.338306,0.406592,0.508977,0.750203,0.836449,1.39735,1.0343,0.603273,0.490036,0.351317,0.269027,0.151229,0.13945,0.127691,0.104645,0.115616,0.107529,0.076418,0.090359,0.068459,0.037911,0.028982,0.01741,0.012402,0.007189,0.004519,0.003411,0.002311,0.001796,0.001377,0.00111,0.000976,0.000872,0.219003,0.222179,0.230193,0.248544,0.303254,0.31831,0.567169,0.72802,0.826291,0.689318,0.413859,0.241187,0.23418,0.218408,0.109369,0.104126,0.08826,0.083762,0.065403,0.052705,0.040161,0.032512,0.028259,0.02342,0.017462,0.009661,0.00638,0.004778,0.003011,0.00269,0.00203,0.00143,0.001076,0.000905,0.000768,0.000661
782,EMSC-20151214_0000085,2015-12-14T21:13:00,,,,,GR,39,20.64,26,,SS,4.1,,4.2,,4.2,,4.2,,,,,,,,,,,,CL,TRIZ,0,D,2,,,,GR,38.36543,22.07272,59,,geology,,RESIF,,,,,8.16,764.8,143.1870317,119.0201603,,,,,D,0,E,90,N,0,Z,0.1,0.1,0.1,30,30,30,-0.086955,-0.05751,0.048639,0.065733,0.08783,0.051156,0.0051,0.003413,-0.003423,0.004120885,0.0051595,0.00341213,0.001097,-0.000859,0.000721,0.000969306,0.00117992,0.00341213,36.84,44.905,36.295,38.9275,44.97,36.74,0.0215941,0.019476,0.0146876,0.02060015,0.0221605,0.0182179,0.786898585,0.46502199,0.42744176,0.649357212,0.787406275,0.464298785,2.68E-05,8.88E-06,7.98E-06,1.78E-05,2.69E-05,8.78E-06,0.087005,0.088897,0.095577,0.095071,0.104985,0.134523,0.19296,0.26917,0.415792,0.33513,0.315069,0.206516,0.231792,0.169037,0.173347,0.123373,0.095587,0.068995,0.070547,0.055211,0.037477,0.038894,0.030117,0.023209,0.019078,0.010553,0.005924,0.004546,0.003803,0.003705,0.002408,0.002455,0.00227,0.001597,0.001029,0.000786,0.057719,0.059494,0.060254,0.062783,0.077623,0.099902,0.171899,0.229484,0.149019,0.101737,0.091702,0.107219,0.106906,0.092682,0.0703,0.078186,0.077064,0.066687,0.05507,0.050945,0.0631,0.048742,0.039835,0.032401,0.02296,0.01275,0.01194,0.004347,0.003078,0.002679,0.00187,0.002142,0.001371,0.001405,0.000999,0.000756,0.048766,0.049399,0.050607,0.053543,0.087857,0.136395,0.181488,0.193502,0.157596,0.10962,0.103922,0.061786,0.059472,0.068947,0.067825,0.06296,0.061032,0.049971,0.035306,0.02536,0.026216,0.031252,0.028216,0.024792,0.025214,0.013786,0.007912,0.004896,0.003124,0.002548,0.001879,0.001279,0.001009,0.000712,0.000461,0.000357,0.0658495,0.067448,0.07105,0.071649,0.0805205,0.116953,0.185391,0.229395,0.3114285,0.237629,0.226449,0.175115,0.168145,0.1458305,0.1364495,0.0958555,0.081111,0.068446,0.0623205,0.054123,0.053797,0.0405575,0.0349905,0.025977,0.020593,0.0117515,0.008768,0.0044535,0.003446,0.0034995,0.0023045,0.0022465,0.001855,0.001521,0.0010135,0.0007645,0.088058,0.089734,0.096415,0.095861,0.106658,0.143421,0.194423,0.270016,0.419837,0.33513,0.315846,0.211708,0.232515,0.170111,0.173347,0.123373,0.100158,0.077095,0.076758,0.064157,0.064857,0.048759,0.039978,0.032602,0.023754,0.013783,0.012364,0.005534,0.003803,0.003838,0.002689,0.002457,0.002295,0.001764,0.001274,0.000865,0.05124,0.052284,0.052933,0.056475,0.0677,0.086894,0.16342,0.191533,0.139641,0.101737,0.083307,0.096172,0.104327,0.077151,0.070299,0.071724,0.063184,0.06385,0.041711,0.033604,0.036324,0.032406,0.025686,0.020631,0.016324,0.008022,0.00496,0.003826,0.002893,0.002436,0.001803,0.001634,0.001372,0.00114,0.000754,0.000542
783,EMSC-20151214_0000085,2015-12-14T21:13:00,,,,,GR,39,20.64,26,,SS,4.1,,4.2,,4.2,,4.2,,,,,,,,,,,,HI,ARG2,,D,0,,,,GR,38.1783,20.4878,6,,topography,,,,,,,1.81,415.1,92.17377903,188.3190105,,,,,D,0,E,90,N,0,Z,0.15,0.15,0.15,40,40,40,-0.41904,0.692355,0.284054,0.584609,0.699544,0.375637,-0.020158,0.037836,0.010989,0.0296442,0.0391875,0.0196299,0.002269,0.002378,0.000867,0.00222984,0.00239867,0.0196299,27.69,23.95,31.07,26.595,28.035,23.815,0.0541074,0.0679235,0.0287895,0.062315487,0.068581803,0.051344296,2.64990129,2.679382133,1.87591837,2.668429477,2.701474583,2.63089797,0.000408824,0.000486976,0.000173018,0.0004479,0.00049117,0.000404631,0.419789,0.432585,0.466851,0.607525,0.777485,1.01624,1.46543,1.29807,1.25809,1.00276,0.814539,0.939827,0.753957,0.993748,0.387669,0.364171,0.285019,0.255577,0.166124,0.113639,0.08779,0.059476,0.059376,0.04416,0.024466,0.012196,0.010483,0.007874,0.006172,0.005535,0.004662,0.003151,0.00248,0.002093,0.001879,0.001678,0.693474,0.705099,0.757397,0.849933,0.865179,1.413,1.15736,1.78791,2.47589,1.06972,1.21856,0.878314,1.3025,1.46087,0.826229,0.381779,0.310036,0.241918,0.180436,0.171681,0.081527,0.068672,0.047599,0.033676,0.027507,0.01879,0.012447,0.00976,0.008955,0.008544,0.008145,0.00551,0.003975,0.003429,0.00302,0.002613,0.285595,0.285533,0.344775,0.431816,0.598002,0.904831,1.16273,0.677003,0.655656,0.552809,0.452022,0.405069,0.359798,0.404912,0.250486,0.135916,0.131836,0.107107,0.086895,0.0761,0.044356,0.040638,0.030686,0.021899,0.017523,0.009363,0.007012,0.003732,0.002758,0.002346,0.002057,0.00134,0.001136,0.000971,0.000799,0.000711,0.593003,0.608572,0.6618325,0.735954,0.820594,1.181525,1.22812,1.4189,1.78851,1.03789,1.002609,0.9103165,1.032145,1.25647,0.638378,0.3742855,0.303274,0.242475,0.1643485,0.1286955,0.102176,0.06521825,0.05040625,0.0341458,0.0249668,0.0151602,0.0113141,0.009106155,0.006892085,0.00642439,0.006030475,0.004215115,0.003124015,0.002683625,0.00235592,0.00203204,0.700647,0.718332,0.800821,0.864061,0.908259,1.49568,1.52593,1.79499,2.5045,1.14301,1.23256,1.05908,1.34893,1.54621,0.826229,0.441594,0.350087,0.280057,0.181542,0.174859,0.11491,0.0891145,0.0614412,0.0454717,0.0275066,0.0205525,0.0140066,0.0107268,0.00935797,0.00874936,0.00823819,0.00563529,0.0041142,0.003525,0.00309327,0.0026554,0.376141,0.388608,0.43472,0.517332,0.652118,1.00674,1.07122,1.21421,1.19253,0.84911,0.789685,0.696043,0.682211,0.956275,0.347017,0.317829,0.203561,0.17472,0.131839,0.103716,0.0815278,0.0550883,0.0381694,0.0303958,0.0199131,0.0121961,0.00985579,0.00766438,0.00585505,0.00483938,0.00399491,0.00243624,0.00205645,0.00174785,0.00148055,0.00130646
784,EMSC-20151214_0000085,2015-12-14T21:13:00,,,,,GR,39,20.64,26,,SS,4.1,,4.2,,4.2,,4.2,,,,,,,,,,,,HI,KRK1,,D,0,,,,GR,39.618861,19.9202,10,,topography,,,,,,,1.41,387.2,92.5989551,318.1275771,,,,,D,0,E,90,N,0,Z,0.15,0.15,0.15,40,40,40,-0.807884,-0.747619,-0.326405,0.747015,0.906696,0.546279,0.024554,-0.020128,0.010452,0.02099925,0.0278414,0.0164734,0.00127,0.001247,-0.000683,0.00122286,0.00132195,0.0164734,25.65,24.805,24.915,25.4225,27.84,23.405,0.0470077,0.0432515,0.0208455,0.04547369,0.048298966,0.043179098,3.620671178,3.765537396,1.851710555,3.693802512,3.996680723,3.370710908,0.000846931,0.000918723,0.000212329,0.000882827,0.001108002,0.000657653,0.808333,0.821454,0.841999,0.874474,0.903692,1.5953,3.05089,2.46241,1.6812,0.915639,0.817075,0.592818,0.633451,0.649458,0.343556,0.285592,0.245776,0.194375,0.112014,0.079211,0.058073,0.03745,0.026314,0.029792,0.021693,0.013995,0.010423,0.006705,0.004413,0.004039,0.00387,0.002966,0.002506,0.002081,0.001816,0.001673,0.750415,0.768686,0.808915,0.853048,0.966265,1.78627,3.58251,2.20704,1.27435,0.703643,0.659579,0.615262,0.570872,0.368003,0.339153,0.170908,0.147647,0.136956,0.136537,0.096992,0.078193,0.04645,0.044219,0.027622,0.018696,0.0086,0.007816,0.005207,0.004558,0.004528,0.003853,0.002452,0.001926,0.00164,0.001465,0.001229,0.328596,0.33794,0.356831,0.412781,0.55622,1.06965,1.53344,0.811602,0.654577,0.555805,0.424687,0.277271,0.280208,0.23713,0.121815,0.071675,0.054279,0.049142,0.034367,0.030335,0.021437,0.018613,0.018496,0.014614,0.015653,0.009733,0.006743,0.00405,0.003505,0.00281,0.003699,0.001961,0.001402,0.001087,0.000751,0.000654,0.7503835,0.768144,0.805689,0.850714,0.9685005,1.62116,3.327165,2.330065,1.490995,0.7360285,0.7355325,0.6280615,0.6207165,0.5478775,0.348552,0.236093,0.1870815,0.1849965,0.1398005,0.0912242,0.06957435,0.040844,0.0338658,0.02808955,0.02049965,0.011599,0.009941335,0.00617149,0.004758735,0.00447482,0.003891155,0.002851245,0.00216644,0.00179811,0.00155319,0.001385245,0.9177,0.928809,0.949504,0.966688,1.0135,1.90756,3.63091,3.27787,2.09969,0.954494,0.917086,0.713241,0.719306,0.701244,0.428716,0.294331,0.245776,0.200408,0.164326,0.0970651,0.0878317,0.0525797,0.0477679,0.0314663,0.0221802,0.0143197,0.0112209,0.00684181,0.00522789,0.00508661,0.00426384,0.00320451,0.0029929,0.00247755,0.0021286,0.00191058,0.582951,0.581966,0.603994,0.631159,0.676641,1.39783,2.76769,1.17119,0.871462,0.56792,0.594326,0.587502,0.489783,0.36242,0.291781,0.163316,0.136699,0.127301,0.106366,0.0792105,0.0430361,0.0269477,0.0227817,0.0218106,0.0158381,0.00860039,0.00761853,0.00518996,0.00401703,0.00365326,0.00352932,0.00226409,0.00188064,0.00144985,0.00126305,0.00109487
785,EMSC-20151214_0000085,2015-12-14T21:13:00,,,,,GR,39,20.64,26,,SS,4.1,,4.2,,4.2,,4.2,,,,,,,,,,,,HI,MSL1,,D,0,,,,GR,38.3727,21.4243,1,,topography,,,,,,,0.75,334.6,97.49741176,135.3344913,,,,,D,0,E,90,N,0,Z,0.15,0.15,0.15,40,40,40,-0.54865,-0.639237,-0.37226,0.593636,0.639237,0.493545,0.034197,-0.032291,-0.012193,0.0357818,0.0456822,0.0295028,0.006699,-0.003965,-0.001962,0.005162795,0.00692519,0.0295028,30.335,33.125,44.035,32.225,34.635,29.36,0.166425,0.137684,0.0610252,0.152958787,0.167186754,0.137617224,4.23883021,4.503002885,2.638585576,4.401338948,4.503957797,4.210745905,0.000865251,0.001009012,0.000301537,0.000937131,0.001009012,0.000865251,0.548782,0.554193,0.56315,0.584678,0.683824,0.877016,1.11137,1.64811,2.18973,1.29739,1.44424,1.42661,1.05839,1.14559,1.12362,0.79444,0.64484,0.829115,0.707114,0.511129,0.403261,0.279155,0.229011,0.300982,0.187153,0.080164,0.045477,0.029564,0.020196,0.016145,0.012183,0.0076,0.006462,0.005147,0.004397,0.003705,0.639748,0.65337,0.68205,0.709614,0.802334,1.13115,1.41324,1.56236,1.90523,1.53098,1.7441,2.2852,1.61013,1.56588,1.14276,0.705319,0.651509,0.509204,0.435231,0.431097,0.331788,0.202069,0.194779,0.150048,0.135066,0.054924,0.033723,0.02667,0.018632,0.013944,0.011686,0.006812,0.005083,0.004005,0.003171,0.00267,0.373166,0.385469,0.420692,0.631128,0.576359,0.982898,0.907359,0.970584,0.938869,0.650889,0.418325,0.394438,0.385698,0.628067,0.303527,0.255156,0.223638,0.22373,0.233128,0.310734,0.192432,0.119879,0.067992,0.065484,0.04615,0.021902,0.011722,0.008414,0.006089,0.004924,0.004349,0.003538,0.002469,0.001907,0.001501,0.001233,0.603953,0.6080375,0.633306,0.6442995,0.7429535,0.917598,1.346305,1.576325,1.897975,1.42274,1.47782,1.70534,1.543345,1.20464,1.13319,0.7680195,0.646947,0.6557575,0.5792305,0.4431165,0.3771455,0.25484,0.2057145,0.237502,0.161196,0.06537395,0.038084,0.02795775,0.0185707,0.0140891,0.01182495,0.00780615,0.006317035,0.00508643,0.004169235,0.00351843,0.644422,0.65337,0.682769,0.710381,0.825123,1.20117,1.60641,1.66764,2.48137,1.58749,1.76236,2.29894,1.80572,1.60067,1.41663,0.936005,0.765881,0.829865,0.75912,0.511585,0.403261,0.280258,0.233806,0.300982,0.202262,0.0801639,0.0457786,0.0317298,0.0207895,0.0167153,0.0124422,0.00878265,0.00699432,0.00537544,0.00443113,0.00374612,0.500875,0.506937,0.522024,0.5384,0.642523,0.834903,1.04506,1.47002,1.39119,1.20512,1.20336,1.17721,1.03586,1.05212,0.813025,0.692453,0.569977,0.483279,0.41765,0.417427,0.306846,0.185175,0.177254,0.141125,0.116988,0.0475511,0.0300782,0.0232622,0.0168149,0.0122474,0.0103369,0.00659506,0.00468491,0.00350455,0.00272956,0.00227691
